{
  "type": "FeatureCollection",
  "attribution": "© OpenStreetMap contributors",
  "license": "ODbL-1.0",
  "source": "https://www.openstreetmap.org/copyright",
  "features": [
    {
      "type": "Feature",
      "properties": {
        "mountain_slug": "bukit-carcosa",
        "name": "Nursery Trail",
        "length_km": 0.86,
        "elevation_gain_m": null,
        "source": "© OpenStreetMap contributors"
      },
      "geometry": {
        "type": "LineString",
        "coordinates": [
          [
            101.68475,
            3.15123
          ],
          [
            101.68489,
            3.15115
          ],
          [
            101.68493,
            3.15105
          ],
          [
            101.68501,
            3.15093
          ],
          [
            101.68518,
            3.15081
          ],
          [
            101.68518,
            3.15091
          ],
          [
            101.68518,
            3.15097
          ],
          [
            101.68518,
            3.15105
          ],
          [
            101.68533,
            3.15118
          ],
          [
            101.68547,
            3.15123
          ],
          [
            101.68558,
            3.15124
          ],
          [
            101.68573,
            3.15122
          ],
          [
            101.68588,
            3.1513
          ],
          [
            101.686,
            3.15131
          ],
          [
            101.68607,
            3.15144
          ],
          [
            101.68619,
            3.15157
          ],
          [
            101.68623,
            3.15164
          ],
          [
            101.68626,
            3.15168
          ],
          [
            101.68629,
            3.15168
          ],
          [
            101.68635,
            3.15163
          ],
          [
            101.68652,
            3.15169
          ],
          [
            101.68659,
            3.15168
          ],
          [
            101.68659,
            3.15163
          ],
          [
            101.6865,
            3.15153
          ],
          [
            101.68646,
            3.15141
          ],
          [
            101.6864,
            3.15133
          ],
          [
            101.68634,
            3.15125
          ],
          [
            101.68629,
            3.15117
          ],
          [
            101.68629,
            3.15104
          ],
          [
            101.68627,
            3.15096
          ],
          [
            101.68621,
            3.15093
          ],
          [
            101.68616,
            3.15092
          ],
          [
            101.68612,
            3.1509
          ],
          [
            101.68609,
            3.15087
          ],
          [
            101.68607,
            3.15081
          ],
          [
            101.68608,
            3.15076
          ],
          [
            101.68614,
            3.15068
          ],
          [
            101.68614,
            3.15063
          ],
          [
            101.6861,
            3.15061
          ],
          [
            101.68607,
            3.15058
          ],
          [
            101.68605,
            3.15055
          ],
          [
            101.68604,
            3.15049
          ],
          [
            101.68603,
            3.15043
          ],
          [
            101.68599,
            3.15038
          ],
          [
            101.68595,
            3.15037
          ],
          [
            101.6859,
            3.15042
          ],
          [
            101.68583,
            3.1505
          ],
          [
            101.68576,
            3.15057
          ],
          [
            101.6857,
            3.15056
          ],
          [
            101.68561,
            3.1505
          ],
          [
            101.68537,
            3.1505
          ],
          [
            101.68531,
            3.15047
          ],
          [
            101.68522,
            3.15044
          ],
          [
            101.68514,
            3.15046
          ],
          [
            101.68509,
            3.1505
          ],
          [
            101.68493,
            3.15053
          ],
          [
            101.68479,
            3.15061
          ],
          [
            101.68469,
            3.15067
          ],
          [
            101.68464,
            3.15072
          ],
          [
            101.68454,
            3.15074
          ],
          [
            101.68447,
            3.15078
          ],
          [
            101.68432,
            3.15087
          ],
          [
            101.68419,
            3.15093
          ],
          [
            101.68413,
            3.15096
          ],
          [
            101.68406,
            3.15097
          ],
          [
            101.68405,
            3.151
          ],
          [
            101.68405,
            3.15102
          ],
          [
            101.68409,
            3.15103
          ],
          [
            101.68421,
            3.15102
          ],
          [
            101.68432,
            3.15102
          ],
          [
            101.68441,
            3.15099
          ],
          [
            101.68449,
            3.15095
          ],
          [
            101.68455,
            3.15092
          ],
          [
            101.6848,
            3.15077
          ],
          [
            101.68494,
            3.1507
          ],
          [
            101.68513,
            3.1507
          ],
          [
            101.68518,
            3.15076
          ],
          [
            101.68518,
            3.15081
          ]
        ]
      }
    },
    {
      "type": "Feature",
      "properties": {
        "mountain_slug": "bukit-carcosa",
        "name": "Orange Trail",
        "length_km": 0.82,
        "elevation_gain_m": null,
        "source": "© OpenStreetMap contributors"
      },
      "geometry": {
        "type": "LineString",
        "coordinates": [
          [
            101.68487,
            3.15302
          ],
          [
            101.68489,
            3.15297
          ],
          [
            101.68492,
            3.15295
          ],
          [
            101.68495,
            3.15293
          ],
          [
            101.68501,
            3.15293
          ],
          [
            101.68509,
            3.15295
          ],
          [
            101.68514,
            3.15295
          ],
          [
            101.68523,
            3.15294
          ],
          [
            101.68531,
            3.15295
          ],
          [
            101.68542,
            3.15297
          ],
          [
            101.68554,
            3.15304
          ],
          [
            101.68561,
            3.1531
          ],
          [
            101.68565,
            3.15314
          ],
          [
            101.68566,
            3.15318
          ],
          [
            101.68565,
            3.15323
          ],
          [
            101.68564,
            3.15329
          ],
          [
            101.68561,
            3.15336
          ],
          [
            101.68561,
            3.15343
          ],
          [
            101.68564,
            3.15346
          ],
          [
            101.68568,
            3.15347
          ],
          [
            101.68573,
            3.15347
          ],
          [
            101.68575,
            3.15347
          ],
          [
            101.68578,
            3.15349
          ],
          [
            101.68583,
            3.15349
          ],
          [
            101.68589,
            3.15346
          ],
          [
            101.68596,
            3.1534
          ],
          [
            101.68603,
            3.15332
          ],
          [
            101.68606,
            3.15326
          ],
          [
            101.68608,
            3.15315
          ],
          [
            101.68609,
            3.15307
          ],
          [
            101.6861,
            3.15302
          ],
          [
            101.68614,
            3.15297
          ],
          [
            101.68615,
            3.15293
          ],
          [
            101.68617,
            3.15283
          ],
          [
            101.68619,
            3.15275
          ],
          [
            101.68623,
            3.15267
          ],
          [
            101.68626,
            3.1526
          ],
          [
            101.68624,
            3.15246
          ],
          [
            101.68624,
            3.1524
          ],
          [
            101.68622,
            3.15238
          ],
          [
            101.68618,
            3.15238
          ],
          [
            101.68613,
            3.1524
          ],
          [
            101.68607,
            3.15245
          ],
          [
            101.68604,
            3.15245
          ],
          [
            101.68601,
            3.15243
          ],
          [
            101.686,
            3.15234
          ],
          [
            101.686,
            3.15226
          ],
          [
            101.686,
            3.15221
          ],
          [
            101.68597,
            3.15215
          ],
          [
            101.68593,
            3.15213
          ],
          [
            101.68591,
            3.15209
          ],
          [
            101.6859,
            3.15205
          ],
          [
            101.68588,
            3.15202
          ],
          [
            101.68583,
            3.15201
          ],
          [
            101.68581,
            3.152
          ],
          [
            101.68581,
            3.15197
          ],
          [
            101.68581,
            3.15194
          ],
          [
            101.68582,
            3.15191
          ],
          [
            101.68582,
            3.15187
          ],
          [
            101.6858,
            3.15186
          ],
          [
            101.68577,
            3.15185
          ],
          [
            101.68572,
            3.15186
          ],
          [
            101.68567,
            3.15186
          ],
          [
            101.68557,
            3.15187
          ],
          [
            101.68552,
            3.15186
          ],
          [
            101.68543,
            3.15182
          ],
          [
            101.68536,
            3.15177
          ],
          [
            101.68534,
            3.15174
          ],
          [
            101.6853,
            3.15173
          ],
          [
            101.68527,
            3.15174
          ],
          [
            101.68524,
            3.15176
          ],
          [
            101.68521,
            3.1518
          ],
          [
            101.68518,
            3.15182
          ],
          [
            101.68515,
            3.15186
          ],
          [
            101.68511,
            3.15189
          ],
          [
            101.68503,
            3.15195
          ],
          [
            101.68503,
            3.15196
          ],
          [
            101.68504,
            3.15198
          ],
          [
            101.68506,
            3.15198
          ],
          [
            101.68515,
            3.15198
          ],
          [
            101.68527,
            3.15197
          ],
          [
            101.68537,
            3.15198
          ],
          [
            101.68544,
            3.152
          ],
          [
            101.68549,
            3.15203
          ],
          [
            101.68554,
            3.15205
          ],
          [
            101.68563,
            3.15208
          ],
          [
            101.68564,
            3.1521
          ],
          [
            101.68564,
            3.15212
          ],
          [
            101.68563,
            3.15213
          ],
          [
            101.68553,
            3.15213
          ],
          [
            101.68541,
            3.15211
          ],
          [
            101.68524,
            3.1521
          ],
          [
            101.68516,
            3.15212
          ],
          [
            101.68514,
            3.15215
          ],
          [
            101.68514,
            3.15217
          ],
          [
            101.68516,
            3.15219
          ],
          [
            101.68528,
            3.15223
          ],
          [
            101.68549,
            3.15225
          ],
          [
            101.68559,
            3.15228
          ],
          [
            101.68565,
            3.15228
          ],
          [
            101.68572,
            3.15227
          ],
          [
            101.68583,
            3.15229
          ],
          [
            101.68584,
            3.15233
          ],
          [
            101.68584,
            3.15235
          ],
          [
            101.6858,
            3.15238
          ],
          [
            101.68567,
            3.15239
          ],
          [
            101.68553,
            3.15239
          ],
          [
            101.68544,
            3.15241
          ],
          [
            101.68542,
            3.15242
          ],
          [
            101.68541,
            3.15243
          ],
          [
            101.68543,
            3.15246
          ],
          [
            101.68551,
            3.15253
          ],
          [
            101.68563,
            3.1526
          ],
          [
            101.68571,
            3.15265
          ]
        ]
      }
    },
    {
      "type": "Feature",
      "properties": {
        "mountain_slug": "bukit-carcosa",
        "name": "Green Trail",
        "length_km": 0.4,
        "elevation_gain_m": null,
        "source": "© OpenStreetMap contributors"
      },
      "geometry": {
        "type": "LineString",
        "coordinates": [
          [
            101.68417,
            3.15196
          ],
          [
            101.6841,
            3.15204
          ],
          [
            101.68405,
            3.1521
          ],
          [
            101.68391,
            3.15222
          ],
          [
            101.68388,
            3.15224
          ],
          [
            101.68375,
            3.15232
          ],
          [
            101.6837,
            3.15234
          ],
          [
            101.68361,
            3.15235
          ],
          [
            101.68353,
            3.15239
          ],
          [
            101.68345,
            3.15245
          ],
          [
            101.68339,
            3.15246
          ],
          [
            101.68334,
            3.15248
          ],
          [
            101.6833,
            3.15252
          ],
          [
            101.68328,
            3.15264
          ],
          [
            101.68324,
            3.1527
          ],
          [
            101.68318,
            3.15277
          ],
          [
            101.68305,
            3.15291
          ],
          [
            101.68303,
            3.15296
          ],
          [
            101.68303,
            3.15303
          ],
          [
            101.68305,
            3.15308
          ],
          [
            101.68312,
            3.1531
          ],
          [
            101.68327,
            3.1531
          ],
          [
            101.68336,
            3.15307
          ],
          [
            101.68342,
            3.15305
          ],
          [
            101.68345,
            3.15306
          ],
          [
            101.68345,
            3.15308
          ],
          [
            101.68344,
            3.15314
          ],
          [
            101.68344,
            3.1533
          ],
          [
            101.6834,
            3.15333
          ],
          [
            101.68335,
            3.15337
          ],
          [
            101.6833,
            3.15341
          ],
          [
            101.68328,
            3.15344
          ],
          [
            101.68327,
            3.15347
          ],
          [
            101.68329,
            3.1535
          ],
          [
            101.68333,
            3.15351
          ],
          [
            101.68341,
            3.15352
          ],
          [
            101.68345,
            3.15354
          ],
          [
            101.68349,
            3.15354
          ],
          [
            101.68354,
            3.15352
          ],
          [
            101.68367,
            3.15344
          ],
          [
            101.68397,
            3.15331
          ],
          [
            101.68414,
            3.15323
          ]
        ]
      }
    }
  ]
}
