{"type": "FeatureCollection", "attribution": "© OpenStreetMap contributors (ODbL 1.0), via Overture Maps Foundation release 2026-09-23.0", "license": "ODbL-1.0", "source": "https://overturemaps-us-west-2.s3.amazonaws.com/release/2026-09-23.0/theme=transportation/type=segment/", "features": [
{"type":"Feature","properties":{"mountain_slug":"matterhorn","trail":"Sentier de la Dent-Blanche","seq":0,"start_mile":0.0,"end_mile":0.1},"geometry":{"type":"LineString","coordinates":[[7.566522,46.046875],[7.566551,46.046693],[7.566957,46.046565],[7.567092,46.046683],[7.56703,46.046864],[7.567179,46.047152],[7.567462,46.04691]]}},
{"type":"Feature","properties":{"mountain_slug":"matterhorn","trail":"Sentier de la Dent-Blanche","seq":1,"start_mile":0.1,"end_mile":0.2},"geometry":{"type":"LineString","coordinates":[[7.567462,46.04691],[7.567515,46.046864],[7.567904,46.046691],[7.568017,46.046318],[7.568445,46.045901],[7.568664,46.045905],[7.568664,46.045884]]}},
{"type":"Feature","properties":{"mountain_slug":"matterhorn","trail":"Sentier de la Dent-Blanche","seq":2,"start_mile":0.2,"end_mile":0.3},"geometry":{"type":"LineString","coordinates":[[7.568664,46.045884],[7.568669,46.045711],[7.569346,46.045321],[7.569909,46.044785]]}},
{"type":"Feature","properties":{"mountain_slug":"matterhorn","trail":"Sentier de la Dent-Blanche","seq":3,"start_mile":0.3,"end_mile":0.4},"geometry":{"type":"LineString","coordinates":[[7.569909,46.044785],[7.56999,46.044707],[7.570118,46.044232],[7.571004,46.044087],[7.570887,46.043918],[7.570942,46.043891]]}},
{"type":"Feature","properties":{"mountain_slug":"matterhorn","trail":"Sentier de la Dent-Blanche","seq":4,"start_mile":0.4,"end_mile":0.5},"geometry":{"type":"LineString","coordinates":[[7.570942,46.043891],[7.571257,46.04374],[7.571518,46.043344],[7.571468,46.043235],[7.571678,46.042862],[7.571882,46.04268]]}},
{"type":"Feature","properties":{"mountain_slug":"matterhorn","trail":"Sentier de la Dent-Blanche","seq":5,"start_mile":0.5,"end_mile":0.6},"geometry":{"type":"LineString","coordinates":[[7.571882,46.04268],[7.572266,46.042339],[7.57335,46.041661]]}},
{"type":"Feature","properties":{"mountain_slug":"matterhorn","trail":"Sentier de la Dent-Blanche","seq":6,"start_mile":0.6,"end_mile":0.7},"geometry":{"type":"LineString","coordinates":[[7.57335,46.041661],[7.5735,46.041568],[7.57425,46.041311],[7.57492,46.041239],[7.57515,46.041042]]}},
{"type":"Feature","properties":{"mountain_slug":"matterhorn","trail":"Sentier de la Dent-Blanche","seq":7,"start_mile":0.7,"end_mile":0.8},"geometry":{"type":"LineString","coordinates":[[7.57515,46.041042],[7.575344,46.040875],[7.575409,46.04051],[7.57569,46.040358],[7.575797,46.040203],[7.575918,46.039765]]}},
{"type":"Feature","properties":{"mountain_slug":"matterhorn","trail":"Sentier de la Dent-Blanche","seq":8,"start_mile":0.8,"end_mile":0.9},"geometry":{"type":"LineString","coordinates":[[7.575918,46.039765],[7.576004,46.039454],[7.576333,46.03921],[7.576071,46.038994],[7.576102,46.038874],[7.576353,46.038746],[7.576382,46.038572]]}},
{"type":"Feature","properties":{"mountain_slug":"matterhorn","trail":"Sentier de la Dent-Blanche","seq":9,"start_mile":0.9,"end_mile":1.0},"geometry":{"type":"LineString","coordinates":[[7.576382,46.038572],[7.576413,46.038386],[7.576999,46.037976],[7.577719,46.037758],[7.577824,46.037644]]}},
{"type":"Feature","properties":{"mountain_slug":"matterhorn","trail":"Sentier de la Dent-Blanche","seq":10,"start_mile":1.0,"end_mile":1.1},"geometry":{"type":"LineString","coordinates":[[7.577824,46.037644],[7.578333,46.037092],[7.5783,46.036953],[7.578004,46.03689],[7.577379,46.036885]]}},
{"type":"Feature","properties":{"mountain_slug":"matterhorn","trail":"Sentier de la Dent-Blanche","seq":11,"start_mile":1.1,"end_mile":1.2},"geometry":{"type":"LineString","coordinates":[[7.577379,46.036885],[7.577066,46.036882],[7.576948,46.036826],[7.577973,46.036424],[7.578158,46.03614]]}},
{"type":"Feature","properties":{"mountain_slug":"matterhorn","trail":"Sentier de la Dent-Blanche","seq":12,"start_mile":1.2,"end_mile":1.3},"geometry":{"type":"LineString","coordinates":[[7.578158,46.03614],[7.578211,46.036057],[7.578473,46.035951],[7.578534,46.035777],[7.578685,46.035798],[7.579047,46.035546],[7.57943,46.035441],[7.579344,46.035233]]}},
{"type":"Feature","properties":{"mountain_slug":"matterhorn","trail":"Sentier de la Dent-Blanche","seq":13,"start_mile":1.3,"end_mile":1.4},"geometry":{"type":"LineString","coordinates":[[7.579344,46.035233],[7.579239,46.03498],[7.57943,46.034889],[7.579571,46.034412],[7.57946,46.034432],[7.579395,46.034216],[7.579667,46.034148],[7.579714,46.034155]]}},
{"type":"Feature","properties":{"mountain_slug":"matterhorn","trail":"Sentier de la Dent-Blanche","seq":14,"start_mile":1.4,"end_mile":1.5},"geometry":{"type":"LineString","coordinates":[[7.579714,46.034155],[7.580049,46.034207],[7.580855,46.033801],[7.580724,46.033773],[7.580769,46.033644],[7.581154,46.033538]]}},
{"type":"Feature","properties":{"mountain_slug":"matterhorn","trail":"Sentier de la Dent-Blanche","seq":15,"start_mile":1.5,"end_mile":1.6},"geometry":{"type":"LineString","coordinates":[[7.581154,46.033538],[7.581253,46.033511],[7.581359,46.033221],[7.581646,46.033155],[7.581575,46.03284],[7.581681,46.032795],[7.581641,46.032732],[7.582043,46.032648],[7.58207,46.032552]]}},
{"type":"Feature","properties":{"mountain_slug":"matterhorn","trail":"Sentier de la Dent-Blanche","seq":16,"start_mile":1.6,"end_mile":1.7},"geometry":{"type":"LineString","coordinates":[[7.58207,46.032552],[7.582079,46.032518],[7.582497,46.032389],[7.582518,46.03204],[7.582382,46.031755],[7.58286,46.031459]]}},
{"type":"Feature","properties":{"mountain_slug":"matterhorn","trail":"Sentier de la Dent-Blanche","seq":17,"start_mile":1.7,"end_mile":1.8},"geometry":{"type":"LineString","coordinates":[[7.58286,46.031459],[7.583027,46.031356],[7.583655,46.030766],[7.583835,46.030222]]}},
{"type":"Feature","properties":{"mountain_slug":"matterhorn","trail":"Sentier de la Dent-Blanche","seq":18,"start_mile":1.8,"end_mile":1.9},"geometry":{"type":"LineString","coordinates":[[7.583835,46.030222],[7.583897,46.030035],[7.583678,46.029638],[7.583619,46.029299],[7.583997,46.028886]]}},
{"type":"Feature","properties":{"mountain_slug":"matterhorn","trail":"Sentier de la Dent-Blanche","seq":19,"start_mile":1.9,"end_mile":2.0},"geometry":{"type":"LineString","coordinates":[[7.583997,46.028886],[7.584121,46.02875],[7.584075,46.028517],[7.584922,46.027787],[7.585006,46.02769]]}},
{"type":"Feature","properties":{"mountain_slug":"matterhorn","trail":"Sentier de la Dent-Blanche","seq":20,"start_mile":2.0,"end_mile":2.1},"geometry":{"type":"LineString","coordinates":[[7.585006,46.02769],[7.585566,46.027042],[7.586189,46.026618],[7.586223,46.026536]]}},
{"type":"Feature","properties":{"mountain_slug":"matterhorn","trail":"Sentier de la Dent-Blanche","seq":21,"start_mile":2.1,"end_mile":2.2},"geometry":{"type":"LineString","coordinates":[[7.586223,46.026536],[7.586344,46.026253],[7.586576,46.02609],[7.586691,46.02517]]}},
{"type":"Feature","properties":{"mountain_slug":"matterhorn","trail":"Sentier de la Dent-Blanche","seq":22,"start_mile":2.2,"end_mile":2.3},"geometry":{"type":"LineString","coordinates":[[7.586691,46.02517],[7.586714,46.02499],[7.587178,46.024504],[7.58783,46.023993]]}},
{"type":"Feature","properties":{"mountain_slug":"matterhorn","trail":"Sentier de la Dent-Blanche","seq":23,"start_mile":2.3,"end_mile":2.4},"geometry":{"type":"LineString","coordinates":[[7.58783,46.023993],[7.588044,46.023824],[7.58835,46.023876],[7.588569,46.023431],[7.58913,46.023069]]}},
{"type":"Feature","properties":{"mountain_slug":"matterhorn","trail":"Sentier de la Dent-Blanche","seq":24,"start_mile":2.4,"end_mile":2.5},"geometry":{"type":"LineString","coordinates":[[7.58913,46.023069],[7.589812,46.022628],[7.590024,46.022357],[7.58989,46.022155],[7.59027,46.022108]]}},
{"type":"Feature","properties":{"mountain_slug":"matterhorn","trail":"Sentier de la Dent-Blanche","seq":25,"start_mile":2.5,"end_mile":2.6},"geometry":{"type":"LineString","coordinates":[[7.59027,46.022108],[7.592317,46.021853]]}},
{"type":"Feature","properties":{"mountain_slug":"matterhorn","trail":"Sentier de la Dent-Blanche","seq":26,"start_mile":2.6,"end_mile":2.7},"geometry":{"type":"LineString","coordinates":[[7.592317,46.021853],[7.592962,46.021773],[7.594245,46.021343]]}},
{"type":"Feature","properties":{"mountain_slug":"matterhorn","trail":"Sentier de la Dent-Blanche","seq":27,"start_mile":2.7,"end_mile":2.8},"geometry":{"type":"LineString","coordinates":[[7.594245,46.021343],[7.594267,46.021336],[7.595212,46.021286],[7.596265,46.02105]]}},
{"type":"Feature","properties":{"mountain_slug":"matterhorn","trail":"Sentier de la Dent-Blanche","seq":28,"start_mile":2.8,"end_mile":2.9},"geometry":{"type":"LineString","coordinates":[[7.596265,46.02105],[7.596563,46.020983],[7.597914,46.020936],[7.598319,46.020879]]}},
{"type":"Feature","properties":{"mountain_slug":"matterhorn","trail":"Sentier de la Dent-Blanche","seq":29,"start_mile":2.9,"end_mile":3.0},"geometry":{"type":"LineString","coordinates":[[7.598319,46.020879],[7.598938,46.020792],[7.600261,46.020382]]}},
{"type":"Feature","properties":{"mountain_slug":"matterhorn","trail":"Sentier de la Dent-Blanche","seq":30,"start_mile":3.0,"end_mile":3.1},"geometry":{"type":"LineString","coordinates":[[7.600261,46.020382],[7.600349,46.020355],[7.600488,46.020402],[7.601559,46.020159],[7.602111,46.020461]]}},
{"type":"Feature","properties":{"mountain_slug":"matterhorn","trail":"Sentier de la Dent-Blanche","seq":31,"start_mile":3.1,"end_mile":3.2},"geometry":{"type":"LineString","coordinates":[[7.602111,46.020461],[7.602205,46.020512],[7.604164,46.020484]]}},
{"type":"Feature","properties":{"mountain_slug":"matterhorn","trail":"Sentier de la Dent-Blanche","seq":32,"start_mile":3.2,"end_mile":3.3},"geometry":{"type":"LineString","coordinates":[[7.604164,46.020484],[7.604574,46.020478],[7.606141,46.020878]]}},
{"type":"Feature","properties":{"mountain_slug":"matterhorn","trail":"Sentier de la Dent-Blanche","seq":33,"start_mile":3.3,"end_mile":3.4},"geometry":{"type":"LineString","coordinates":[[7.606141,46.020878],[7.606158,46.020882],[7.606819,46.021226],[7.607443,46.021969]]}},
{"type":"Feature","properties":{"mountain_slug":"matterhorn","trail":"Sentier de la Dent-Blanche","seq":34,"start_mile":3.4,"end_mile":3.5},"geometry":{"type":"LineString","coordinates":[[7.607443,46.021969],[7.607572,46.022124],[7.607283,46.022366],[7.607729,46.023269]]}},
{"type":"Feature","properties":{"mountain_slug":"matterhorn","trail":"Sentier de la Dent-Blanche","seq":35,"start_mile":3.5,"end_mile":3.6},"geometry":{"type":"LineString","coordinates":[[7.607729,46.023269],[7.608065,46.023952],[7.608293,46.024091],[7.607935,46.024542]]}},
{"type":"Feature","properties":{"mountain_slug":"matterhorn","trail":"Sentier de la Dent-Blanche","seq":36,"start_mile":3.6,"end_mile":3.7},"geometry":{"type":"LineString","coordinates":[[7.607935,46.024542],[7.60793,46.024548],[7.608633,46.024766],[7.609064,46.025022],[7.609255,46.025314],[7.609244,46.025504]]}},
{"type":"Feature","properties":{"mountain_slug":"matterhorn","trail":"Sentier de la Dent-Blanche","seq":37,"start_mile":3.7,"end_mile":3.8},"geometry":{"type":"LineString","coordinates":[[7.609244,46.025504],[7.609233,46.025709],[7.609547,46.025979],[7.609644,46.026872]]}},
{"type":"Feature","properties":{"mountain_slug":"matterhorn","trail":"Sentier de la Dent-Blanche","seq":38,"start_mile":3.8,"end_mile":3.9},"geometry":{"type":"LineString","coordinates":[[7.609644,46.026872],[7.609673,46.02714],[7.609976,46.0283]]}},
{"type":"Feature","properties":{"mountain_slug":"matterhorn","trail":"Sentier de la Dent-Blanche","seq":39,"start_mile":3.9,"end_mile":4.0},"geometry":{"type":"LineString","coordinates":[[7.609976,46.0283],[7.61024,46.029316],[7.610187,46.029678],[7.610218,46.029725]]}},
{"type":"Feature","properties":{"mountain_slug":"matterhorn","trail":"Sentier de la Dent-Blanche","seq":40,"start_mile":4.0,"end_mile":4.1},"geometry":{"type":"LineString","coordinates":[[7.610218,46.029725],[7.610283,46.029826],[7.610666,46.029886],[7.610834,46.030294],[7.611061,46.030522],[7.611056,46.030884]]}},
{"type":"Feature","properties":{"mountain_slug":"matterhorn","trail":"Sentier de la Dent-Blanche","seq":41,"start_mile":4.1,"end_mile":4.2},"geometry":{"type":"LineString","coordinates":[[7.611056,46.030884],[7.611053,46.031088],[7.611542,46.032232],[7.611544,46.032283]]}},
{"type":"Feature","properties":{"mountain_slug":"matterhorn","trail":"Sentier de la Dent-Blanche","seq":42,"start_mile":4.2,"end_mile":4.34},"geometry":{"type":"LineString","coordinates":[[7.611544,46.032283],[7.611564,46.032918],[7.611885,46.033376],[7.611981,46.034261]]}}
]}
