{"type": "FeatureCollection", "attribution": "© OpenStreetMap contributors (ODbL 1.0), via Overture Maps Foundation release 2026-09-23.0", "license": "ODbL-1.0", "source": "https://overturemaps-us-west-2.s3.amazonaws.com/release/2026-09-23.0/theme=transportation/type=segment/", "mountain_slug": "matterhorn", "hero_trail": "Sentier de la Dent-Blanche", "hero_length_mi": 4.34, "elevation": "meters above the EGM2008 geoid, sampled from the Copernicus DEM (step 10)", "features": [
{"type":"Feature","properties":{"trail":null,"hero":false,"class":"path","length_m":322.9},"geometry":{"type":"LineString","coordinates":[[7.55126,46.060905,1921.5],[7.551554,46.060736,1928.4],[7.551848,46.060567,1936.7],[7.552065,46.060392,1938.0],[7.552282,46.060217,1938.3],[7.552499,46.060041,1940.4],[7.552775,46.059967,1948.1],[7.553051,46.059892,1955.9],[7.553212,46.059795,1959.2],[7.553373,46.059698,1962.0],[7.553507,46.059557,1964.2],[7.553641,46.059415,1965.5],[7.553779,46.059265,1966.8],[7.553917,46.059114,1969.0],[7.55396,46.059029,1970.0],[7.554028,46.058994,1971.7],[7.554062,46.058909,1972.7],[7.554044,46.058872,1972.2]]}},
{"type":"Feature","properties":{"trail":null,"hero":false,"class":"path","length_m":733.5},"geometry":{"type":"LineString","coordinates":[[7.55126,46.060905,1921.5],[7.55112,46.061134,1925.6],[7.550979,46.061364,1928.0],[7.550839,46.061593,1930.8],[7.550698,46.061822,1933.4],[7.550558,46.062052,1933.4],[7.550418,46.062281,1932.4],[7.550277,46.062511,1933.2],[7.550145,46.062668,1931.5],[7.550013,46.062826,1929.7],[7.54983,46.063045,1927.1],[7.549647,46.063264,1923.0],[7.549609,46.0634,1923.9],[7.549572,46.063536,1923.4],[7.549339,46.063653,1912.5],[7.54922,46.063784,1909.0],[7.5491,46.063916,1906.3],[7.548936,46.064111,1905.2],[7.548817,46.064198,1901.2],[7.548753,46.064228,1898.0],[7.548516,46.06438,1885.5],[7.548278,46.064532,1873.0],[7.548041,46.064684,1862.7],[7.547804,46.064836,1855.3],[7.547566,46.064988,1848.5],[7.547343,46.065131,1841.5],[7.54722,46.065248,1837.9],[7.547096,46.065365,1835.9],[7.546914,46.06547,1830.9],[7.546796,46.065451,1826.3],[7.546644,46.065483,1822.1],[7.546603,46.065551,1823.0],[7.546561,46.065569,1822.5],[7.54649,46.065602,1821.8],[7.546329,46.065607,1818.2],[7.546208,46.065557,1814.3],[7.546067,46.065559,1811.8],[7.546039,46.065591,1812.1],[7.545898,46.065552,1808.9],[7.545769,46.065566,1807.2],[7.545631,46.065601,1805.5]]}},
{"type":"Feature","properties":{"trail":null,"hero":false,"class":"path","length_m":638.5},"geometry":{"type":"LineString","coordinates":[[7.558642,46.0456,1998.1],[7.558643,46.045656,1997.8],[7.558657,46.045733,1997.6],[7.558633,46.045855,1996.5],[7.558583,46.045956,1995.8],[7.558433,46.046093,1993.4],[7.55825,46.046205,1991.5],[7.558116,46.046338,1990.6],[7.557953,46.046476,1989.9],[7.557894,46.046589,1990.9],[7.557882,46.04674,1993.8],[7.557776,46.046928,1995.9],[7.557596,46.047161,1994.1],[7.557601,46.04733,1996.2],[7.557451,46.04747,1995.6],[7.557309,46.047599,1996.5],[7.557167,46.047727,1997.5],[7.557092,46.047907,2000.3],[7.557014,46.048044,2001.5],[7.556936,46.048181,2001.7],[7.556743,46.048406,2000.4],[7.556448,46.048513,1995.6],[7.55636,46.048657,1996.0],[7.556271,46.048801,1995.6],[7.556189,46.048974,1995.3],[7.556106,46.049146,1994.9],[7.556024,46.049318,1995.2],[7.555823,46.049387,1995.0],[7.555834,46.049535,1997.8],[7.555662,46.049657,1995.2],[7.555544,46.049806,1993.2],[7.555555,46.049899,1993.8],[7.555364,46.049935,1989.3],[7.555174,46.04997,1984.7],[7.554908,46.050048,1978.4],[7.554863,46.050128,1977.8],[7.554661,46.050201,1973.4]]}},
{"type":"Feature","properties":{"trail":null,"hero":false,"class":"path","length_m":531.2},"geometry":{"type":"LineString","coordinates":[[7.558642,46.0456,1998.1],[7.558583,46.04561,1996.5],[7.558523,46.045674,1994.4],[7.558513,46.045703,1994.0],[7.558483,46.04567,1993.3],[7.558454,46.045669,1992.4],[7.558336,46.04562,1988.9],[7.558309,46.045644,1988.3],[7.558278,46.04564,1987.5],[7.558272,46.045609,1987.2],[7.558179,46.045549,1984.6],[7.557971,46.045566,1980.5],[7.557823,46.045546,1978.7],[7.557665,46.045559,1977.5],[7.557562,46.045614,1977.2],[7.557489,46.045674,1976.8],[7.557328,46.04569,1975.4],[7.557245,46.045726,1974.5],[7.557143,46.045805,1973.2],[7.556994,46.045864,1972.0],[7.556728,46.045962,1971.3],[7.556598,46.046065,1971.5],[7.5565,46.046087,1971.0],[7.556374,46.046131,1970.5],[7.556325,46.046203,1970.7],[7.556325,46.04626,1971.0],[7.556291,46.04632,1971.0],[7.556209,46.046386,1970.2],[7.55612,46.046519,1969.0],[7.55608,46.046689,1968.8],[7.556005,46.046781,1968.4],[7.55599,46.046835,1968.3],[7.555945,46.046882,1967.9],[7.555917,46.046849,1967.6],[7.555774,46.046935,1966.2],[7.55573,46.047021,1966.1],[7.555662,46.047096,1965.6],[7.5556,46.047171,1964.9],[7.555545,46.047332,1964.7],[7.55558,46.047422,1965.4],[7.555568,46.047488,1965.4],[7.555613,46.047577,1966.5],[7.555596,46.047658,1966.4],[7.555535,46.047707,1965.6],[7.555495,46.047799,1965.6],[7.555473,46.047898,1966.1],[7.555303,46.04802,1964.5],[7.555288,46.048096,1964.6],[7.555215,46.048187,1964.5],[7.555115,46.048374,1964.1],[7.555054,46.048521,1963.4],[7.554962,46.048625,1962.9]]}},
{"type":"Feature","properties":{"trail":null,"hero":false,"class":"path","length_m":11.1},"geometry":{"type":"LineString","coordinates":[[7.558642,46.0456,1998.1],[7.558748,46.045533,2000.7]]}},
{"type":"Feature","properties":{"trail":null,"hero":false,"class":"path","length_m":48.5},"geometry":{"type":"LineString","coordinates":[[7.553339,46.052982,1948.1],[7.553417,46.052894,1949.1],[7.553437,46.05278,1949.2],[7.553497,46.052653,1949.6],[7.553561,46.052581,1949.9]]}},
{"type":"Feature","properties":{"trail":null,"hero":false,"class":"path","length_m":66.2},"geometry":{"type":"LineString","coordinates":[[7.553339,46.052982,1948.1],[7.553366,46.052985,1948.5],[7.553466,46.052931,1949.8],[7.553523,46.052855,1950.4],[7.553514,46.052834,1950.3],[7.553583,46.052729,1950.7],[7.553728,46.052483,1950.7]]}},
{"type":"Feature","properties":{"trail":null,"hero":false,"class":"path","length_m":7.8},"geometry":{"type":"LineString","coordinates":[[7.553339,46.052982,1948.1],[7.553281,46.05304,1947.6]]}},
{"type":"Feature","properties":{"trail":null,"hero":false,"class":"path","length_m":98.7},"geometry":{"type":"LineString","coordinates":[[7.553873,46.051763,1952.6],[7.553774,46.051934,1951.3],[7.553765,46.05197,1951.2],[7.553708,46.052018,1950.9],[7.553681,46.052062,1950.7],[7.553689,46.052155,1950.7],[7.553707,46.052183,1950.7],[7.553681,46.052264,1950.5],[7.55362,46.052315,1950.2],[7.55363,46.05236,1950.2],[7.553593,46.05241,1949.9],[7.553615,46.052495,1949.9],[7.553575,46.052536,1949.8],[7.553561,46.052581,1949.9]]}},
{"type":"Feature","properties":{"trail":null,"hero":false,"class":"path","length_m":43.6},"geometry":{"type":"LineString","coordinates":[[7.553873,46.051763,1952.6],[7.55389,46.051823,1952.4],[7.553929,46.051882,1952.5],[7.553933,46.051939,1952.2],[7.553888,46.051999,1951.8],[7.553878,46.052064,1951.7],[7.553921,46.052134,1951.8]]}},
{"type":"Feature","properties":{"trail":null,"hero":false,"class":"path","length_m":373.4},"geometry":{"type":"LineString","coordinates":[[7.553873,46.051763,1952.6],[7.553916,46.051637,1953.5],[7.553919,46.051497,1954.1],[7.553917,46.051406,1954.4],[7.553922,46.051322,1954.8],[7.553902,46.051212,1955.0],[7.553926,46.051098,1955.8],[7.553933,46.050924,1956.8],[7.553927,46.05079,1957.3],[7.553899,46.050684,1957.3],[7.553925,46.050568,1958.3],[7.553936,46.050437,1958.6],[7.553931,46.050372,1958.5],[7.553953,46.050321,1958.9],[7.554024,46.050275,1959.8],[7.554087,46.050045,1960.8],[7.554118,46.049906,1961.3],[7.554167,46.049835,1961.8],[7.554174,46.049746,1962.3],[7.554259,46.049592,1963.1],[7.554308,46.049511,1963.3],[7.554333,46.049379,1963.0],[7.55437,46.049162,1962.7],[7.554528,46.049025,1963.3],[7.554661,46.04894,1963.5],[7.554688,46.048856,1963.0],[7.55481,46.048793,1963.8],[7.554962,46.048625,1962.9]]}},
{"type":"Feature","properties":{"trail":null,"hero":false,"class":"path","length_m":69.2},"geometry":{"type":"LineString","coordinates":[[7.554543,46.053674,1961.1],[7.554643,46.053665,1962.0],[7.554754,46.05362,1962.4],[7.554859,46.053593,1963.2],[7.554985,46.053606,1964.9],[7.555072,46.053624,1966.4],[7.555197,46.053612,1968.1],[7.555323,46.053611,1969.9],[7.555399,46.053632,1971.3]]}},
{"type":"Feature","properties":{"trail":null,"hero":false,"class":"path","length_m":95.4},"geometry":{"type":"LineString","coordinates":[[7.554543,46.053674,1961.1],[7.554537,46.053744,1962.0],[7.554602,46.053844,1964.0],[7.554693,46.053932,1966.3],[7.554685,46.054027,1967.6],[7.55474,46.05412,1969.7],[7.554751,46.054194,1970.8],[7.554731,46.054272,1971.6],[7.554652,46.054324,1971.1],[7.554673,46.054372,1972.0],[7.554772,46.054435,1974.3]]}},
{"type":"Feature","properties":{"trail":null,"hero":false,"class":"path","length_m":103.1},"geometry":{"type":"LineString","coordinates":[[7.554543,46.053674,1961.1],[7.554486,46.053673,1960.6],[7.554178,46.053669,1956.9],[7.554083,46.053625,1955.1],[7.553932,46.053618,1953.2],[7.553609,46.053685,1950.3],[7.553457,46.053689,1949.4],[7.553322,46.053573,1948.0]]}},
{"type":"Feature","properties":{"trail":null,"hero":false,"class":"path","length_m":139.7},"geometry":{"type":"LineString","coordinates":[[7.555399,46.053632,1971.3],[7.555502,46.053587,1972.3],[7.555612,46.053583,1973.9],[7.555748,46.053565,1975.9],[7.555845,46.053592,1977.8],[7.555894,46.053618,1978.7],[7.555926,46.053657,1979.4],[7.555985,46.053664,1980.2],[7.556018,46.05366,1980.6],[7.556055,46.053676,1981.2],[7.556157,46.053651,1982.3],[7.556231,46.053642,1983.3],[7.556291,46.053599,1983.9],[7.556345,46.053597,1984.7],[7.556415,46.053571,1985.4],[7.556476,46.05358,1986.0],[7.556544,46.053573,1986.6],[7.556586,46.053591,1987.2],[7.556645,46.053598,1987.8],[7.556765,46.053608,1989.4],[7.556814,46.053636,1990.3],[7.556883,46.05366,1991.5],[7.556895,46.053688,1992.0],[7.556925,46.053694,1992.5],[7.55694,46.05372,1993.0],[7.556986,46.053736,1993.8]]}},
{"type":"Feature","properties":{"trail":null,"hero":false,"class":"path","length_m":142.9},"geometry":{"type":"LineString","coordinates":[[7.555399,46.053632,1971.3],[7.555352,46.053652,1970.9],[7.555349,46.053718,1971.8],[7.55529,46.053803,1972.2],[7.555277,46.053864,1972.9],[7.555255,46.053977,1974.0],[7.555324,46.054065,1975.9],[7.555347,46.054174,1977.4],[7.555407,46.05425,1979.3],[7.555455,46.054339,1981.3],[7.555484,46.054381,1982.3],[7.55546,46.054432,1982.7],[7.555428,46.054488,1983.2],[7.555435,46.054529,1983.8],[7.555354,46.054586,1983.4],[7.555313,46.054681,1984.0],[7.555325,46.054743,1984.9],[7.555293,46.054815,1985.4]]}},
{"type":"Feature","properties":{"trail":null,"hero":false,"class":"track","length_m":60.1},"geometry":{"type":"LineString","coordinates":[[7.553281,46.05304,1947.6],[7.553313,46.053088,1947.8],[7.553309,46.053154,1947.5],[7.553286,46.053289,1946.9],[7.553279,46.053367,1946.9],[7.553304,46.053475,1947.5],[7.553322,46.053573,1948.0]]}},
{"type":"Feature","properties":{"trail":null,"hero":false,"class":"track","length_m":3.6},"geometry":{"type":"LineString","coordinates":[[7.553281,46.05304,1947.6],[7.55324,46.053024,1947.3]]}},
{"type":"Feature","properties":{"trail":null,"hero":false,"class":"path","length_m":143.0},"geometry":{"type":"LineString","coordinates":[[7.554663,46.057924,1985.8],[7.554531,46.05804,1981.8],[7.554549,46.058086,1982.3],[7.554664,46.058102,1985.3],[7.554663,46.058131,1985.5],[7.554662,46.058171,1985.8],[7.554633,46.058185,1985.1],[7.554557,46.058186,1983.2],[7.554468,46.058212,1981.1],[7.554472,46.058253,1981.4],[7.554435,46.058285,1980.7],[7.554446,46.058332,1981.2],[7.554376,46.058433,1979.9],[7.554386,46.058462,1980.3],[7.554363,46.05848,1979.8],[7.554365,46.058519,1980.1],[7.554317,46.058571,1979.2],[7.554255,46.058637,1977.8],[7.554212,46.058656,1976.8],[7.554217,46.058692,1976.7],[7.554198,46.058722,1976.3],[7.554113,46.058741,1974.2],[7.554031,46.058803,1971.9],[7.554044,46.058872,1972.2]]}},
{"type":"Feature","properties":{"trail":null,"hero":false,"class":"path","length_m":306.8},"geometry":{"type":"LineString","coordinates":[[7.554663,46.057924,1985.8],[7.554735,46.057859,1988.1],[7.554746,46.057778,1989.0],[7.554757,46.057562,1989.4],[7.554784,46.057424,1990.0],[7.55481,46.057286,1990.5],[7.554875,46.057156,1992.1],[7.554939,46.057025,1993.9],[7.55503,46.056817,1996.9],[7.555121,46.056609,1999.8],[7.555186,46.056463,2001.1],[7.55525,46.056318,2002.0],[7.555282,46.056166,2001.1],[7.555315,46.056013,2000.3],[7.555406,46.055894,2001.3],[7.555497,46.055775,2001.8],[7.555636,46.055559,2001.1],[7.555739,46.055443,2001.3],[7.555841,46.055327,2000.8]]}},
{"type":"Feature","properties":{"trail":null,"hero":false,"class":"path","length_m":248.7},"geometry":{"type":"LineString","coordinates":[[7.554663,46.057924,1985.8],[7.554612,46.057913,1984.7],[7.55451,46.057913,1982.2],[7.554424,46.057891,1980.3],[7.554344,46.057817,1979.1],[7.554247,46.057764,1977.4],[7.554118,46.057787,1974.6],[7.55399,46.057824,1971.7],[7.553818,46.057884,1967.8],[7.553694,46.057943,1965.1],[7.553453,46.057958,1959.7],[7.553276,46.057988,1955.6],[7.553137,46.05807,1952.1],[7.552954,46.058155,1947.1],[7.552815,46.058226,1943.4],[7.552643,46.058241,1939.0],[7.55252,46.058219,1935.9],[7.552364,46.058237,1931.9],[7.552176,46.058222,1927.1],[7.552047,46.058183,1923.6],[7.551982,46.058227,1922.0],[7.551875,46.058231,1919.5],[7.551795,46.058175,1917.4]]}},
{"type":"Feature","properties":{"trail":null,"hero":false,"class":"path","length_m":33.9},"geometry":{"type":"LineString","coordinates":[[7.556986,46.053736,1993.8],[7.557009,46.053798,1994.9],[7.556971,46.05387,1995.4],[7.55697,46.053926,1995.9],[7.556976,46.053954,1996.2],[7.556956,46.053996,1996.3],[7.556988,46.054023,1996.9]]}},
{"type":"Feature","properties":{"trail":null,"hero":false,"class":"path","length_m":987.9},"geometry":{"type":"LineString","coordinates":[[7.556986,46.053736,1993.8],[7.557111,46.053525,1992.5],[7.557257,46.053357,1992.2],[7.557403,46.053189,1992.8],[7.557516,46.053019,1992.9],[7.55755,46.052902,1992.1],[7.557432,46.052719,1987.9],[7.557483,46.052526,1987.3],[7.557438,46.052438,1986.1],[7.557521,46.052196,1985.6],[7.557604,46.051953,1985.9],[7.557561,46.051865,1985.0],[7.557569,46.051669,1985.1],[7.557577,46.051473,1984.2],[7.557585,46.051277,1984.1],[7.557435,46.051065,1982.9],[7.557401,46.050888,1984.9],[7.557368,46.050711,1986.4],[7.557196,46.050556,1985.9],[7.557271,46.050314,1988.3],[7.55732,46.050171,1990.6],[7.55725,46.050007,1992.3],[7.557228,46.049803,1995.7],[7.557207,46.049598,1999.3],[7.557253,46.049439,2002.9],[7.557298,46.049279,2005.6],[7.557306,46.049132,2007.4],[7.557314,46.048985,2008.9],[7.55732,46.04885,2010.2],[7.557325,46.048715,2011.3],[7.557298,46.048565,2011.7],[7.55745,46.048354,2013.5],[7.557601,46.048144,2013.4],[7.557734,46.047964,2011.7],[7.557867,46.047785,2008.1],[7.557994,46.047706,2008.0],[7.55817,46.047623,2009.4],[7.558229,46.047414,2009.1],[7.558347,46.047258,2011.4],[7.558283,46.047135,2009.3],[7.558418,46.047016,2010.1],[7.558554,46.046897,2010.5],[7.558508,46.046813,2008.0],[7.558637,46.046697,2008.0],[7.558688,46.046465,2003.5],[7.558816,46.046401,2004.1],[7.558833,46.046332,2003.4],[7.55895,46.046267,2004.6],[7.55894,46.046096,2002.5],[7.55891,46.045943,2002.0],[7.558811,46.04575,2000.8],[7.5588,46.045615,2001.6],[7.558799,46.045559,2002.0],[7.558748,46.045533,2000.7]]}},
{"type":"Feature","properties":{"trail":null,"hero":false,"class":"path","length_m":224.7},"geometry":{"type":"LineString","coordinates":[[7.554962,46.048625,1962.9],[7.55506,46.048675,1964.7],[7.555143,46.048674,1965.9],[7.55518,46.048659,1966.2],[7.555278,46.048653,1967.5],[7.5553,46.048702,1969.1],[7.555325,46.048753,1970.8],[7.555395,46.048741,1972.2],[7.555431,46.048765,1973.6],[7.555425,46.048833,1974.8],[7.555415,46.048893,1975.7],[7.555328,46.048961,1974.7],[7.555298,46.049037,1975.0],[7.555193,46.04918,1975.1],[7.555072,46.049316,1974.7],[7.554933,46.049427,1972.8],[7.554905,46.049491,1972.8],[7.554801,46.049579,1971.4],[7.554725,46.04968,1971.0],[7.554711,46.049769,1971.6],[7.554695,46.04986,1972.1],[7.55466,46.049913,1971.8],[7.554666,46.049962,1972.3],[7.554658,46.050055,1972.6],[7.554676,46.050153,1973.5],[7.554661,46.050201,1973.4]]}},
{"type":"Feature","properties":{"trail":null,"hero":false,"class":"path","length_m":388.2},"geometry":{"type":"LineString","coordinates":[[7.554044,46.058872,1972.2],[7.553929,46.058916,1969.2],[7.553877,46.05896,1967.9],[7.553806,46.058961,1966.2],[7.55373,46.058998,1964.5],[7.553655,46.059036,1962.8],[7.553618,46.059053,1962.0],[7.553575,46.059035,1960.8],[7.553603,46.058986,1961.5],[7.553599,46.058892,1961.1],[7.553431,46.058829,1955.8],[7.55319,46.058904,1949.0],[7.552949,46.058978,1942.9],[7.552708,46.059053,1936.2],[7.552404,46.059087,1927.8],[7.552255,46.059279,1924.0],[7.552107,46.059471,1919.9],[7.551958,46.059663,1916.1],[7.55172,46.059786,1909.5],[7.551482,46.05991,1903.7],[7.551182,46.060029,1896.0],[7.550881,46.060149,1888.2],[7.55067,46.06022,1882.5],[7.550458,46.060291,1877.0],[7.550251,46.060397,1872.9]]}},
{"type":"Feature","properties":{"trail":"III+","hero":false,"class":null,"length_m":62.7},"geometry":{"type":"LineString","coordinates":[[7.610221,46.029446,3990.8],[7.61039,46.029554,3997.2],[7.610627,46.029713,4002.0],[7.610644,46.029767,4005.0],[7.610666,46.029886,4012.0]]}},
{"type":"Feature","properties":{"trail":null,"hero":false,"class":"path","length_m":934.6},"geometry":{"type":"LineString","coordinates":[[7.582497,46.032389,2747.2],[7.58264,46.032391,2745.3],[7.582773,46.032515,2742.5],[7.582906,46.032639,2742.2],[7.583273,46.032702,2742.7],[7.583581,46.032687,2743.7],[7.583777,46.032646,2746.4],[7.583833,46.032726,2746.5],[7.583651,46.032864,2744.6],[7.583499,46.032961,2743.7],[7.583347,46.033058,2741.8],[7.583362,46.033204,2744.8],[7.583437,46.033277,2747.3],[7.58356,46.033306,2749.5],[7.583653,46.033415,2753.5],[7.583565,46.033544,2755.2],[7.583477,46.033674,2757.3],[7.583308,46.033748,2756.9],[7.583174,46.033906,2758.3],[7.582878,46.034011,2755.3],[7.582567,46.033998,2748.4],[7.582334,46.034063,2743.8],[7.58225,46.034204,2744.2],[7.582222,46.034327,2743.7],[7.582213,46.034429,2743.5],[7.582052,46.034474,2739.9],[7.582077,46.034554,2742.6],[7.581879,46.034674,2739.3],[7.581851,46.034733,2739.8],[7.581655,46.034798,2736.4],[7.581583,46.034801,2734.8],[7.581504,46.034856,2734.9],[7.581247,46.034996,2732.4],[7.581068,46.035078,2729.8],[7.581002,46.035169,2731.2],[7.580882,46.035237,2729.4],[7.580744,46.035316,2726.1],[7.580723,46.035383,2727.4],[7.580618,46.035396,2722.7],[7.58039,46.035481,2715.9],[7.580161,46.035567,2710.0],[7.579915,46.035689,2703.5],[7.579857,46.035765,2702.9],[7.579765,46.035858,2700.7],[7.579718,46.035927,2698.2],[7.579651,46.035915,2694.7],[7.579616,46.035981,2692.2],[7.579461,46.035959,2684.0],[7.579456,46.036002,2683.5],[7.579431,46.036002,2682.0],[7.579434,46.03605,2681.9],[7.579277,46.036021,2671.5],[7.579299,46.036087,2672.7],[7.579115,46.036106,2660.2],[7.579022,46.036095,2654.1],[7.57903,46.036192,2653.3],[7.578863,46.036182,2642.7],[7.578633,46.036277,2630.2],[7.578403,46.036372,2622.9],[7.578257,46.036485,2618.2],[7.578055,46.036573,2613.8],[7.577938,46.036625,2611.9],[7.578093,46.036654,2613.6],[7.57827,46.036654,2616.0],[7.578355,46.036675,2617.1],[7.578317,46.036746,2615.5],[7.57828,46.036775,2614.6],[7.578235,46.036817,2613.5],[7.578282,46.036876,2613.4],[7.578301,46.036953,2612.8]]}},
{"type":"Feature","properties":{"trail":null,"hero":false,"class":"track","length_m":31.8},"geometry":{"type":"LineString","coordinates":[[7.553265,46.053829,1948.8],[7.553246,46.053752,1948.3],[7.553212,46.053715,1947.9],[7.553238,46.053691,1948.0],[7.553309,46.053622,1948.1],[7.553322,46.053573,1948.0]]}},
{"type":"Feature","properties":{"trail":null,"hero":false,"class":"path","length_m":286.8},"geometry":{"type":"LineString","coordinates":[[7.56826,46.038511,2263.1],[7.568362,46.038623,2260.2],[7.568346,46.03874,2257.3],[7.568352,46.038841,2254.8],[7.568212,46.038969,2251.9],[7.568167,46.039075,2248.8],[7.568212,46.039217,2244.5],[7.568156,46.039345,2240.9],[7.567992,46.039461,2237.7],[7.567898,46.039604,2236.6],[7.567684,46.039801,2236.0],[7.567481,46.039969,2235.6],[7.567279,46.040137,2231.4],[7.567147,46.040254,2227.3],[7.567016,46.040371,2223.7],[7.566874,46.040531,2220.3],[7.566733,46.040691,2217.2]]}},
{"type":"Feature","properties":{"trail":null,"hero":false,"class":"path","length_m":10.7},"geometry":{"type":"LineString","coordinates":[[7.568395,46.04595,2473.3],[7.568391,46.045854,2470.8]]}},
{"type":"Feature","properties":{"trail":null,"hero":false,"class":"path","length_m":446.1},"geometry":{"type":"LineString","coordinates":[[7.568395,46.04595,2473.3],[7.568366,46.046104,2476.0],[7.568376,46.046217,2477.9],[7.568385,46.046352,2479.8],[7.568437,46.046412,2482.2],[7.568483,46.046455,2483.9],[7.568514,46.046515,2485.2],[7.568497,46.046574,2485.1],[7.568405,46.046687,2483.6],[7.568358,46.046753,2484.0],[7.568251,46.04682,2482.2],[7.568197,46.046866,2481.4],[7.568204,46.046923,2483.0],[7.568255,46.047023,2486.7],[7.568318,46.047144,2491.0],[7.56825,46.047383,2492.5],[7.568263,46.047432,2493.8],[7.568309,46.0475,2496.8],[7.568353,46.047583,2499.0],[7.568346,46.047675,2499.6],[7.568294,46.047826,2499.0],[7.568272,46.047897,2499.1],[7.568302,46.047976,2501.2],[7.56831,46.048025,2502.1],[7.568291,46.048054,2501.8],[7.568231,46.048093,2500.3],[7.568201,46.048112,2499.6],[7.568205,46.04816,2500.5],[7.568213,46.048231,2501.9],[7.568201,46.048267,2501.9],[7.568169,46.048305,2501.2],[7.568165,46.048334,2501.5],[7.568188,46.048385,2501.5],[7.568275,46.048475,2503.6],[7.568345,46.048545,2505.4],[7.568429,46.048588,2508.5],[7.568491,46.048614,2511.0],[7.568545,46.048666,2513.7],[7.568557,46.048717,2514.5],[7.568523,46.048764,2513.4],[7.568476,46.048786,2511.7],[7.568315,46.048849,2506.1],[7.568254,46.04889,2503.6],[7.568264,46.048935,2504.9],[7.568346,46.049029,2510.4],[7.568348,46.049104,2511.8],[7.56835,46.049189,2513.2],[7.568324,46.049231,2512.5],[7.568274,46.049301,2510.7],[7.568282,46.04935,2511.6],[7.568346,46.049544,2516.9]]}},
{"type":"Feature","properties":{"trail":null,"hero":false,"class":"path","length_m":107.6},"geometry":{"type":"LineString","coordinates":[[7.566733,46.040691,2217.2],[7.566631,46.040723,2216.0],[7.566593,46.0408,2215.2],[7.566412,46.040846,2213.0],[7.566223,46.040925,2210.8],[7.565987,46.041019,2208.0],[7.565998,46.041104,2207.7],[7.565959,46.041129,2206.9],[7.565893,46.041334,2203.4]]}},
{"type":"Feature","properties":{"trail":null,"hero":false,"class":"path","length_m":32.2},"geometry":{"type":"LineString","coordinates":[[7.549962,46.058968,1890.4],[7.54984,46.05895,1888.8],[7.549705,46.058937,1886.9],[7.549621,46.058919,1886.3],[7.549555,46.058928,1885.3]]}},
{"type":"Feature","properties":{"trail":"Sentier de Bricola","hero":false,"class":null,"length_m":193.1},"geometry":{"type":"LineString","coordinates":[[7.549962,46.058968,1890.4],[7.550034,46.058948,1892.1],[7.550186,46.058944,1895.0],[7.550262,46.058916,1897.3],[7.550335,46.058905,1898.1],[7.550404,46.058937,1897.2],[7.550542,46.058937,1897.6],[7.550591,46.058911,1898.7],[7.550607,46.058839,1899.5],[7.550645,46.058795,1900.2],[7.550698,46.058791,1900.9],[7.550698,46.058737,1901.2],[7.550728,46.058702,1901.9],[7.550828,46.058651,1904.0],[7.550853,46.058615,1904.6],[7.550888,46.058567,1904.1],[7.550919,46.058526,1903.8],[7.550995,46.058473,1903.9],[7.551021,46.058465,1904.1],[7.551067,46.058422,1904.2],[7.551131,46.058408,1905.1],[7.551206,46.058394,1906.4],[7.551265,46.058362,1907.2],[7.551305,46.058311,1907.5],[7.551384,46.058292,1908.8],[7.551405,46.058254,1908.7],[7.551456,46.058254,1909.9],[7.551518,46.05819,1910.7],[7.551587,46.058173,1912.3],[7.55164,46.058205,1913.8],[7.551734,46.0582,1916.0],[7.551795,46.058175,1917.4]]}},
{"type":"Feature","properties":{"trail":"Sentier de Bricola","hero":false,"class":null,"length_m":22.4},"geometry":{"type":"LineString","coordinates":[[7.549962,46.058968,1890.4],[7.549969,46.058997,1889.7],[7.550074,46.05906,1889.5],[7.550092,46.059092,1888.8],[7.55006,46.059127,1887.4]]}},
{"type":"Feature","properties":{"trail":null,"hero":false,"class":"path","length_m":718.1},"geometry":{"type":"LineString","coordinates":[[7.578211,46.036057,2618.5],[7.578022,46.035834,2615.1],[7.578079,46.035743,2618.3],[7.578095,46.0356,2621.7],[7.577859,46.035398,2620.5],[7.577765,46.035379,2618.7],[7.577656,46.035326,2617.6],[7.577625,46.035261,2618.1],[7.577708,46.035122,2621.5],[7.577446,46.034938,2615.8],[7.577372,46.0348,2615.3],[7.577613,46.034655,2626.3],[7.577729,46.034655,2629.7],[7.577857,46.034523,2636.3],[7.578013,46.034456,2641.5],[7.578037,46.034363,2643.2],[7.578257,46.034238,2650.3],[7.578509,46.034249,2657.1],[7.57871,46.034091,2663.0],[7.578911,46.033932,2668.1],[7.579113,46.033774,2673.8],[7.579368,46.033728,2681.9],[7.579612,46.033608,2690.0],[7.579644,46.033508,2693.1],[7.5797,46.033473,2695.7],[7.579689,46.033393,2697.6],[7.579829,46.033324,2703.3],[7.579928,46.033314,2706.0],[7.57999,46.033223,2709.1],[7.58021,46.033141,2713.6],[7.580379,46.032998,2720.4],[7.580615,46.032938,2727.0],[7.580762,46.032862,2731.0],[7.580813,46.032759,2733.4],[7.581046,46.032556,2741.0],[7.581079,46.032447,2744.3],[7.581173,46.032396,2746.1],[7.581197,46.03234,2747.7],[7.581313,46.032292,2750.0],[7.581465,46.032158,2753.5],[7.58167,46.032099,2754.8],[7.581875,46.032041,2754.1],[7.582197,46.03204,2752.7],[7.582518,46.03204,2750.7]]}},
{"type":"Feature","properties":{"trail":null,"hero":false,"class":"path","length_m":139.6},"geometry":{"type":"LineString","coordinates":[[7.571439,46.045024,2527.4],[7.571352,46.044769,2528.4],[7.571218,46.044607,2526.3],[7.571022,46.044485,2523.6],[7.570813,46.044332,2516.1],[7.570529,46.044272,2508.8],[7.570245,46.044211,2501.0]]}},
{"type":"Feature","properties":{"trail":"Sentier de Bricola","hero":false,"class":null,"length_m":86.8},"geometry":{"type":"LineString","coordinates":[[7.555293,46.054815,1985.4],[7.555276,46.054923,1986.8],[7.555225,46.055026,1987.7],[7.555255,46.055061,1988.5],[7.55532,46.055091,1989.7],[7.555356,46.055142,1991.0],[7.555407,46.055148,1991.8],[7.555437,46.055178,1992.7],[7.555482,46.055182,1993.4],[7.55556,46.055247,1995.5],[7.555625,46.055288,1997.1],[7.555706,46.055307,1998.5],[7.555805,46.055336,2000.4],[7.555841,46.055327,2000.8]]}},
{"type":"Feature","properties":{"trail":"Sentier de Bricola","hero":false,"class":null,"length_m":69.3},"geometry":{"type":"LineString","coordinates":[[7.555293,46.054815,1985.4],[7.555258,46.054741,1983.9],[7.555213,46.054708,1983.0],[7.555222,46.054637,1982.3],[7.555155,46.054563,1980.7],[7.555146,46.054504,1980.0],[7.555076,46.054522,1979.4],[7.554955,46.054497,1977.7],[7.554861,46.054465,1976.0],[7.554772,46.054435,1974.3]]}},
{"type":"Feature","properties":{"trail":"Sentier de Bricola","hero":false,"class":null,"length_m":518.8},"geometry":{"type":"LineString","coordinates":[[7.551795,46.058175,1917.4],[7.551935,46.058113,1920.5],[7.551971,46.057972,1921.7],[7.552083,46.057797,1925.4],[7.552259,46.057723,1929.6],[7.552433,46.057659,1933.9],[7.552697,46.057505,1939.8],[7.552882,46.05736,1944.2],[7.552874,46.057229,1943.5],[7.552897,46.057146,1944.1],[7.552934,46.057124,1945.2],[7.552935,46.057092,1945.3],[7.552921,46.057051,1944.9],[7.552929,46.057022,1945.2],[7.552919,46.056978,1944.9],[7.55294,46.056927,1945.7],[7.55295,46.056857,1946.1],[7.552996,46.056795,1947.6],[7.553135,46.056629,1951.2],[7.55329,46.056494,1954.7],[7.553311,46.056445,1955.3],[7.553292,46.056223,1955.6],[7.553332,46.05615,1957.0],[7.553376,46.056115,1958.2],[7.553371,46.056077,1958.3],[7.553426,46.056002,1960.0],[7.553426,46.055979,1960.0],[7.553408,46.055939,1959.8],[7.553425,46.055909,1960.3],[7.553445,46.055856,1961.1],[7.553428,46.055743,1961.0],[7.553552,46.055539,1964.0],[7.553578,46.055451,1964.8],[7.553559,46.055392,1964.6],[7.553524,46.055348,1964.0],[7.553532,46.055311,1964.3],[7.553616,46.055119,1965.4],[7.553777,46.054888,1967.2],[7.553973,46.054849,1969.6],[7.55419,46.054782,1970.8],[7.554309,46.054744,1971.8],[7.554452,46.054654,1972.3],[7.554607,46.054535,1973.1],[7.554772,46.054435,1974.3]]}},
{"type":"Feature","properties":{"trail":null,"hero":false,"class":"path","length_m":563.3},"geometry":{"type":"LineString","coordinates":[[7.565893,46.041334,2203.4],[7.565798,46.041546,2198.5],[7.565517,46.041715,2188.4],[7.565331,46.041804,2183.3],[7.565146,46.041892,2178.8],[7.564886,46.042073,2172.4],[7.564634,46.042218,2165.2],[7.564524,46.042368,2162.6],[7.564414,46.042518,2159.8],[7.564253,46.042642,2154.9],[7.564092,46.042765,2149.6],[7.56391,46.042929,2149.2],[7.563695,46.043033,2148.2],[7.563481,46.043136,2146.0],[7.56332,46.043328,2144.4],[7.563117,46.043409,2136.3],[7.562915,46.04349,2127.2],[7.56266,46.043528,2116.5],[7.562405,46.043566,2107.6],[7.562099,46.043633,2099.9],[7.56196,46.043737,2097.0],[7.5616,46.043655,2092.2],[7.561233,46.043729,2084.7],[7.561037,46.043771,2078.3],[7.56084,46.043814,2070.2],[7.560663,46.043937,2063.6],[7.560676,46.04404,2064.0],[7.560517,46.044182,2057.8]]}},
{"type":"Feature","properties":{"trail":null,"hero":false,"class":"path","length_m":49.8},"geometry":{"type":"LineString","coordinates":[[7.559962,46.044401,2043.8],[7.560137,46.0443,2048.2],[7.560327,46.044241,2052.9],[7.560517,46.044182,2057.8]]}},
{"type":"Feature","properties":{"trail":"Sentier de Bricola","hero":false,"class":null,"length_m":174.3},"geometry":{"type":"LineString","coordinates":[[7.555841,46.055327,2000.8],[7.555873,46.055269,2000.2],[7.555999,46.055154,2000.4],[7.556075,46.055104,2000.8],[7.556154,46.054962,1999.8],[7.556208,46.054923,2000.1],[7.556224,46.05489,1999.7],[7.556242,46.054809,1998.5],[7.556255,46.05479,1998.4],[7.556296,46.054747,1998.2],[7.556308,46.054727,1997.9],[7.556344,46.054702,1998.0],[7.556361,46.054668,1997.6],[7.556367,46.054634,1997.0],[7.556431,46.054578,1996.8],[7.556558,46.05449,1996.5],[7.556615,46.054443,1996.1],[7.556739,46.054327,1996.5],[7.556755,46.054294,1996.4],[7.55685,46.054247,1997.1],[7.556862,46.054232,1997.1],[7.556877,46.054199,1996.9],[7.5569,46.054138,1996.6],[7.556915,46.054092,1996.5],[7.556961,46.054049,1996.8],[7.556988,46.054023,1996.9]]}},
{"type":"Feature","properties":{"trail":null,"hero":false,"class":"path","length_m":16.9},"geometry":{"type":"LineString","coordinates":[[7.553728,46.052483,1950.7],[7.553644,46.052533,1950.3],[7.553561,46.052581,1949.9]]}},
{"type":"Feature","properties":{"trail":null,"hero":false,"class":"path","length_m":41.6},"geometry":{"type":"LineString","coordinates":[[7.553728,46.052483,1950.7],[7.55378,46.052388,1951.0],[7.55385,46.052261,1951.4],[7.553921,46.052134,1951.8]]}},
{"type":"Feature","properties":{"trail":"Sentier de Bricola","hero":false,"class":null,"length_m":1791.9},"geometry":{"type":"LineString","coordinates":[[7.556988,46.054023,1996.9],[7.5571,46.054002,1998.2],[7.557157,46.054007,1999.1],[7.55722,46.054024,2000.1],[7.557289,46.054059,2001.5],[7.557348,46.054061,2002.4],[7.557424,46.05409,2003.8],[7.557465,46.054106,2004.6],[7.557508,46.054097,2005.2],[7.557596,46.054109,2006.6],[7.557601,46.054224,2008.4],[7.557588,46.054255,2008.8],[7.557597,46.05431,2009.9],[7.557627,46.054387,2011.7],[7.5576,46.054446,2012.3],[7.557619,46.054472,2013.2],[7.557652,46.054489,2014.1],[7.557709,46.054497,2015.2],[7.557756,46.054497,2016.0],[7.557808,46.054509,2017.2],[7.557933,46.054471,2018.4],[7.557965,46.054456,2018.6],[7.557993,46.054429,2018.4],[7.558014,46.054427,2018.7],[7.55804,46.054447,2019.6],[7.558067,46.054451,2020.2],[7.558151,46.054413,2021.3],[7.558238,46.054355,2021.9],[7.55834,46.054304,2022.9],[7.558358,46.05431,2023.5],[7.55836,46.054327,2024.1],[7.558349,46.054357,2024.5],[7.558383,46.054411,2027.0],[7.558424,46.054436,2028.9],[7.558426,46.054493,2030.8],[7.558445,46.054602,2035.1],[7.558425,46.054648,2036.0],[7.558434,46.054698,2038.0],[7.558452,46.054706,2038.8],[7.55848,46.054691,2039.3],[7.558619,46.054614,2041.1],[7.558717,46.054562,2042.3],[7.558845,46.054488,2043.7],[7.558878,46.054481,2044.5],[7.558897,46.054489,2045.4],[7.558907,46.054502,2046.2],[7.558862,46.054585,2047.6],[7.558867,46.054621,2049.0],[7.558903,46.054645,2050.9],[7.55896,46.054641,2052.6],[7.559003,46.054631,2053.7],[7.559068,46.054578,2054.0],[7.559129,46.054503,2053.7],[7.559145,46.054497,2054.1],[7.559158,46.054507,2054.8],[7.559179,46.054613,2058.9],[7.559184,46.054641,2059.9],[7.559191,46.05474,2063.0],[7.559228,46.054797,2065.5],[7.559232,46.054824,2066.1],[7.559226,46.054839,2066.1],[7.559169,46.054888,2064.8],[7.559147,46.054945,2065.2],[7.559165,46.05501,2066.9],[7.559194,46.05506,2068.6],[7.559218,46.055086,2069.7],[7.559231,46.055084,2070.1],[7.559243,46.055033,2069.9],[7.559272,46.055013,2070.6],[7.559295,46.055077,2072.2],[7.559328,46.055104,2073.7],[7.559366,46.055042,2074.2],[7.55942,46.055025,2075.8],[7.5595,46.054977,2078.3],[7.559552,46.054957,2080.2],[7.559561,46.054968,2080.6],[7.55953,46.055029,2080.0],[7.559537,46.055053,2080.5],[7.55955,46.055124,2081.8],[7.559602,46.055181,2084.3],[7.559626,46.055203,2085.4],[7.559667,46.055244,2087.3],[7.559711,46.055265,2089.1],[7.559753,46.055287,2091.0],[7.55984,46.05533,2095.0],[7.559915,46.055352,2098.1],[7.559965,46.055461,2101.0],[7.560004,46.05558,2103.7],[7.560069,46.055709,2108.3],[7.560089,46.055721,2109.2],[7.560089,46.055638,2108.1],[7.560112,46.055599,2108.5],[7.560175,46.055653,2111.7],[7.560286,46.055696,2116.4],[7.560323,46.05578,2118.5],[7.560377,46.05585,2121.2],[7.560375,46.055783,2120.6],[7.560398,46.055737,2121.4],[7.560411,46.055686,2121.8],[7.560418,46.055632,2122.0],[7.560422,46.055596,2122.2],[7.56046,46.055502,2123.5],[7.560465,46.055431,2123.3],[7.560528,46.055318,2125.7],[7.56057,46.055239,2126.8],[7.560648,46.055132,2128.6],[7.560692,46.05514,2131.2],[7.560729,46.05511,2132.6],[7.560777,46.055023,2133.4],[7.560821,46.054962,2134.8],[7.560884,46.054933,2138.6],[7.560909,46.054893,2139.7],[7.560957,46.054854,2142.6],[7.560988,46.054887,2145.2],[7.560985,46.054965,2145.8],[7.56101,46.054972,2147.6],[7.561045,46.054949,2149.7],[7.561057,46.054918,2150.2],[7.561081,46.054864,2151.3],[7.56112,46.054851,2153.9],[7.561153,46.054811,2155.7],[7.561173,46.054773,2156.7],[7.561181,46.05467,2157.0],[7.561244,46.054726,2161.3],[7.561263,46.05469,2162.7],[7.561297,46.054595,2165.7],[7.561323,46.054557,2168.0],[7.561351,46.054515,2170.6],[7.5614,46.05447,2175.0],[7.561454,46.054428,2179.0],[7.561447,46.054346,2177.6],[7.561448,46.054316,2177.4],[7.561434,46.05429,2176.1],[7.561411,46.054261,2174.0],[7.561327,46.054239,2166.9],[7.56129,46.054214,2163.6],[7.561288,46.054144,2162.9],[7.561289,46.053999,2163.2],[7.561314,46.053949,2165.6],[7.561358,46.053879,2169.7],[7.561399,46.053836,2173.0],[7.561414,46.053855,2174.5],[7.561408,46.053884,2174.3],[7.561427,46.053915,2175.7],[7.561448,46.053957,2177.2],[7.561489,46.054029,2180.2],[7.561528,46.053959,2183.9],[7.561552,46.053939,2186.1],[7.561576,46.053873,2188.4],[7.561598,46.053827,2190.2],[7.561638,46.053768,2193.8],[7.561678,46.053789,2197.1],[7.561705,46.053827,2198.8],[7.561705,46.053851,2198.7],[7.561727,46.053871,2200.1],[7.561726,46.053914,2199.9],[7.56177,46.05396,2202.4],[7.56179,46.053978,2203.7],[7.561813,46.054001,2205.1],[7.561829,46.054026,2205.9],[7.561835,46.054044,2206.2],[7.561865,46.054058,2208.1],[7.561925,46.054074,2212.0],[7.561961,46.054107,2214.1],[7.562067,46.054172,2219.9],[7.562059,46.054059,2220.0],[7.562026,46.053984,2218.5],[7.562087,46.054006,2221.8],[7.562129,46.054031,2224.1],[7.562144,46.054027,2224.9],[7.562127,46.053982,2224.2],[7.562144,46.053953,2225.2],[7.562132,46.0539,2224.8],[7.562141,46.053886,2225.4],[7.562157,46.053891,2226.2],[7.562184,46.053929,2227.5],[7.562204,46.053926,2228.7],[7.562232,46.053802,2231.1],[7.56227,46.053729,2234.1],[7.562288,46.053685,2235.4],[7.562302,46.053692,2236.3],[7.562335,46.053726,2238.4],[7.562361,46.053764,2240.2],[7.562368,46.053788,2240.7],[7.562389,46.05379,2242.2],[7.562395,46.053748,2242.5],[7.562424,46.053673,2244.2],[7.562451,46.05362,2245.6],[7.562466,46.053593,2246.6],[7.562486,46.053553,2248.0],[7.562501,46.053498,2249.1],[7.562504,46.053456,2249.5],[7.56252,46.053421,2250.9],[7.562538,46.053382,2252.3],[7.562513,46.053309,2250.6],[7.562498,46.053271,2249.3],[7.562464,46.053205,2246.2],[7.562467,46.053144,2245.9],[7.562447,46.053066,2243.2],[7.5625,46.053094,2248.9],[7.562606,46.05316,2257.5],[7.562629,46.053149,2259.3],[7.56262,46.05312,2258.6],[7.562625,46.053078,2259.1],[7.562584,46.052971,2257.7],[7.562575,46.052926,2257.8],[7.562607,46.052841,2262.9],[7.562628,46.052778,2266.7],[7.562635,46.052732,2268.2],[7.562668,46.052649,2272.7],[7.562693,46.052644,2275.3],[7.562729,46.052687,2278.4],[7.562777,46.052741,2282.7],[7.562798,46.052746,2283.4],[7.562829,46.052689,2285.0],[7.562865,46.052638,2286.7],[7.562904,46.052609,2288.3],[7.56295,46.052558,2290.5],[7.562974,46.052537,2291.6],[7.563009,46.052414,2291.6],[7.563017,46.052348,2290.8],[7.563014,46.052312,2289.9],[7.563021,46.052257,2289.5],[7.563057,46.052219,2291.7],[7.563067,46.052186,2292.4],[7.563088,46.052161,2293.8],[7.563104,46.052166,2294.9],[7.56312,46.052194,2296.0],[7.563131,46.052215,2296.9],[7.563164,46.052241,2299.3],[7.563177,46.052248,2300.2],[7.563196,46.052244,2301.5],[7.563186,46.05222,2300.7],[7.563207,46.052199,2302.1],[7.563208,46.052177,2302.1],[7.563231,46.052148,2303.6],[7.563241,46.052143,2304.3],[7.563265,46.052155,2306.0],[7.563271,46.052198,2306.6],[7.56328,46.052224,2307.3],[7.563298,46.052258,2308.4],[7.563322,46.052265,2310.0],[7.563315,46.05224,2309.7],[7.563336,46.052219,2311.1],[7.563342,46.052204,2311.3],[7.563357,46.052178,2311.7],[7.563357,46.052155,2311.5],[7.563366,46.052115,2311.6],[7.563374,46.0521,2311.8],[7.563367,46.052062,2311.3],[7.56338,46.052043,2311.7],[7.563419,46.051992,2312.7],[7.563498,46.051956,2315.3],[7.563529,46.051958,2316.4],[7.563623,46.051895,2319.3],[7.563664,46.051843,2320.1],[7.563684,46.051827,2320.6],[7.563723,46.051785,2321.6],[7.563765,46.051769,2322.8],[7.563796,46.051746,2323.7],[7.563871,46.051699,2326.0],[7.563888,46.051688,2326.6],[7.56391,46.051654,2327.3],[7.563949,46.051577,2328.2],[7.563975,46.051561,2329.1],[7.564006,46.051553,2330.3],[7.564038,46.051508,2331.6],[7.564068,46.051479,2333.0],[7.564111,46.051409,2335.3],[7.56416,46.051359,2337.5],[7.564206,46.051302,2339.1],[7.564275,46.051207,2341.5],[7.564317,46.05113,2342.7],[7.564345,46.051083,2344.0],[7.564364,46.051063,2345.0],[7.564396,46.051012,2347.0],[7.564421,46.050988,2348.5],[7.564491,46.050908,2352.5],[7.564557,46.050847,2356.0],[7.564611,46.05081,2358.5],[7.564624,46.050802,2359.0],[7.564631,46.050763,2359.3],[7.564656,46.050715,2360.3],[7.564646,46.050655,2359.6],[7.564648,46.0506,2359.6],[7.564636,46.050528,2357.9],[7.564631,46.050473,2355.6],[7.564642,46.050442,2354.9],[7.564679,46.050377,2353.9],[7.564709,46.0503,2352.0],[7.564731,46.050237,2351.3],[7.564768,46.050193,2352.5],[7.564832,46.050131,2354.6],[7.564911,46.050075,2357.6],[7.565059,46.050009,2364.3],[7.565152,46.049973,2368.9],[7.565253,46.049941,2374.0],[7.565367,46.049915,2379.4],[7.565486,46.049852,2384.4],[7.565542,46.049809,2386.7],[7.565624,46.04978,2390.0],[7.565693,46.049761,2392.8],[7.565762,46.049741,2395.5],[7.565822,46.049712,2397.8],[7.565905,46.049647,2400.6],[7.565974,46.049547,2403.0],[7.566031,46.0495,2405.2],[7.566091,46.049452,2407.7],[7.566219,46.049396,2412.4],[7.566159,46.049275,2405.9]]}},
{"type":"Feature","properties":{"trail":null,"hero":false,"class":"path","length_m":241.0},"geometry":{"type":"LineString","coordinates":[[7.554661,46.050201,1973.4],[7.55463,46.050239,1972.8],[7.554656,46.050266,1973.5],[7.554655,46.050288,1973.6],[7.554605,46.050312,1972.3],[7.554571,46.050342,1971.5],[7.554548,46.05038,1971.0],[7.554406,46.050503,1967.8],[7.554398,46.050556,1967.7],[7.55446,46.050611,1969.1],[7.55443,46.050638,1968.4],[7.554433,46.050675,1968.5],[7.554381,46.050716,1967.3],[7.554348,46.05083,1966.2],[7.554343,46.050883,1965.9],[7.554363,46.05091,1966.3],[7.554353,46.050943,1965.9],[7.55434,46.051012,1965.2],[7.554321,46.051124,1964.0],[7.554336,46.051148,1964.2],[7.554315,46.051178,1963.3],[7.55431,46.051281,1962.1],[7.554262,46.051344,1960.4],[7.554265,46.051427,1959.8],[7.554351,46.051493,1961.0],[7.554241,46.051641,1957.7],[7.554214,46.051799,1955.7],[7.554158,46.05189,1954.2],[7.554043,46.052002,1952.8],[7.553958,46.052087,1952.1],[7.553921,46.052134,1951.8]]}},
{"type":"Feature","properties":{"trail":null,"hero":false,"class":"path","length_m":279.0},"geometry":{"type":"LineString","coordinates":[[7.558748,46.045533,2000.7],[7.558833,46.045491,2002.5],[7.558866,46.045414,2002.9],[7.55888,46.045305,2002.8],[7.558909,46.045227,2003.3],[7.558989,46.045169,2005.1],[7.559203,46.045075,2010.7],[7.559286,46.044972,2014.3],[7.559342,46.044904,2017.8],[7.559503,46.044894,2023.1],[7.55959,46.044965,2023.7],[7.55988,46.04493,2032.9],[7.560101,46.044905,2039.1],[7.560321,46.044784,2045.9],[7.560495,46.044705,2050.9],[7.560506,46.044637,2052.0],[7.560489,46.044583,2052.4],[7.560673,46.044542,2057.1],[7.56087,46.044466,2063.8],[7.560685,46.044381,2060.0],[7.560587,46.044214,2059.5],[7.560517,46.044182,2057.8]]}},
{"type":"Feature","properties":{"trail":null,"hero":false,"class":"path","length_m":304.2},"geometry":{"type":"LineString","coordinates":[[7.566159,46.049275,2405.9],[7.566119,46.049257,2403.2],[7.566018,46.049206,2396.6],[7.566003,46.049192,2395.5],[7.565973,46.049132,2392.7],[7.56592,46.049108,2389.8],[7.565901,46.049048,2388.0],[7.565919,46.049001,2388.2],[7.565905,46.048964,2387.0],[7.565976,46.048916,2389.7],[7.566065,46.048848,2394.5],[7.566133,46.048805,2398.8],[7.566197,46.048755,2403.3],[7.566245,46.048703,2406.8],[7.566301,46.048651,2410.6],[7.566309,46.048628,2411.3],[7.566301,46.0486,2411.4],[7.566288,46.048568,2411.7],[7.566265,46.048502,2412.6],[7.566275,46.048373,2417.4],[7.566252,46.048305,2418.3],[7.566241,46.04824,2419.4],[7.566211,46.048208,2418.9],[7.566162,46.048147,2418.2],[7.566093,46.048039,2417.3],[7.566088,46.047964,2416.9],[7.566059,46.047851,2415.6],[7.566059,46.047796,2415.7],[7.566057,46.04773,2415.2],[7.56605,46.047685,2414.6],[7.566039,46.047644,2413.9],[7.566014,46.047597,2412.8],[7.566015,46.047555,2412.6],[7.566039,46.047492,2412.8],[7.566075,46.047439,2413.6],[7.566114,46.04742,2414.6],[7.56619,46.047353,2416.5],[7.566233,46.047318,2417.4],[7.56624,46.047194,2417.1],[7.566292,46.047125,2418.2],[7.566351,46.047044,2419.4],[7.566408,46.047002,2420.4],[7.566449,46.046973,2421.3],[7.566504,46.046921,2422.3],[7.566522,46.046875,2422.3]]}},
{"type":"Feature","properties":{"trail":"Sentier de la Dent-Blanche","hero":true,"from_mile":0.0,"to_mile":0.184,"length_m":295.9},"geometry":{"type":"LineString","coordinates":[[7.566522,46.046875,2422.4],[7.566551,46.046693,2421.7],[7.566754,46.046629,2425.8],[7.566957,46.046565,2431.0],[7.567092,46.046683,2437.3],[7.56703,46.046864,2436.4],[7.567104,46.047008,2440.3],[7.567179,46.047152,2444.5],[7.567347,46.047008,2449.6],[7.567515,46.046864,2455.0],[7.56771,46.046778,2461.9],[7.567904,46.046691,2467.6],[7.567961,46.046505,2465.7],[7.568017,46.046318,2463.8],[7.568206,46.046134,2468.7],[7.568395,46.04595,2473.4]]}},
{"type":"Feature","properties":{"trail":"Sentier de la Dent-Blanche","hero":true,"from_mile":0.184,"to_mile":0.346,"length_m":261.5},"geometry":{"type":"LineString","coordinates":[[7.568395,46.04595,2473.4],[7.568445,46.045901,2474.0],[7.568664,46.045905,2481.4],[7.568669,46.045711,2476.6],[7.568895,46.045581,2481.0],[7.56912,46.045451,2483.7],[7.569346,46.045321,2485.8],[7.569561,46.045117,2488.9],[7.569776,46.044912,2492.6],[7.569991,46.044707,2496.8],[7.570054,46.04447,2501.2],[7.570118,46.044232,2498.1],[7.570245,46.044211,2501.0]]}},
{"type":"Feature","properties":{"trail":"Sentier de la Dent-Blanche","hero":true,"from_mile":0.346,"to_mile":1.055,"length_m":1140.5},"geometry":{"type":"LineString","coordinates":[[7.570245,46.044211,2501.0],[7.570498,46.044169,2505.0],[7.570751,46.044128,2508.3],[7.571004,46.044087,2513.0],[7.570887,46.043918,2507.3],[7.571072,46.043829,2509.8],[7.571257,46.04374,2512.0],[7.571388,46.043542,2511.9],[7.571518,46.043344,2514.7],[7.571468,46.043235,2512.5],[7.571573,46.043048,2515.5],[7.571678,46.042862,2517.1],[7.571874,46.042687,2520.4],[7.57207,46.042513,2522.8],[7.572266,46.042339,2523.2],[7.572513,46.042185,2526.5],[7.572759,46.042031,2528.9],[7.573006,46.041876,2531.6],[7.573253,46.041722,2533.8],[7.573499,46.041568,2536.2],[7.57375,46.041482,2540.6],[7.574,46.041397,2544.5],[7.57425,46.041311,2548.2],[7.574585,46.041275,2555.4],[7.57492,46.041239,2563.4],[7.575132,46.041057,2564.8],[7.575344,46.040875,2568.7],[7.575376,46.040693,2569.0],[7.575409,46.040511,2569.0],[7.57569,46.040358,2575.1],[7.575797,46.040203,2576.3],[7.575866,46.039953,2575.8],[7.575935,46.039703,2575.4],[7.576004,46.039454,2573.0],[7.576169,46.039332,2575.3],[7.576333,46.03921,2577.1],[7.576202,46.039102,2573.4],[7.576071,46.038994,2570.0],[7.576102,46.038874,2569.9],[7.576353,46.038746,2576.8],[7.576383,46.038566,2577.4],[7.576413,46.038386,2577.7],[7.576608,46.038249,2584.2],[7.576803,46.038113,2589.3],[7.576999,46.037976,2593.3],[7.577239,46.037903,2598.1],[7.577479,46.037831,2602.3],[7.577719,46.037758,2606.0],[7.577924,46.037536,2608.0],[7.578128,46.037314,2611.0],[7.578333,46.037092,2614.1],[7.578301,46.036953,2612.8]]}},
{"type":"Feature","properties":{"trail":"Sentier de la Dent-Blanche","hero":true,"from_mile":1.055,"to_mile":1.206,"length_m":243.4},"geometry":{"type":"LineString","coordinates":[[7.578301,46.036953,2612.8],[7.578004,46.03689,2609.5],[7.577691,46.036888,2605.3],[7.577379,46.036885,2598.7],[7.577066,46.036882,2587.8],[7.576948,46.036826,2583.7],[7.577204,46.036726,2595.1],[7.57746,46.036625,2603.7],[7.577717,46.036524,2609.0],[7.577973,46.036424,2613.8],[7.578092,46.03624,2615.9],[7.578211,46.036057,2618.5]]}},
{"type":"Feature","properties":{"trail":"Sentier de la Dent-Blanche","hero":true,"from_mile":1.206,"to_mile":1.624,"length_m":672.9},"geometry":{"type":"LineString","coordinates":[[7.578211,46.036057,2618.5],[7.578473,46.035951,2627.6],[7.578534,46.035777,2633.1],[7.578685,46.035798,2639.0],[7.578866,46.035672,2650.6],[7.579047,46.035546,2661.0],[7.579239,46.035493,2669.4],[7.57943,46.035441,2677.4],[7.579334,46.03521,2671.9],[7.579239,46.03498,2669.4],[7.57943,46.034889,2675.7],[7.5795,46.03465,2677.2],[7.579571,46.034411,2677.8],[7.57946,46.034432,2676.8],[7.579395,46.034216,2677.2],[7.579667,46.034148,2679.8],[7.579858,46.034177,2683.7],[7.580049,46.034207,2689.1],[7.580318,46.034072,2698.9],[7.580586,46.033937,2705.0],[7.580855,46.033801,2710.5],[7.580724,46.033773,2707.1],[7.580769,46.033644,2706.6],[7.581011,46.033578,2711.2],[7.581253,46.033511,2716.1],[7.581306,46.033366,2718.0],[7.581359,46.033221,2722.3],[7.581646,46.033155,2726.5],[7.58161,46.032997,2730.8],[7.581575,46.03284,2735.5],[7.581681,46.032795,2737.4],[7.581641,46.032732,2739.2],[7.581842,46.03269,2740.8],[7.582043,46.032648,2742.9],[7.582079,46.032518,2746.3],[7.582288,46.032454,2747.4],[7.582497,46.032389,2747.2]]}},
{"type":"Feature","properties":{"trail":"Sentier de la Dent-Blanche","hero":true,"from_mile":1.624,"to_mile":1.649,"length_m":38.9},"geometry":{"type":"LineString","coordinates":[[7.582497,46.032389,2747.2],[7.582507,46.032215,2749.0],[7.582518,46.03204,2750.7]]}},
{"type":"Feature","properties":{"trail":"Sentier de la Dent-Blanche","hero":true,"from_mile":1.649,"to_mile":3.98,"length_m":3752.6},"geometry":{"type":"LineString","coordinates":[[7.582518,46.03204,2750.7],[7.58245,46.031897,2752.2],[7.582382,46.031755,2752.0],[7.582597,46.031622,2753.9],[7.582812,46.031489,2758.7],[7.583027,46.031356,2766.1],[7.583236,46.03116,2772.9],[7.583445,46.030963,2782.8],[7.583655,46.030766,2793.1],[7.583735,46.030523,2800.6],[7.583816,46.030279,2807.2],[7.583897,46.030035,2811.8],[7.583787,46.029837,2816.6],[7.583678,46.029638,2822.2],[7.583648,46.029469,2826.7],[7.583619,46.029299,2830.3],[7.583786,46.029116,2837.1],[7.583954,46.028933,2845.9],[7.584121,46.02875,2853.8],[7.584075,46.028517,2859.7],[7.584287,46.028335,2866.5],[7.584499,46.028152,2872.0],[7.58471,46.02797,2882.2],[7.584922,46.027787,2893.5],[7.585083,46.027601,2904.1],[7.585244,46.027415,2913.5],[7.585405,46.027229,2924.0],[7.585566,46.027042,2931.3],[7.585774,46.026901,2937.2],[7.585981,46.026759,2942.1],[7.586189,46.026618,2948.1],[7.586266,46.026435,2955.5],[7.586344,46.026253,2963.2],[7.586576,46.02609,2972.9],[7.586603,46.02587,2978.6],[7.586631,46.02565,2985.9],[7.586659,46.02543,2993.0],[7.586686,46.02521,2999.8],[7.586714,46.02499,3006.3],[7.586869,46.024828,3012.1],[7.587023,46.024666,3018.5],[7.587178,46.024504,3025.6],[7.587395,46.024334,3036.8],[7.587611,46.024164,3051.8],[7.587828,46.023994,3067.3],[7.588044,46.023824,3081.8],[7.58835,46.023876,3090.6],[7.58846,46.023654,3094.0],[7.588569,46.023431,3097.6],[7.588818,46.02327,3104.8],[7.589066,46.02311,3110.4],[7.589315,46.022949,3114.6],[7.589564,46.022788,3121.2],[7.589812,46.022628,3125.2],[7.589918,46.022492,3127.3],[7.590024,46.022357,3125.3],[7.58989,46.022155,3107.6],[7.590231,46.022113,3121.7],[7.590572,46.02207,3133.9],[7.590914,46.022028,3147.7],[7.591255,46.021986,3167.7],[7.591596,46.021943,3187.8],[7.591938,46.021901,3198.9],[7.592279,46.021858,3213.1],[7.59262,46.021816,3235.5],[7.592962,46.021773,3262.4],[7.593288,46.021664,3283.3],[7.593614,46.021554,3296.5],[7.59394,46.021445,3307.3],[7.594267,46.021336,3320.3],[7.594582,46.021319,3333.1],[7.594897,46.021302,3343.9],[7.595212,46.021286,3354.2],[7.59555,46.02121,3364.6],[7.595888,46.021134,3373.9],[7.596225,46.021059,3385.8],[7.596563,46.020983,3403.9],[7.596901,46.020971,3420.1],[7.597239,46.02096,3426.7],[7.597576,46.020948,3433.9],[7.597914,46.020936,3438.3],[7.598255,46.020888,3443.8],[7.598597,46.02084,3451.8],[7.598938,46.020792,3456.9],[7.599291,46.020683,3461.7],[7.599644,46.020573,3465.6],[7.599996,46.020464,3465.4],[7.600349,46.020355,3467.8],[7.600488,46.020402,3471.3],[7.600845,46.020321,3478.5],[7.601202,46.02024,3485.6],[7.601559,46.020159,3493.5],[7.601774,46.020277,3514.1],[7.60199,46.020394,3534.3],[7.602205,46.020512,3549.7],[7.602544,46.020507,3564.3],[7.602882,46.020502,3581.2],[7.60322,46.020497,3605.2],[7.603559,46.020493,3629.3],[7.603897,46.020488,3642.4],[7.604235,46.020483,3659.0],[7.604574,46.020478,3672.7],[7.604891,46.020559,3683.2],[7.605208,46.02064,3687.4],[7.605525,46.02072,3692.4],[7.605841,46.020801,3697.4],[7.606158,46.020882,3699.2],[7.606379,46.020997,3698.8],[7.606599,46.021112,3699.1],[7.606819,46.021226,3700.9],[7.607007,46.021451,3706.5],[7.607195,46.021675,3714.2],[7.607384,46.021899,3722.3],[7.607572,46.022124,3737.6],[7.607428,46.022245,3743.0],[7.607283,46.022366,3743.2],[7.607395,46.022593,3758.4],[7.607507,46.022819,3777.9],[7.607618,46.023046,3792.7],[7.60773,46.023272,3800.5],[7.607842,46.023499,3809.1],[7.607954,46.023725,3821.0],[7.608065,46.023952,3836.8],[7.608293,46.024091,3846.5],[7.608112,46.02432,3852.8],[7.60793,46.024548,3852.6],[7.608282,46.024657,3859.2],[7.608633,46.024766,3861.4],[7.608848,46.024894,3859.1],[7.609064,46.025022,3855.5],[7.60916,46.025168,3854.5],[7.609255,46.025314,3852.4],[7.609244,46.025512,3852.8],[7.609233,46.025709,3853.8],[7.60939,46.025844,3855.6],[7.609547,46.025979,3859.7],[7.609572,46.026211,3864.9],[7.609597,46.026443,3865.7],[7.609623,46.026676,3863.1],[7.609648,46.026908,3861.3],[7.609673,46.02714,3864.3],[7.609736,46.027382,3874.5],[7.609799,46.027624,3889.2],[7.609862,46.027865,3905.1],[7.609925,46.028107,3918.3],[7.609988,46.028349,3931.8],[7.610051,46.028591,3942.2],[7.610114,46.028832,3953.8],[7.610177,46.029074,3966.9],[7.61024,46.029316,3982.3],[7.610221,46.029446,3990.8]]}},
{"type":"Feature","properties":{"trail":"Sentier de la Dent-Blanche","hero":true,"from_mile":3.98,"to_mile":4.027,"length_m":74.4},"geometry":{"type":"LineString","coordinates":[[7.610221,46.029446,3990.8],[7.610187,46.029678,4006.6],[7.610283,46.029826,4017.8],[7.610475,46.029856,4015.4],[7.610666,46.029886,4012.0]]}},
{"type":"Feature","properties":{"trail":"Sentier de la Dent-Blanche","hero":true,"from_mile":4.027,"to_mile":4.34,"length_m":505.0},"geometry":{"type":"LineString","coordinates":[[7.610666,46.029886,4012.0],[7.61075,46.03009,4021.2],[7.610834,46.030294,4028.8],[7.610948,46.030408,4029.3],[7.611061,46.030522,4030.4],[7.611058,46.030711,4038.5],[7.611056,46.0309,4047.9],[7.611053,46.031089,4059.4],[7.611151,46.031317,4068.9],[7.611249,46.031546,4077.8],[7.611347,46.031775,4090.9],[7.611444,46.032004,4110.4],[7.611542,46.032232,4133.3],[7.61155,46.032461,4166.7],[7.611557,46.032689,4204.4],[7.611564,46.032918,4235.5],[7.611725,46.033147,4254.5],[7.611885,46.033376,4263.6],[7.611909,46.033598,4279.4],[7.611933,46.033819,4284.7],[7.611957,46.03404,4282.9],[7.611981,46.034261,4278.4]]}}
]}
