{
  "type": "FeatureCollection",
  "attribution": "© OpenStreetMap contributors",
  "license": "ODbL-1.0",
  "source": "https://www.openstreetmap.org/copyright",
  "features": [
    {
      "type": "Feature",
      "properties": {
        "mountain_slug": "varna-peak",
        "name": "Девическия манастир-ТВ Кула",
        "length_km": 0.54,
        "elevation_gain_m": null,
        "source": "© OpenStreetMap contributors"
      },
      "geometry": {
        "type": "LineString",
        "coordinates": [
          [
            27.94356,
            43.23394
          ],
          [
            27.94351,
            43.23407
          ],
          [
            27.94349,
            43.23413
          ],
          [
            27.94344,
            43.23427
          ],
          [
            27.94334,
            43.23437
          ],
          [
            27.94299,
            43.23462
          ],
          [
            27.94276,
            43.23488
          ],
          [
            27.94269,
            43.23507
          ],
          [
            27.94249,
            43.23532
          ],
          [
            27.94228,
            43.23565
          ],
          [
            27.94221,
            43.23572
          ],
          [
            27.94204,
            43.23586
          ],
          [
            27.94197,
            43.23593
          ],
          [
            27.94188,
            43.23612
          ],
          [
            27.94164,
            43.23641
          ],
          [
            27.94141,
            43.23662
          ],
          [
            27.94106,
            43.23695
          ],
          [
            27.94084,
            43.23718
          ],
          [
            27.94081,
            43.23723
          ],
          [
            27.94074,
            43.23746
          ],
          [
            27.94075,
            43.23755
          ],
          [
            27.94089,
            43.23801
          ],
          [
            27.94088,
            43.2382
          ]
        ]
      }
    },
    {
      "type": "Feature",
      "properties": {
        "mountain_slug": "varna-peak",
        "name": "Петър Попйорданов",
        "length_km": 0.18,
        "elevation_gain_m": null,
        "source": "© OpenStreetMap contributors"
      },
      "geometry": {
        "type": "LineString",
        "coordinates": [
          [
            27.94768,
            43.23734
          ],
          [
            27.94771,
            43.2372
          ],
          [
            27.94808,
            43.23685
          ],
          [
            27.94843,
            43.23664
          ],
          [
            27.94883,
            43.23642
          ],
          [
            27.94926,
            43.2362
          ]
        ]
      }
    }
  ]
}
