{
  "type": "FeatureCollection",
  "attribution": "© OpenStreetMap contributors",
  "license": "ODbL-1.0",
  "source": "https://www.openstreetmap.org/copyright",
  "features": [
    {
      "type": "Feature",
      "properties": {
        "mountain_slug": "st-boniface-down",
        "name": "Ventor Downs Prehistory and Wartime Walk, Isle of Wight",
        "length_km": 1.97,
        "elevation_gain_m": 38,
        "source": "© OpenStreetMap contributors"
      },
      "geometry": {
        "type": "LineString",
        "coordinates": [
          [
            -1.19931,
            50.60185
          ],
          [
            -1.19538,
            50.60292
          ],
          [
            -1.19072,
            50.60429
          ],
          [
            -1.19069,
            50.60492
          ],
          [
            -1.19123,
            50.60497
          ],
          [
            -1.1913,
            50.60506
          ],
          [
            -1.19192,
            50.60499
          ],
          [
            -1.19247,
            50.60509
          ],
          [
            -1.19377,
            50.60494
          ],
          [
            -1.19403,
            50.6048
          ],
          [
            -1.19436,
            50.60494
          ],
          [
            -1.19511,
            50.60508
          ],
          [
            -1.19568,
            50.60512
          ],
          [
            -1.19596,
            50.6051
          ],
          [
            -1.19602,
            50.60504
          ],
          [
            -1.19645,
            50.60509
          ],
          [
            -1.19775,
            50.60478
          ],
          [
            -1.19774,
            50.60472
          ],
          [
            -1.19788,
            50.60468
          ],
          [
            -1.19786,
            50.60455
          ],
          [
            -1.19935,
            50.60421
          ],
          [
            -1.19968,
            50.60385
          ],
          [
            -1.20143,
            50.60356
          ],
          [
            -1.20236,
            50.60353
          ],
          [
            -1.20203,
            50.60292
          ],
          [
            -1.20182,
            50.60272
          ],
          [
            -1.20147,
            50.60263
          ],
          [
            -1.20076,
            50.60257
          ],
          [
            -1.19958,
            50.60203
          ],
          [
            -1.19931,
            50.60185
          ]
        ]
      }
    },
    {
      "type": "Feature",
      "properties": {
        "mountain_slug": "st-boniface-down",
        "name": "Views of Ventor Walking Trail, Isle of Wight",
        "length_km": 4.09,
        "elevation_gain_m": 201,
        "source": "© OpenStreetMap contributors"
      },
      "geometry": {
        "type": "LineString",
        "coordinates": [
          [
            -1.19414,
            50.60474
          ],
          [
            -1.19403,
            50.6048
          ],
          [
            -1.19436,
            50.60494
          ],
          [
            -1.19511,
            50.60508
          ],
          [
            -1.19568,
            50.60512
          ],
          [
            -1.19596,
            50.6051
          ],
          [
            -1.19602,
            50.60504
          ],
          [
            -1.19645,
            50.60509
          ],
          [
            -1.19775,
            50.60478
          ],
          [
            -1.19774,
            50.60472
          ],
          [
            -1.1994,
            50.60428
          ],
          [
            -1.20002,
            50.604
          ],
          [
            -1.20065,
            50.60384
          ],
          [
            -1.2023,
            50.6037
          ],
          [
            -1.20236,
            50.60353
          ],
          [
            -1.20203,
            50.60292
          ],
          [
            -1.20182,
            50.60272
          ],
          [
            -1.20147,
            50.60263
          ],
          [
            -1.20076,
            50.60257
          ],
          [
            -1.19958,
            50.60203
          ],
          [
            -1.19931,
            50.60185
          ],
          [
            -1.19978,
            50.60163
          ],
          [
            -1.20022,
            50.60098
          ],
          [
            -1.20045,
            50.60074
          ],
          [
            -1.20072,
            50.60058
          ],
          [
            -1.2015,
            50.60029
          ],
          [
            -1.20246,
            50.60012
          ],
          [
            -1.20397,
            50.59964
          ],
          [
            -1.20515,
            50.59895
          ],
          [
            -1.20554,
            50.59881
          ],
          [
            -1.20589,
            50.59857
          ],
          [
            -1.20613,
            50.59854
          ],
          [
            -1.2063,
            50.59848
          ],
          [
            -1.20638,
            50.59836
          ],
          [
            -1.20881,
            50.59752
          ],
          [
            -1.20889,
            50.59732
          ],
          [
            -1.20882,
            50.59714
          ],
          [
            -1.20805,
            50.59737
          ],
          [
            -1.20672,
            50.5976
          ],
          [
            -1.2046,
            50.59775
          ],
          [
            -1.20462,
            50.59783
          ],
          [
            -1.20449,
            50.59789
          ],
          [
            -1.20434,
            50.59786
          ],
          [
            -1.20388,
            50.59792
          ],
          [
            -1.20239,
            50.59829
          ],
          [
            -1.20179,
            50.59851
          ],
          [
            -1.20094,
            50.59865
          ],
          [
            -1.20009,
            50.59868
          ],
          [
            -1.19999,
            50.59882
          ],
          [
            -1.19785,
            50.59942
          ],
          [
            -1.19639,
            50.60007
          ],
          [
            -1.19653,
            50.60036
          ],
          [
            -1.19634,
            50.6007
          ],
          [
            -1.19617,
            50.60084
          ],
          [
            -1.19596,
            50.60082
          ],
          [
            -1.19581,
            50.60072
          ],
          [
            -1.19518,
            50.60051
          ],
          [
            -1.19476,
            50.60049
          ],
          [
            -1.19416,
            50.60064
          ],
          [
            -1.19305,
            50.60109
          ],
          [
            -1.19233,
            50.60168
          ],
          [
            -1.19141,
            50.60181
          ],
          [
            -1.19098,
            50.60197
          ],
          [
            -1.19067,
            50.602
          ],
          [
            -1.19022,
            50.60189
          ],
          [
            -1.18991,
            50.6019
          ],
          [
            -1.19019,
            50.60263
          ],
          [
            -1.19029,
            50.6032
          ],
          [
            -1.19072,
            50.60429
          ],
          [
            -1.19069,
            50.60492
          ],
          [
            -1.19123,
            50.60497
          ],
          [
            -1.19138,
            50.60465
          ],
          [
            -1.19187,
            50.60444
          ],
          [
            -1.19212,
            50.60439
          ],
          [
            -1.19427,
            50.60467
          ],
          [
            -1.19419,
            50.60472
          ]
        ]
      }
    },
    {
      "type": "Feature",
      "properties": {
        "mountain_slug": "st-boniface-down",
        "name": "Isle of Wight Coastal Path",
        "length_km": 3.62,
        "elevation_gain_m": 81,
        "source": "© OpenStreetMap contributors"
      },
      "geometry": {
        "type": "LineString",
        "coordinates": [
          [
            -1.22421,
            50.58877
          ],
          [
            -1.22383,
            50.58889
          ],
          [
            -1.22308,
            50.58889
          ],
          [
            -1.2229,
            50.58885
          ],
          [
            -1.22292,
            50.5888
          ],
          [
            -1.22259,
            50.58865
          ],
          [
            -1.22123,
            50.58946
          ],
          [
            -1.22053,
            50.5897
          ],
          [
            -1.2204,
            50.5898
          ],
          [
            -1.22036,
            50.59006
          ],
          [
            -1.22023,
            50.59015
          ],
          [
            -1.21979,
            50.59007
          ],
          [
            -1.21923,
            50.59031
          ],
          [
            -1.21834,
            50.59046
          ],
          [
            -1.21729,
            50.59087
          ],
          [
            -1.21721,
            50.59105
          ],
          [
            -1.21668,
            50.59119
          ],
          [
            -1.21656,
            50.59128
          ],
          [
            -1.21507,
            50.59167
          ],
          [
            -1.21462,
            50.59158
          ],
          [
            -1.21375,
            50.59171
          ],
          [
            -1.21328,
            50.59187
          ],
          [
            -1.21335,
            50.59194
          ],
          [
            -1.21329,
            50.59197
          ],
          [
            -1.21203,
            50.59246
          ],
          [
            -1.21194,
            50.59235
          ],
          [
            -1.21104,
            50.59265
          ],
          [
            -1.21042,
            50.59308
          ],
          [
            -1.20947,
            50.59327
          ],
          [
            -1.20836,
            50.59333
          ],
          [
            -1.20621,
            50.59312
          ],
          [
            -1.20565,
            50.59326
          ],
          [
            -1.20548,
            50.59315
          ],
          [
            -1.20423,
            50.59306
          ],
          [
            -1.20397,
            50.5931
          ],
          [
            -1.20192,
            50.59289
          ],
          [
            -1.20189,
            50.59298
          ],
          [
            -1.20111,
            50.59312
          ],
          [
            -1.19993,
            50.59343
          ],
          [
            -1.1988,
            50.59395
          ],
          [
            -1.19801,
            50.59384
          ],
          [
            -1.19773,
            50.59393
          ],
          [
            -1.1976,
            50.59426
          ],
          [
            -1.19729,
            50.59444
          ],
          [
            -1.19719,
            50.5946
          ],
          [
            -1.19679,
            50.5947
          ],
          [
            -1.19627,
            50.59505
          ],
          [
            -1.19596,
            50.59516
          ],
          [
            -1.19465,
            50.59523
          ],
          [
            -1.19394,
            50.59555
          ],
          [
            -1.19337,
            50.5957
          ],
          [
            -1.19177,
            50.5959
          ],
          [
            -1.1909,
            50.59625
          ],
          [
            -1.19023,
            50.59646
          ],
          [
            -1.18731,
            50.59678
          ],
          [
            -1.18661,
            50.59707
          ],
          [
            -1.18509,
            50.59758
          ],
          [
            -1.18485,
            50.5977
          ],
          [
            -1.18485,
            50.59775
          ],
          [
            -1.18468,
            50.59785
          ],
          [
            -1.18493,
            50.59802
          ],
          [
            -1.18493,
            50.59807
          ],
          [
            -1.18476,
            50.59821
          ],
          [
            -1.18439,
            50.59869
          ],
          [
            -1.18424,
            50.59879
          ],
          [
            -1.18421,
            50.5989
          ],
          [
            -1.18378,
            50.59895
          ],
          [
            -1.18328,
            50.59914
          ],
          [
            -1.1824,
            50.59931
          ],
          [
            -1.18225,
            50.59972
          ],
          [
            -1.1815,
            50.6
          ]
        ]
      }
    },
    {
      "type": "Feature",
      "properties": {
        "mountain_slug": "st-boniface-down",
        "name": "Middle Barn Lane",
        "length_km": 0.5,
        "elevation_gain_m": 21,
        "source": "© OpenStreetMap contributors"
      },
      "geometry": {
        "type": "LineString",
        "coordinates": [
          [
            -1.21177,
            50.61004
          ],
          [
            -1.21133,
            50.61003
          ],
          [
            -1.21016,
            50.61039
          ],
          [
            -1.20887,
            50.611
          ],
          [
            -1.20852,
            50.61136
          ],
          [
            -1.20754,
            50.61173
          ],
          [
            -1.20679,
            50.61183
          ],
          [
            -1.20619,
            50.61185
          ],
          [
            -1.20564,
            50.61199
          ]
        ]
      }
    }
  ]
}
