{
  "type": "FeatureCollection",
  "attribution": "© OpenStreetMap contributors",
  "license": "ODbL-1.0",
  "source": "https://www.openstreetmap.org/copyright",
  "features": [
    {
      "type": "Feature",
      "properties": {
        "mountain_slug": "monte-pellegrino",
        "name": "Sentiero 9 - Al Semaforo",
        "length_km": 0.71,
        "elevation_gain_m": 120,
        "source": "© OpenStreetMap contributors"
      },
      "geometry": {
        "type": "LineString",
        "coordinates": [
          [
            13.35269,
            38.16908
          ],
          [
            13.35312,
            38.16909
          ],
          [
            13.35314,
            38.16884
          ],
          [
            13.35347,
            38.16883
          ],
          [
            13.35345,
            38.16871
          ],
          [
            13.35329,
            38.16844
          ],
          [
            13.35325,
            38.16799
          ],
          [
            13.35358,
            38.16782
          ],
          [
            13.35375,
            38.16764
          ],
          [
            13.35351,
            38.16751
          ],
          [
            13.35343,
            38.16734
          ],
          [
            13.3539,
            38.16732
          ],
          [
            13.35452,
            38.1672
          ],
          [
            13.35453,
            38.16703
          ],
          [
            13.35439,
            38.16694
          ],
          [
            13.35471,
            38.16668
          ],
          [
            13.35502,
            38.16618
          ],
          [
            13.35498,
            38.16611
          ],
          [
            13.35486,
            38.1662
          ],
          [
            13.35505,
            38.16593
          ],
          [
            13.35503,
            38.16586
          ],
          [
            13.35482,
            38.16595
          ],
          [
            13.35473,
            38.16592
          ],
          [
            13.35479,
            38.16568
          ],
          [
            13.35494,
            38.16549
          ],
          [
            13.35489,
            38.16542
          ],
          [
            13.35496,
            38.16534
          ]
        ]
      }
    },
    {
      "type": "Feature",
      "properties": {
        "mountain_slug": "monte-pellegrino",
        "name": "Itinerarium Rosaliae - Tappa 11",
        "length_km": 4.87,
        "elevation_gain_m": 688,
        "source": "© OpenStreetMap contributors"
      },
      "geometry": {
        "type": "LineString",
        "coordinates": [
          [
            13.34542,
            38.14458
          ],
          [
            13.35452,
            38.14759
          ],
          [
            13.35712,
            38.14806
          ],
          [
            13.35741,
            38.14824
          ],
          [
            13.3576,
            38.1482
          ],
          [
            13.36077,
            38.15218
          ],
          [
            13.36068,
            38.15223
          ],
          [
            13.35981,
            38.15198
          ],
          [
            13.36074,
            38.15279
          ],
          [
            13.3598,
            38.15262
          ],
          [
            13.36022,
            38.15328
          ],
          [
            13.35985,
            38.15311
          ],
          [
            13.35999,
            38.15354
          ],
          [
            13.35968,
            38.15337
          ],
          [
            13.35964,
            38.1534
          ],
          [
            13.35989,
            38.15375
          ],
          [
            13.35957,
            38.1537
          ],
          [
            13.35985,
            38.15393
          ],
          [
            13.35949,
            38.15386
          ],
          [
            13.35946,
            38.15388
          ],
          [
            13.35952,
            38.15398
          ],
          [
            13.35974,
            38.15407
          ],
          [
            13.36046,
            38.15402
          ],
          [
            13.36077,
            38.15415
          ],
          [
            13.36109,
            38.1542
          ],
          [
            13.3614,
            38.15431
          ],
          [
            13.36091,
            38.15463
          ],
          [
            13.35967,
            38.15476
          ],
          [
            13.35947,
            38.1549
          ],
          [
            13.35869,
            38.15519
          ],
          [
            13.35842,
            38.15513
          ],
          [
            13.3584,
            38.15518
          ],
          [
            13.35851,
            38.15533
          ],
          [
            13.35888,
            38.15566
          ],
          [
            13.3588,
            38.15575
          ],
          [
            13.35702,
            38.1558
          ],
          [
            13.35617,
            38.15635
          ],
          [
            13.35608,
            38.15646
          ],
          [
            13.35658,
            38.15674
          ],
          [
            13.35664,
            38.15682
          ],
          [
            13.35605,
            38.15765
          ],
          [
            13.35588,
            38.15803
          ],
          [
            13.35565,
            38.15824
          ],
          [
            13.35568,
            38.15831
          ],
          [
            13.35496,
            38.15902
          ],
          [
            13.35443,
            38.15945
          ],
          [
            13.35388,
            38.16015
          ],
          [
            13.35343,
            38.16086
          ],
          [
            13.35327,
            38.16101
          ],
          [
            13.35185,
            38.16162
          ],
          [
            13.35056,
            38.16233
          ],
          [
            13.35042,
            38.16319
          ],
          [
            13.35051,
            38.16347
          ],
          [
            13.35042,
            38.16407
          ],
          [
            13.34961,
            38.16653
          ],
          [
            13.3496,
            38.1671
          ],
          [
            13.34951,
            38.16735
          ],
          [
            13.3501,
            38.16767
          ],
          [
            13.35055,
            38.16784
          ],
          [
            13.35073,
            38.16802
          ],
          [
            13.3509,
            38.16809
          ],
          [
            13.35158,
            38.16791
          ],
          [
            13.35164,
            38.16806
          ]
        ]
      }
    },
    {
      "type": "Feature",
      "properties": {
        "mountain_slug": "monte-pellegrino",
        "name": "Sentiero 11 - Pizzo Monaco",
        "length_km": 0.67,
        "elevation_gain_m": 197,
        "source": "© OpenStreetMap contributors"
      },
      "geometry": {
        "type": "LineString",
        "coordinates": [
          [
            13.35866,
            38.16357
          ],
          [
            13.35849,
            38.16441
          ],
          [
            13.35811,
            38.16532
          ],
          [
            13.3581,
            38.16551
          ],
          [
            13.35751,
            38.16615
          ],
          [
            13.35682,
            38.16738
          ],
          [
            13.35692,
            38.16772
          ],
          [
            13.35712,
            38.16801
          ],
          [
            13.35736,
            38.1688
          ],
          [
            13.35701,
            38.16909
          ]
        ]
      }
    },
    {
      "type": "Feature",
      "properties": {
        "mountain_slug": "monte-pellegrino",
        "name": "Sentiero 12 - Volo d'Aquila",
        "length_km": 0.99,
        "elevation_gain_m": 181,
        "source": "© OpenStreetMap contributors"
      },
      "geometry": {
        "type": "LineString",
        "coordinates": [
          [
            13.36152,
            38.15759
          ],
          [
            13.36166,
            38.15786
          ],
          [
            13.36175,
            38.15793
          ],
          [
            13.362,
            38.15798
          ],
          [
            13.36219,
            38.15813
          ],
          [
            13.36277,
            38.15915
          ],
          [
            13.36267,
            38.15936
          ],
          [
            13.36273,
            38.15955
          ],
          [
            13.36271,
            38.16008
          ],
          [
            13.36276,
            38.16024
          ],
          [
            13.36274,
            38.16041
          ],
          [
            13.36261,
            38.16048
          ],
          [
            13.36258,
            38.16058
          ],
          [
            13.36262,
            38.1607
          ],
          [
            13.36253,
            38.16077
          ],
          [
            13.36231,
            38.16127
          ],
          [
            13.36218,
            38.16135
          ],
          [
            13.36219,
            38.16151
          ],
          [
            13.36212,
            38.16171
          ],
          [
            13.36196,
            38.16169
          ],
          [
            13.36191,
            38.16212
          ],
          [
            13.3618,
            38.16231
          ],
          [
            13.36167,
            38.16278
          ],
          [
            13.36144,
            38.16287
          ],
          [
            13.3613,
            38.16304
          ],
          [
            13.36101,
            38.16319
          ],
          [
            13.36072,
            38.1632
          ],
          [
            13.36061,
            38.16299
          ],
          [
            13.36045,
            38.16305
          ],
          [
            13.36029,
            38.1632
          ],
          [
            13.36011,
            38.16314
          ],
          [
            13.35982,
            38.16328
          ],
          [
            13.35946,
            38.16339
          ],
          [
            13.35921,
            38.16363
          ],
          [
            13.35904,
            38.16367
          ],
          [
            13.35896,
            38.16339
          ]
        ]
      }
    },
    {
      "type": "Feature",
      "properties": {
        "mountain_slug": "monte-pellegrino",
        "name": "Valle del porco",
        "length_km": 0.89,
        "elevation_gain_m": 295,
        "source": "© OpenStreetMap contributors"
      },
      "geometry": {
        "type": "LineString",
        "coordinates": [
          [
            13.34022,
            38.16784
          ],
          [
            13.34098,
            38.16779
          ],
          [
            13.34257,
            38.16781
          ],
          [
            13.34284,
            38.16804
          ],
          [
            13.34314,
            38.16807
          ],
          [
            13.34317,
            38.16816
          ],
          [
            13.34336,
            38.16828
          ],
          [
            13.34343,
            38.16826
          ],
          [
            13.34375,
            38.16843
          ],
          [
            13.3444,
            38.16891
          ],
          [
            13.34435,
            38.16904
          ],
          [
            13.34449,
            38.16919
          ],
          [
            13.34474,
            38.16934
          ],
          [
            13.3451,
            38.1694
          ],
          [
            13.34634,
            38.1698
          ],
          [
            13.34663,
            38.16996
          ],
          [
            13.34696,
            38.17003
          ],
          [
            13.34774,
            38.17035
          ],
          [
            13.34831,
            38.17039
          ],
          [
            13.34874,
            38.17033
          ],
          [
            13.34911,
            38.17045
          ]
        ]
      }
    },
    {
      "type": "Feature",
      "properties": {
        "mountain_slug": "monte-pellegrino",
        "name": "Sentiero 10 Contraeree - Capanno avifauna",
        "length_km": 0.3,
        "elevation_gain_m": 22,
        "source": "© OpenStreetMap contributors"
      },
      "geometry": {
        "type": "LineString",
        "coordinates": [
          [
            13.35941,
            38.17351
          ],
          [
            13.35924,
            38.17357
          ],
          [
            13.35901,
            38.17391
          ],
          [
            13.3586,
            38.17414
          ],
          [
            13.35835,
            38.17415
          ],
          [
            13.35813,
            38.1741
          ],
          [
            13.35792,
            38.17399
          ],
          [
            13.35779,
            38.17384
          ],
          [
            13.35769,
            38.17387
          ],
          [
            13.35761,
            38.17416
          ],
          [
            13.35775,
            38.17466
          ],
          [
            13.35772,
            38.17479
          ]
        ]
      }
    },
    {
      "type": "Feature",
      "properties": {
        "mountain_slug": "monte-pellegrino",
        "name": "Rufuliata",
        "length_km": 1.44,
        "elevation_gain_m": 264,
        "source": "© OpenStreetMap contributors"
      },
      "geometry": {
        "type": "LineString",
        "coordinates": [
          [
            13.33957,
            38.17303
          ],
          [
            13.33983,
            38.17303
          ],
          [
            13.34014,
            38.17283
          ],
          [
            13.34023,
            38.17304
          ],
          [
            13.34011,
            38.17311
          ],
          [
            13.34008,
            38.17321
          ],
          [
            13.33996,
            38.17326
          ],
          [
            13.33986,
            38.17348
          ],
          [
            13.33966,
            38.17368
          ],
          [
            13.33989,
            38.1737
          ],
          [
            13.33955,
            38.1741
          ],
          [
            13.33952,
            38.17424
          ],
          [
            13.34019,
            38.17399
          ],
          [
            13.34031,
            38.17386
          ],
          [
            13.34044,
            38.17382
          ],
          [
            13.3405,
            38.17386
          ],
          [
            13.34017,
            38.1744
          ],
          [
            13.34011,
            38.17461
          ],
          [
            13.33977,
            38.17493
          ],
          [
            13.33978,
            38.17509
          ],
          [
            13.3396,
            38.17563
          ],
          [
            13.33991,
            38.17542
          ],
          [
            13.34032,
            38.17527
          ],
          [
            13.34038,
            38.17537
          ],
          [
            13.34027,
            38.17549
          ],
          [
            13.34013,
            38.17586
          ],
          [
            13.34047,
            38.1757
          ],
          [
            13.3403,
            38.17607
          ],
          [
            13.3405,
            38.17609
          ],
          [
            13.34049,
            38.17621
          ],
          [
            13.34057,
            38.17621
          ],
          [
            13.34101,
            38.17592
          ],
          [
            13.34097,
            38.17589
          ],
          [
            13.34114,
            38.1757
          ],
          [
            13.3415,
            38.17545
          ],
          [
            13.34191,
            38.175
          ],
          [
            13.34208,
            38.1746
          ],
          [
            13.34223,
            38.17443
          ],
          [
            13.34239,
            38.17364
          ],
          [
            13.34262,
            38.17329
          ],
          [
            13.34269,
            38.17331
          ],
          [
            13.34275,
            38.1736
          ],
          [
            13.3428,
            38.17364
          ],
          [
            13.34296,
            38.17359
          ],
          [
            13.34302,
            38.17364
          ],
          [
            13.34303,
            38.17395
          ],
          [
            13.34307,
            38.174
          ],
          [
            13.34315,
            38.17397
          ],
          [
            13.34321,
            38.17407
          ],
          [
            13.3432,
            38.17438
          ],
          [
            13.34338,
            38.17443
          ]
        ]
      }
    },
    {
      "type": "Feature",
      "properties": {
        "mountain_slug": "monte-pellegrino",
        "name": "Sentiero Musto",
        "length_km": 0.3,
        "elevation_gain_m": 7,
        "source": "© OpenStreetMap contributors"
      },
      "geometry": {
        "type": "LineString",
        "coordinates": [
          [
            13.33693,
            38.16975
          ],
          [
            13.33763,
            38.17005
          ],
          [
            13.33769,
            38.17012
          ],
          [
            13.33758,
            38.17104
          ],
          [
            13.33747,
            38.17124
          ],
          [
            13.3375,
            38.17154
          ],
          [
            13.33757,
            38.17161
          ],
          [
            13.33755,
            38.17188
          ],
          [
            13.33769,
            38.17204
          ]
        ]
      }
    }
  ]
}
