{
  "type": "FeatureCollection",
  "attribution": "© OpenStreetMap contributors",
  "license": "ODbL-1.0",
  "source": "https://www.openstreetmap.org/copyright",
  "features": [
    {
      "type": "Feature",
      "properties": {
        "mountain_slug": "mam-tor",
        "name": "Mam Tor Circular Walk, High Peak",
        "length_km": 4.5,
        "elevation_gain_m": 206,
        "source": "© OpenStreetMap contributors"
      },
      "geometry": {
        "type": "LineString",
        "coordinates": [
          [
            -1.81508,
            53.34542
          ],
          [
            -1.81269,
            53.34522
          ],
          [
            -1.81251,
            53.34494
          ],
          [
            -1.81132,
            53.34461
          ],
          [
            -1.80948,
            53.34386
          ],
          [
            -1.80918,
            53.34379
          ],
          [
            -1.80698,
            53.34353
          ],
          [
            -1.80542,
            53.34384
          ],
          [
            -1.80445,
            53.34516
          ],
          [
            -1.80386,
            53.34556
          ],
          [
            -1.80332,
            53.34567
          ],
          [
            -1.80323,
            53.34587
          ],
          [
            -1.80326,
            53.34598
          ],
          [
            -1.8036,
            53.34628
          ],
          [
            -1.80413,
            53.34638
          ],
          [
            -1.80443,
            53.3465
          ],
          [
            -1.80396,
            53.3469
          ],
          [
            -1.80368,
            53.34751
          ],
          [
            -1.80366,
            53.34785
          ],
          [
            -1.80388,
            53.34801
          ],
          [
            -1.80393,
            53.34811
          ],
          [
            -1.80383,
            53.34819
          ],
          [
            -1.80383,
            53.34841
          ],
          [
            -1.80356,
            53.34901
          ],
          [
            -1.80285,
            53.34968
          ],
          [
            -1.80267,
            53.35001
          ],
          [
            -1.80271,
            53.35028
          ],
          [
            -1.80296,
            53.35055
          ],
          [
            -1.80333,
            53.35079
          ],
          [
            -1.80338,
            53.35091
          ],
          [
            -1.80331,
            53.35123
          ],
          [
            -1.803,
            53.35163
          ],
          [
            -1.80284,
            53.35178
          ],
          [
            -1.80257,
            53.35183
          ],
          [
            -1.80231,
            53.35263
          ],
          [
            -1.80217,
            53.35285
          ],
          [
            -1.8023,
            53.35298
          ],
          [
            -1.80284,
            53.35326
          ],
          [
            -1.80277,
            53.35348
          ],
          [
            -1.80286,
            53.35364
          ],
          [
            -1.80275,
            53.3538
          ],
          [
            -1.8028,
            53.35389
          ],
          [
            -1.80267,
            53.35403
          ],
          [
            -1.80269,
            53.35421
          ],
          [
            -1.80231,
            53.3546
          ],
          [
            -1.80189,
            53.35471
          ],
          [
            -1.80173,
            53.35484
          ],
          [
            -1.80136,
            53.35501
          ],
          [
            -1.80102,
            53.3554
          ],
          [
            -1.8008,
            53.35542
          ],
          [
            -1.8006,
            53.35551
          ],
          [
            -1.80019,
            53.35558
          ],
          [
            -1.79988,
            53.3557
          ],
          [
            -1.79963,
            53.35597
          ],
          [
            -1.79924,
            53.35613
          ],
          [
            -1.79918,
            53.3563
          ],
          [
            -1.79874,
            53.35663
          ],
          [
            -1.79744,
            53.35713
          ],
          [
            -1.79722,
            53.35733
          ],
          [
            -1.79727,
            53.35736
          ],
          [
            -1.79933,
            53.35713
          ],
          [
            -1.80203,
            53.35666
          ],
          [
            -1.8046,
            53.35567
          ],
          [
            -1.80466,
            53.35556
          ],
          [
            -1.80553,
            53.35504
          ],
          [
            -1.80576,
            53.3547
          ],
          [
            -1.80637,
            53.35412
          ],
          [
            -1.80729,
            53.35291
          ],
          [
            -1.80834,
            53.35191
          ],
          [
            -1.80866,
            53.35094
          ],
          [
            -1.80914,
            53.34993
          ],
          [
            -1.80959,
            53.34923
          ],
          [
            -1.80981,
            53.34918
          ],
          [
            -1.81079,
            53.34876
          ],
          [
            -1.81143,
            53.34865
          ],
          [
            -1.81181,
            53.34842
          ],
          [
            -1.81271,
            53.34807
          ],
          [
            -1.81306,
            53.34777
          ],
          [
            -1.81353,
            53.34771
          ],
          [
            -1.81358,
            53.34729
          ],
          [
            -1.81399,
            53.34704
          ],
          [
            -1.81522,
            53.34667
          ],
          [
            -1.81534,
            53.34652
          ],
          [
            -1.81537,
            53.34635
          ],
          [
            -1.8153,
            53.34624
          ]
        ]
      }
    },
    {
      "type": "Feature",
      "properties": {
        "mountain_slug": "mam-tor",
        "name": "Mam Tor Cavedale Loop, High Peak",
        "length_km": 5.35,
        "elevation_gain_m": 298,
        "source": "© OpenStreetMap contributors"
      },
      "geometry": {
        "type": "LineString",
        "coordinates": [
          [
            -1.77849,
            53.33672
          ],
          [
            -1.77815,
            53.33712
          ],
          [
            -1.77819,
            53.33764
          ],
          [
            -1.77771,
            53.33842
          ],
          [
            -1.77773,
            53.33871
          ],
          [
            -1.77765,
            53.33896
          ],
          [
            -1.77623,
            53.33973
          ],
          [
            -1.77566,
            53.34015
          ],
          [
            -1.77556,
            53.34031
          ],
          [
            -1.77548,
            53.34106
          ],
          [
            -1.7753,
            53.34144
          ],
          [
            -1.77555,
            53.34161
          ],
          [
            -1.7756,
            53.34172
          ],
          [
            -1.77602,
            53.3419
          ],
          [
            -1.77648,
            53.3419
          ],
          [
            -1.77769,
            53.34212
          ],
          [
            -1.77795,
            53.34211
          ],
          [
            -1.77863,
            53.34193
          ],
          [
            -1.77883,
            53.34195
          ],
          [
            -1.77889,
            53.34221
          ],
          [
            -1.77963,
            53.34296
          ],
          [
            -1.77991,
            53.34291
          ],
          [
            -1.78006,
            53.34326
          ],
          [
            -1.78023,
            53.34345
          ],
          [
            -1.78077,
            53.34374
          ],
          [
            -1.78191,
            53.34419
          ],
          [
            -1.78225,
            53.34422
          ],
          [
            -1.78288,
            53.3444
          ],
          [
            -1.78435,
            53.34518
          ],
          [
            -1.78777,
            53.3462
          ],
          [
            -1.78779,
            53.34616
          ],
          [
            -1.78804,
            53.34622
          ],
          [
            -1.79037,
            53.34629
          ],
          [
            -1.79069,
            53.34633
          ],
          [
            -1.79073,
            53.34639
          ],
          [
            -1.79323,
            53.34694
          ],
          [
            -1.79386,
            53.34706
          ],
          [
            -1.79465,
            53.34709
          ],
          [
            -1.79488,
            53.34723
          ],
          [
            -1.79502,
            53.3474
          ],
          [
            -1.79528,
            53.34745
          ],
          [
            -1.79559,
            53.3476
          ],
          [
            -1.79799,
            53.348
          ],
          [
            -1.79843,
            53.34822
          ],
          [
            -1.79866,
            53.34822
          ],
          [
            -1.79921,
            53.34806
          ],
          [
            -1.79928,
            53.34801
          ],
          [
            -1.79918,
            53.34775
          ],
          [
            -1.79972,
            53.34817
          ],
          [
            -1.79979,
            53.34891
          ],
          [
            -1.79968,
            53.34985
          ],
          [
            -1.79972,
            53.35006
          ],
          [
            -1.79998,
            53.35044
          ],
          [
            -1.80061,
            53.35078
          ],
          [
            -1.80113,
            53.35094
          ],
          [
            -1.8018,
            53.35106
          ],
          [
            -1.80196,
            53.35116
          ],
          [
            -1.80241,
            53.35176
          ],
          [
            -1.80257,
            53.35183
          ],
          [
            -1.80231,
            53.35263
          ],
          [
            -1.8024,
            53.35277
          ],
          [
            -1.80256,
            53.3529
          ],
          [
            -1.8034,
            53.35308
          ],
          [
            -1.80394,
            53.3533
          ],
          [
            -1.80394,
            53.35358
          ],
          [
            -1.80397,
            53.35363
          ],
          [
            -1.80413,
            53.35366
          ],
          [
            -1.80417,
            53.35373
          ],
          [
            -1.80388,
            53.3544
          ],
          [
            -1.80356,
            53.35483
          ],
          [
            -1.80329,
            53.35543
          ],
          [
            -1.80313,
            53.3555
          ],
          [
            -1.80301,
            53.35576
          ],
          [
            -1.80228,
            53.35632
          ],
          [
            -1.8018,
            53.3566
          ],
          [
            -1.80179,
            53.35669
          ],
          [
            -1.80214,
            53.35663
          ],
          [
            -1.80474,
            53.35562
          ],
          [
            -1.80564,
            53.35509
          ],
          [
            -1.80606,
            53.35458
          ],
          [
            -1.80655,
            53.35436
          ],
          [
            -1.80676,
            53.3542
          ],
          [
            -1.80776,
            53.35293
          ],
          [
            -1.80862,
            53.35248
          ],
          [
            -1.80901,
            53.35221
          ],
          [
            -1.81015,
            53.35191
          ],
          [
            -1.81076,
            53.35179
          ],
          [
            -1.81107,
            53.35166
          ],
          [
            -1.8112,
            53.35144
          ],
          [
            -1.81125,
            53.3509
          ],
          [
            -1.81153,
            53.35036
          ],
          [
            -1.81227,
            53.34992
          ],
          [
            -1.81227,
            53.34982
          ],
          [
            -1.81248,
            53.3496
          ],
          [
            -1.81297,
            53.34874
          ],
          [
            -1.81311,
            53.34864
          ],
          [
            -1.81317,
            53.34864
          ],
          [
            -1.81373,
            53.34804
          ],
          [
            -1.81366,
            53.34751
          ],
          [
            -1.8137,
            53.34727
          ],
          [
            -1.81364,
            53.34725
          ],
          [
            -1.81399,
            53.34704
          ],
          [
            -1.81522,
            53.34667
          ],
          [
            -1.81534,
            53.34652
          ],
          [
            -1.81537,
            53.34635
          ],
          [
            -1.8153,
            53.34624
          ]
        ]
      }
    }
  ]
}
