{
  "type": "FeatureCollection",
  "attribution": "© OpenStreetMap contributors",
  "license": "ODbL-1.0",
  "source": "https://www.openstreetmap.org/copyright",
  "features": [
    {
      "type": "Feature",
      "properties": {
        "mountain_slug": "pizzo-cengalo",
        "name": "Sentiero Roma - Tappa 3",
        "length_km": 3.69,
        "elevation_gain_m": 362,
        "source": "© OpenStreetMap contributors"
      },
      "geometry": {
        "type": "LineString",
        "coordinates": [
          [
            9.58432,
            46.28053
          ],
          [
            9.58476,
            46.28063
          ],
          [
            9.58495,
            46.2809
          ],
          [
            9.58496,
            46.281
          ],
          [
            9.58536,
            46.28127
          ],
          [
            9.58585,
            46.28133
          ],
          [
            9.58649,
            46.28161
          ],
          [
            9.58688,
            46.28159
          ],
          [
            9.58782,
            46.28214
          ],
          [
            9.58834,
            46.28258
          ],
          [
            9.5885,
            46.28262
          ],
          [
            9.5893,
            46.28307
          ],
          [
            9.58958,
            46.28329
          ],
          [
            9.58996,
            46.28351
          ],
          [
            9.59033,
            46.28361
          ],
          [
            9.59131,
            46.28359
          ],
          [
            9.59159,
            46.28347
          ],
          [
            9.59201,
            46.28315
          ],
          [
            9.59221,
            46.28314
          ],
          [
            9.59254,
            46.28296
          ],
          [
            9.5926,
            46.28299
          ],
          [
            9.59253,
            46.28309
          ],
          [
            9.5926,
            46.28307
          ],
          [
            9.59256,
            46.28313
          ],
          [
            9.59265,
            46.28315
          ],
          [
            9.59319,
            46.28303
          ],
          [
            9.59339,
            46.28312
          ],
          [
            9.59375,
            46.28316
          ],
          [
            9.59476,
            46.28279
          ],
          [
            9.59536,
            46.28296
          ],
          [
            9.59586,
            46.28283
          ],
          [
            9.59603,
            46.28272
          ],
          [
            9.59643,
            46.2827
          ],
          [
            9.59669,
            46.28263
          ],
          [
            9.59724,
            46.28266
          ],
          [
            9.59741,
            46.28262
          ],
          [
            9.59801,
            46.28273
          ],
          [
            9.59835,
            46.2826
          ],
          [
            9.59883,
            46.28256
          ],
          [
            9.59914,
            46.28245
          ],
          [
            9.60003,
            46.28228
          ],
          [
            9.60043,
            46.28231
          ],
          [
            9.60051,
            46.28228
          ],
          [
            9.60129,
            46.28228
          ],
          [
            9.60181,
            46.28213
          ],
          [
            9.6022,
            46.28189
          ],
          [
            9.60246,
            46.28188
          ],
          [
            9.60281,
            46.28176
          ],
          [
            9.60415,
            46.28114
          ],
          [
            9.60515,
            46.28007
          ],
          [
            9.60528,
            46.28002
          ],
          [
            9.60563,
            46.27968
          ],
          [
            9.60594,
            46.27948
          ],
          [
            9.60613,
            46.27925
          ],
          [
            9.60619,
            46.27907
          ],
          [
            9.60642,
            46.27887
          ],
          [
            9.60653,
            46.27868
          ],
          [
            9.60671,
            46.27857
          ],
          [
            9.60691,
            46.27831
          ],
          [
            9.60765,
            46.27776
          ],
          [
            9.60773,
            46.27775
          ],
          [
            9.60772,
            46.27785
          ],
          [
            9.60811,
            46.27775
          ],
          [
            9.6083,
            46.27758
          ],
          [
            9.60849,
            46.2773
          ],
          [
            9.60865,
            46.27739
          ],
          [
            9.60873,
            46.27727
          ],
          [
            9.60895,
            46.27756
          ],
          [
            9.60902,
            46.27751
          ],
          [
            9.60903,
            46.27738
          ],
          [
            9.60912,
            46.27746
          ],
          [
            9.60927,
            46.27739
          ],
          [
            9.60936,
            46.27751
          ],
          [
            9.6094,
            46.27738
          ],
          [
            9.60946,
            46.27747
          ],
          [
            9.60964,
            46.27738
          ],
          [
            9.60975,
            46.27751
          ],
          [
            9.6098,
            46.27748
          ],
          [
            9.60984,
            46.27752
          ],
          [
            9.60993,
            46.27746
          ],
          [
            9.61001,
            46.27749
          ],
          [
            9.61027,
            46.27732
          ],
          [
            9.61043,
            46.27729
          ],
          [
            9.61046,
            46.27722
          ],
          [
            9.61055,
            46.27722
          ],
          [
            9.61062,
            46.27715
          ],
          [
            9.61057,
            46.27711
          ],
          [
            9.61062,
            46.27705
          ],
          [
            9.61071,
            46.27702
          ],
          [
            9.61082,
            46.27718
          ],
          [
            9.61096,
            46.27707
          ],
          [
            9.6112,
            46.27708
          ],
          [
            9.6113,
            46.27725
          ],
          [
            9.6112,
            46.27729
          ],
          [
            9.61121,
            46.27733
          ],
          [
            9.61138,
            46.2772
          ],
          [
            9.61146,
            46.27726
          ],
          [
            9.61135,
            46.27736
          ],
          [
            9.61147,
            46.27738
          ],
          [
            9.61169,
            46.27726
          ],
          [
            9.61176,
            46.27726
          ],
          [
            9.61179,
            46.27736
          ],
          [
            9.61187,
            46.27737
          ],
          [
            9.61197,
            46.27725
          ],
          [
            9.61183,
            46.27707
          ],
          [
            9.61184,
            46.27698
          ],
          [
            9.6117,
            46.2769
          ],
          [
            9.61167,
            46.2768
          ],
          [
            9.61182,
            46.27671
          ],
          [
            9.61196,
            46.27674
          ],
          [
            9.61217,
            46.27656
          ],
          [
            9.61216,
            46.27629
          ],
          [
            9.61239,
            46.27606
          ],
          [
            9.61252,
            46.2761
          ],
          [
            9.61267,
            46.27602
          ],
          [
            9.61264,
            46.27615
          ],
          [
            9.61285,
            46.27611
          ],
          [
            9.61289,
            46.2762
          ],
          [
            9.61323,
            46.27622
          ],
          [
            9.61324,
            46.27645
          ],
          [
            9.61331,
            46.27653
          ],
          [
            9.61366,
            46.2764
          ],
          [
            9.61406,
            46.27636
          ],
          [
            9.61414,
            46.27619
          ],
          [
            9.61426,
            46.27609
          ],
          [
            9.61435,
            46.27608
          ],
          [
            9.61432,
            46.27603
          ],
          [
            9.61445,
            46.27601
          ],
          [
            9.61438,
            46.27581
          ],
          [
            9.61423,
            46.27575
          ],
          [
            9.61416,
            46.27547
          ],
          [
            9.61424,
            46.2754
          ],
          [
            9.61437,
            46.27541
          ],
          [
            9.61454,
            46.27497
          ],
          [
            9.61471,
            46.275
          ],
          [
            9.6148,
            46.27494
          ],
          [
            9.61483,
            46.27479
          ],
          [
            9.61509,
            46.27467
          ],
          [
            9.61514,
            46.27441
          ],
          [
            9.61524,
            46.27445
          ],
          [
            9.61524,
            46.27438
          ]
        ]
      }
    }
  ]
}
