{
  "type": "FeatureCollection",
  "attribution": "© OpenStreetMap contributors",
  "license": "ODbL-1.0",
  "source": "https://www.openstreetmap.org/copyright",
  "features": [
    {
      "type": "Feature",
      "properties": {
        "mountain_slug": "mont-granier",
        "name": "Granier par le Passage de Tencovaz; Les Frasses",
        "length_km": 1.38,
        "elevation_gain_m": 510,
        "source": "© OpenStreetMap contributors"
      },
      "geometry": {
        "type": "LineString",
        "coordinates": [
          [
            5.91498,
            45.45962
          ],
          [
            5.91502,
            45.45979
          ],
          [
            5.91524,
            45.45983
          ],
          [
            5.91558,
            45.46001
          ],
          [
            5.91613,
            45.46049
          ],
          [
            5.91648,
            45.46072
          ],
          [
            5.91669,
            45.46072
          ],
          [
            5.91695,
            45.46081
          ],
          [
            5.91758,
            45.4609
          ],
          [
            5.9179,
            45.46102
          ],
          [
            5.91901,
            45.46131
          ],
          [
            5.9192,
            45.46131
          ],
          [
            5.91988,
            45.46076
          ],
          [
            5.92008,
            45.46072
          ],
          [
            5.92071,
            45.46075
          ],
          [
            5.92093,
            45.46072
          ],
          [
            5.92116,
            45.4608
          ],
          [
            5.92127,
            45.46077
          ],
          [
            5.92259,
            45.46104
          ],
          [
            5.92272,
            45.46121
          ],
          [
            5.92291,
            45.46124
          ],
          [
            5.92308,
            45.46114
          ],
          [
            5.92331,
            45.46115
          ],
          [
            5.92354,
            45.46108
          ],
          [
            5.9233,
            45.46068
          ],
          [
            5.92342,
            45.4604
          ],
          [
            5.92337,
            45.46018
          ],
          [
            5.9236,
            45.45993
          ],
          [
            5.92355,
            45.45984
          ],
          [
            5.92365,
            45.45969
          ],
          [
            5.92362,
            45.45949
          ],
          [
            5.92374,
            45.45926
          ],
          [
            5.92383,
            45.4592
          ],
          [
            5.9238,
            45.45904
          ],
          [
            5.92391,
            45.45903
          ],
          [
            5.92394,
            45.45896
          ],
          [
            5.92406,
            45.459
          ],
          [
            5.92425,
            45.4592
          ],
          [
            5.92424,
            45.45949
          ],
          [
            5.92443,
            45.45979
          ],
          [
            5.92427,
            45.46
          ],
          [
            5.92415,
            45.46006
          ],
          [
            5.92427,
            45.46012
          ],
          [
            5.92453,
            45.46006
          ],
          [
            5.92436,
            45.46036
          ],
          [
            5.92437,
            45.46077
          ],
          [
            5.92456,
            45.46116
          ]
        ]
      }
    },
    {
      "type": "Feature",
      "properties": {
        "mountain_slug": "mont-granier",
        "name": "Le sommet du Mont Granier",
        "length_km": 2.73,
        "elevation_gain_m": 359,
        "source": "© OpenStreetMap contributors"
      },
      "geometry": {
        "type": "LineString",
        "coordinates": [
          [
            5.92331,
            45.44235
          ],
          [
            5.92358,
            45.44243
          ],
          [
            5.9242,
            45.44272
          ],
          [
            5.92459,
            45.44304
          ],
          [
            5.92597,
            45.44371
          ],
          [
            5.92726,
            45.44461
          ],
          [
            5.92768,
            45.44483
          ],
          [
            5.92837,
            45.44599
          ],
          [
            5.92866,
            45.44673
          ],
          [
            5.92885,
            45.44699
          ],
          [
            5.93033,
            45.44804
          ],
          [
            5.93018,
            45.44804
          ],
          [
            5.9306,
            45.44834
          ],
          [
            5.9305,
            45.44837
          ],
          [
            5.93029,
            45.44826
          ],
          [
            5.93018,
            45.44827
          ],
          [
            5.93046,
            45.44852
          ],
          [
            5.93095,
            45.44879
          ],
          [
            5.93139,
            45.44892
          ],
          [
            5.93149,
            45.44902
          ],
          [
            5.93191,
            45.44921
          ],
          [
            5.9322,
            45.44943
          ],
          [
            5.93221,
            45.44947
          ],
          [
            5.93208,
            45.44953
          ],
          [
            5.93246,
            45.44965
          ],
          [
            5.93254,
            45.44982
          ],
          [
            5.93228,
            45.44976
          ],
          [
            5.93222,
            45.4498
          ],
          [
            5.93228,
            45.44985
          ],
          [
            5.93221,
            45.44987
          ],
          [
            5.93196,
            45.4498
          ],
          [
            5.93203,
            45.44985
          ],
          [
            5.932,
            45.44994
          ],
          [
            5.93208,
            45.45003
          ],
          [
            5.93183,
            45.44988
          ],
          [
            5.93167,
            45.44986
          ],
          [
            5.93141,
            45.44975
          ],
          [
            5.93098,
            45.44926
          ],
          [
            5.93086,
            45.44935
          ],
          [
            5.93083,
            45.44946
          ],
          [
            5.93072,
            45.44941
          ],
          [
            5.93058,
            45.44955
          ],
          [
            5.93005,
            45.44936
          ],
          [
            5.93001,
            45.4494
          ],
          [
            5.92987,
            45.4493
          ],
          [
            5.92979,
            45.44936
          ],
          [
            5.92975,
            45.44928
          ],
          [
            5.92965,
            45.44956
          ],
          [
            5.92965,
            45.44983
          ],
          [
            5.92969,
            45.45022
          ],
          [
            5.92978,
            45.45027
          ],
          [
            5.92981,
            45.45048
          ],
          [
            5.9297,
            45.4509
          ],
          [
            5.92896,
            45.45137
          ],
          [
            5.92879,
            45.4516
          ],
          [
            5.92863,
            45.45163
          ],
          [
            5.92837,
            45.45184
          ],
          [
            5.92794,
            45.45181
          ],
          [
            5.92768,
            45.45175
          ],
          [
            5.92751,
            45.45167
          ],
          [
            5.92699,
            45.45166
          ],
          [
            5.92678,
            45.45151
          ],
          [
            5.92673,
            45.45158
          ],
          [
            5.92663,
            45.45157
          ],
          [
            5.92639,
            45.45143
          ],
          [
            5.92588,
            45.4516
          ],
          [
            5.92552,
            45.45158
          ],
          [
            5.92474,
            45.45171
          ],
          [
            5.9244,
            45.45193
          ],
          [
            5.92367,
            45.45301
          ],
          [
            5.92364,
            45.4532
          ],
          [
            5.92373,
            45.45392
          ],
          [
            5.92365,
            45.45407
          ],
          [
            5.9231,
            45.45459
          ],
          [
            5.92312,
            45.45473
          ],
          [
            5.92306,
            45.45482
          ]
        ]
      }
    },
    {
      "type": "Feature",
      "properties": {
        "mountain_slug": "mont-granier",
        "name": "Sentier de la Balme à Collomb",
        "length_km": 1.03,
        "elevation_gain_m": 202,
        "source": "© OpenStreetMap contributors"
      },
      "geometry": {
        "type": "LineString",
        "coordinates": [
          [
            5.91774,
            45.44973
          ],
          [
            5.91787,
            45.44961
          ],
          [
            5.91796,
            45.44964
          ],
          [
            5.91795,
            45.44974
          ],
          [
            5.91772,
            45.44982
          ],
          [
            5.91763,
            45.44995
          ],
          [
            5.91781,
            45.45013
          ],
          [
            5.91807,
            45.45022
          ],
          [
            5.91828,
            45.45049
          ],
          [
            5.91838,
            45.45087
          ],
          [
            5.91874,
            45.45128
          ],
          [
            5.91874,
            45.4514
          ],
          [
            5.9189,
            45.45139
          ],
          [
            5.91897,
            45.45144
          ],
          [
            5.91921,
            45.45136
          ],
          [
            5.91927,
            45.4514
          ],
          [
            5.91935,
            45.45137
          ],
          [
            5.91937,
            45.45142
          ],
          [
            5.91944,
            45.45136
          ],
          [
            5.91949,
            45.45139
          ],
          [
            5.91947,
            45.45136
          ],
          [
            5.91961,
            45.45137
          ],
          [
            5.91954,
            45.4513
          ],
          [
            5.9196,
            45.45132
          ],
          [
            5.91965,
            45.45115
          ],
          [
            5.91983,
            45.45123
          ],
          [
            5.91978,
            45.45119
          ],
          [
            5.91986,
            45.4512
          ],
          [
            5.91981,
            45.45114
          ],
          [
            5.9199,
            45.45114
          ],
          [
            5.91986,
            45.45106
          ],
          [
            5.92019,
            45.45114
          ],
          [
            5.92046,
            45.45139
          ],
          [
            5.92051,
            45.45151
          ],
          [
            5.9206,
            45.45147
          ],
          [
            5.92068,
            45.4516
          ],
          [
            5.92073,
            45.45158
          ],
          [
            5.92068,
            45.45175
          ],
          [
            5.92047,
            45.45201
          ],
          [
            5.92091,
            45.45221
          ],
          [
            5.92135,
            45.45231
          ],
          [
            5.92148,
            45.45241
          ],
          [
            5.92169,
            45.45272
          ],
          [
            5.92172,
            45.45287
          ],
          [
            5.92186,
            45.45298
          ],
          [
            5.92221,
            45.45342
          ],
          [
            5.92228,
            45.45359
          ],
          [
            5.92228,
            45.45382
          ],
          [
            5.92251,
            45.45404
          ],
          [
            5.92241,
            45.45418
          ],
          [
            5.92242,
            45.45425
          ],
          [
            5.92261,
            45.4544
          ],
          [
            5.92262,
            45.45456
          ],
          [
            5.92256,
            45.4546
          ],
          [
            5.9226,
            45.4547
          ],
          [
            5.92295,
            45.45474
          ],
          [
            5.92306,
            45.45482
          ]
        ]
      }
    },
    {
      "type": "Feature",
      "properties": {
        "mountain_slug": "mont-granier",
        "name": "Chemin de Tencovaz",
        "length_km": 0.74,
        "elevation_gain_m": 50,
        "source": "© OpenStreetMap contributors"
      },
      "geometry": {
        "type": "LineString",
        "coordinates": [
          [
            5.90965,
            45.46885
          ],
          [
            5.91016,
            45.4693
          ],
          [
            5.91022,
            45.46946
          ],
          [
            5.91055,
            45.46988
          ],
          [
            5.91152,
            45.47057
          ],
          [
            5.91182,
            45.47082
          ],
          [
            5.91193,
            45.47102
          ],
          [
            5.91226,
            45.47117
          ],
          [
            5.91312,
            45.47176
          ],
          [
            5.91363,
            45.47202
          ],
          [
            5.91431,
            45.47254
          ],
          [
            5.91443,
            45.47274
          ],
          [
            5.91534,
            45.47311
          ],
          [
            5.91616,
            45.47353
          ]
        ]
      }
    },
    {
      "type": "Feature",
      "properties": {
        "mountain_slug": "mont-granier",
        "name": "Chemin de la Tête de l’Abi",
        "length_km": 0.67,
        "elevation_gain_m": 71,
        "source": "© OpenStreetMap contributors"
      },
      "geometry": {
        "type": "LineString",
        "coordinates": [
          [
            5.90453,
            45.46463
          ],
          [
            5.90446,
            45.46488
          ],
          [
            5.90453,
            45.465
          ],
          [
            5.90442,
            45.46511
          ],
          [
            5.90437,
            45.46537
          ],
          [
            5.90448,
            45.46561
          ],
          [
            5.90494,
            45.466
          ],
          [
            5.90522,
            45.46638
          ],
          [
            5.90601,
            45.46678
          ],
          [
            5.90813,
            45.46759
          ],
          [
            5.90834,
            45.46775
          ],
          [
            5.90877,
            45.46829
          ],
          [
            5.90957,
            45.46869
          ],
          [
            5.90965,
            45.46885
          ]
        ]
      }
    }
  ]
}
