{
  "type": "FeatureCollection",
  "attribution": "© OpenStreetMap contributors",
  "license": "ODbL-1.0",
  "source": "https://www.openstreetmap.org/copyright",
  "features": [
    {
      "type": "Feature",
      "properties": {
        "mountain_slug": "beinn-luibhean",
        "name": "Old Military Road",
        "length_km": 0.76,
        "elevation_gain_m": 59,
        "source": "© OpenStreetMap contributors"
      },
      "geometry": {
        "type": "LineString",
        "coordinates": [
          [
            -4.85119,
            56.24516
          ],
          [
            -4.84983,
            56.24391
          ],
          [
            -4.8488,
            56.24261
          ],
          [
            -4.84857,
            56.24226
          ],
          [
            -4.84868,
            56.24201
          ],
          [
            -4.84855,
            56.24148
          ],
          [
            -4.84879,
            56.24103
          ],
          [
            -4.84955,
            56.24038
          ],
          [
            -4.85012,
            56.23966
          ],
          [
            -4.85042,
            56.23948
          ],
          [
            -4.85113,
            56.23924
          ]
        ]
      }
    }
  ]
}
