{
  "type": "FeatureCollection",
  "attribution": "© OpenStreetMap contributors",
  "license": "ODbL-1.0",
  "source": "https://www.openstreetmap.org/copyright",
  "features": [
    {
      "type": "Feature",
      "properties": {
        "mountain_slug": "monte-toc",
        "name": "Sentiero della forcella di Val Mesaz",
        "length_km": 4.81,
        "elevation_gain_m": 833,
        "source": "© OpenStreetMap contributors"
      },
      "geometry": {
        "type": "LineString",
        "coordinates": [
          [
            12.36102,
            46.24507
          ],
          [
            12.36097,
            46.24486
          ],
          [
            12.36086,
            46.24479
          ],
          [
            12.36018,
            46.24463
          ],
          [
            12.35968,
            46.24441
          ],
          [
            12.35953,
            46.24397
          ],
          [
            12.35923,
            46.24375
          ],
          [
            12.35854,
            46.2437
          ],
          [
            12.35821,
            46.24362
          ],
          [
            12.35809,
            46.24364
          ],
          [
            12.35804,
            46.24372
          ],
          [
            12.35716,
            46.24363
          ],
          [
            12.35647,
            46.24368
          ],
          [
            12.35625,
            46.24375
          ],
          [
            12.35617,
            46.24364
          ],
          [
            12.35527,
            46.24364
          ],
          [
            12.35345,
            46.24343
          ],
          [
            12.35342,
            46.24349
          ],
          [
            12.35308,
            46.24348
          ],
          [
            12.35317,
            46.2437
          ],
          [
            12.35296,
            46.24367
          ],
          [
            12.35281,
            46.24358
          ],
          [
            12.35269,
            46.24357
          ],
          [
            12.35263,
            46.24357
          ],
          [
            12.35275,
            46.24374
          ],
          [
            12.35226,
            46.24383
          ],
          [
            12.35198,
            46.24372
          ],
          [
            12.35189,
            46.24378
          ],
          [
            12.35177,
            46.24378
          ],
          [
            12.35175,
            46.24383
          ],
          [
            12.35167,
            46.24374
          ],
          [
            12.35143,
            46.24373
          ],
          [
            12.35134,
            46.24368
          ],
          [
            12.35157,
            46.24343
          ],
          [
            12.35144,
            46.24332
          ],
          [
            12.35112,
            46.24322
          ],
          [
            12.35112,
            46.24318
          ],
          [
            12.35096,
            46.24316
          ],
          [
            12.35067,
            46.24332
          ],
          [
            12.35029,
            46.24334
          ],
          [
            12.3502,
            46.24332
          ],
          [
            12.35018,
            46.24326
          ],
          [
            12.34983,
            46.24305
          ],
          [
            12.34967,
            46.243
          ],
          [
            12.34953,
            46.24281
          ],
          [
            12.34932,
            46.24281
          ],
          [
            12.34923,
            46.24272
          ],
          [
            12.34926,
            46.24261
          ],
          [
            12.349,
            46.24244
          ],
          [
            12.34891,
            46.24222
          ],
          [
            12.34894,
            46.2421
          ],
          [
            12.34901,
            46.24213
          ],
          [
            12.34914,
            46.24209
          ],
          [
            12.34918,
            46.24213
          ],
          [
            12.34948,
            46.24214
          ],
          [
            12.34966,
            46.24192
          ],
          [
            12.35012,
            46.24174
          ],
          [
            12.34989,
            46.24171
          ],
          [
            12.34987,
            46.24164
          ],
          [
            12.34957,
            46.24146
          ],
          [
            12.34939,
            46.24143
          ],
          [
            12.34939,
            46.2414
          ],
          [
            12.34901,
            46.24126
          ],
          [
            12.34913,
            46.24122
          ],
          [
            12.34918,
            46.24105
          ],
          [
            12.34939,
            46.24095
          ],
          [
            12.34928,
            46.24088
          ],
          [
            12.34933,
            46.24076
          ],
          [
            12.34917,
            46.24066
          ],
          [
            12.34895,
            46.24061
          ],
          [
            12.3484,
            46.24068
          ],
          [
            12.34825,
            46.24062
          ],
          [
            12.34812,
            46.24064
          ],
          [
            12.34788,
            46.24076
          ],
          [
            12.34768,
            46.24077
          ],
          [
            12.3475,
            46.24025
          ],
          [
            12.34763,
            46.24006
          ],
          [
            12.3476,
            46.23998
          ],
          [
            12.34748,
            46.24003
          ],
          [
            12.34746,
            46.23998
          ],
          [
            12.34736,
            46.24002
          ],
          [
            12.34732,
            46.23996
          ],
          [
            12.34715,
            46.24
          ],
          [
            12.34717,
            46.23987
          ],
          [
            12.34703,
            46.23992
          ],
          [
            12.34708,
            46.23968
          ],
          [
            12.34705,
            46.23961
          ],
          [
            12.34692,
            46.23959
          ],
          [
            12.34688,
            46.23917
          ],
          [
            12.3468,
            46.23908
          ],
          [
            12.34689,
            46.23885
          ],
          [
            12.3469,
            46.23872
          ],
          [
            12.34684,
            46.23871
          ],
          [
            12.34694,
            46.23865
          ],
          [
            12.34702,
            46.2384
          ],
          [
            12.34715,
            46.23832
          ],
          [
            12.34717,
            46.23821
          ],
          [
            12.34745,
            46.23808
          ],
          [
            12.34735,
            46.23779
          ],
          [
            12.34744,
            46.23778
          ],
          [
            12.34785,
            46.23743
          ],
          [
            12.34814,
            46.23738
          ],
          [
            12.34828,
            46.23726
          ],
          [
            12.34832,
            46.23712
          ],
          [
            12.3487,
            46.23705
          ],
          [
            12.34885,
            46.2367
          ],
          [
            12.34899,
            46.23662
          ],
          [
            12.34895,
            46.23643
          ],
          [
            12.34924,
            46.23619
          ],
          [
            12.34959,
            46.2361
          ],
          [
            12.35005,
            46.23581
          ],
          [
            12.35033,
            46.23536
          ],
          [
            12.35064,
            46.23528
          ],
          [
            12.3509,
            46.2353
          ],
          [
            12.35112,
            46.2354
          ],
          [
            12.35118,
            46.23555
          ],
          [
            12.35177,
            46.23575
          ],
          [
            12.35215,
            46.23572
          ],
          [
            12.35244,
            46.23554
          ],
          [
            12.35281,
            46.23516
          ],
          [
            12.35291,
            46.23512
          ],
          [
            12.35305,
            46.23496
          ],
          [
            12.35307,
            46.23484
          ],
          [
            12.35341,
            46.23472
          ],
          [
            12.35362,
            46.23445
          ],
          [
            12.35378,
            46.23447
          ],
          [
            12.35389,
            46.23437
          ],
          [
            12.35417,
            46.23431
          ],
          [
            12.35428,
            46.23436
          ],
          [
            12.35447,
            46.23434
          ],
          [
            12.35483,
            46.23418
          ],
          [
            12.35503,
            46.23417
          ],
          [
            12.35516,
            46.23425
          ],
          [
            12.35522,
            46.2342
          ],
          [
            12.35535,
            46.23424
          ],
          [
            12.35556,
            46.23419
          ],
          [
            12.35598,
            46.23407
          ],
          [
            12.35646,
            46.23375
          ],
          [
            12.35677,
            46.23369
          ],
          [
            12.357,
            46.23371
          ],
          [
            12.357,
            46.23366
          ],
          [
            12.35728,
            46.23347
          ],
          [
            12.35781,
            46.23341
          ],
          [
            12.35789,
            46.23336
          ],
          [
            12.35801,
            46.23339
          ],
          [
            12.35792,
            46.23315
          ],
          [
            12.35804,
            46.23312
          ],
          [
            12.35796,
            46.23303
          ],
          [
            12.35802,
            46.23272
          ],
          [
            12.35797,
            46.23258
          ],
          [
            12.35812,
            46.23224
          ],
          [
            12.35812,
            46.23213
          ],
          [
            12.35783,
            46.23196
          ],
          [
            12.35783,
            46.2319
          ],
          [
            12.35759,
            46.2317
          ],
          [
            12.35761,
            46.23152
          ],
          [
            12.35781,
            46.23141
          ],
          [
            12.35788,
            46.23143
          ],
          [
            12.3579,
            46.23126
          ],
          [
            12.35837,
            46.23127
          ],
          [
            12.35882,
            46.23103
          ],
          [
            12.35899,
            46.23084
          ],
          [
            12.35904,
            46.23057
          ],
          [
            12.3586,
            46.23007
          ],
          [
            12.35847,
            46.23
          ],
          [
            12.35828,
            46.22967
          ],
          [
            12.35824,
            46.22931
          ],
          [
            12.3583,
            46.22909
          ],
          [
            12.35838,
            46.229
          ],
          [
            12.35845,
            46.22905
          ],
          [
            12.35886,
            46.22885
          ],
          [
            12.35898,
            46.22872
          ],
          [
            12.359,
            46.22843
          ],
          [
            12.35909,
            46.22846
          ],
          [
            12.35937,
            46.22809
          ],
          [
            12.35971,
            46.22789
          ],
          [
            12.3599,
            46.22769
          ],
          [
            12.36027,
            46.22769
          ],
          [
            12.36105,
            46.22749
          ],
          [
            12.36125,
            46.22748
          ],
          [
            12.36158,
            46.22753
          ],
          [
            12.36178,
            46.22782
          ],
          [
            12.36211,
            46.22783
          ],
          [
            12.36245,
            46.22779
          ],
          [
            12.36308,
            46.22791
          ],
          [
            12.3637,
            46.22795
          ],
          [
            12.36398,
            46.22809
          ],
          [
            12.36407,
            46.22821
          ],
          [
            12.36461,
            46.22832
          ],
          [
            12.36495,
            46.22833
          ],
          [
            12.36515,
            46.22837
          ],
          [
            12.36554,
            46.22832
          ],
          [
            12.3657,
            46.22812
          ],
          [
            12.36584,
            46.22807
          ],
          [
            12.36643,
            46.2279
          ],
          [
            12.36657,
            46.22794
          ],
          [
            12.3667,
            46.22788
          ]
        ]
      }
    }
  ]
}
