{"type": "FeatureCollection", "attribution": "© OpenStreetMap contributors (ODbL 1.0), via Overture Maps Foundation release 2026-09-23.0", "license": "ODbL-1.0", "source": "https://overturemaps-us-west-2.s3.amazonaws.com/release/2026-09-23.0/theme=transportation/type=segment/", "features": [
{"type":"Feature","properties":{"mountain_slug":"mount-kailash","trail":"Mount Kailash Kora","seq":0,"start_mile":0.0,"end_mile":0.1},"geometry":{"type":"LineString","coordinates":[[81.282751,30.9784],[81.28258,30.978713],[81.281396,30.979142]]}},
{"type":"Feature","properties":{"mountain_slug":"mount-kailash","trail":"Mount Kailash Kora","seq":1,"start_mile":0.1,"end_mile":0.2},"geometry":{"type":"LineString","coordinates":[[81.281396,30.979142],[81.279842,30.979704]]}},
{"type":"Feature","properties":{"mountain_slug":"mount-kailash","trail":"Mount Kailash Kora","seq":2,"start_mile":0.2,"end_mile":0.3},"geometry":{"type":"LineString","coordinates":[[81.279842,30.979704],[81.278289,30.980266]]}},
{"type":"Feature","properties":{"mountain_slug":"mount-kailash","trail":"Mount Kailash Kora","seq":3,"start_mile":0.3,"end_mile":0.4},"geometry":{"type":"LineString","coordinates":[[81.278289,30.980266],[81.278263,30.980276],[81.276676,30.980687]]}},
{"type":"Feature","properties":{"mountain_slug":"mount-kailash","trail":"Mount Kailash Kora","seq":4,"start_mile":0.4,"end_mile":0.5},"geometry":{"type":"LineString","coordinates":[[81.276676,30.980687],[81.276266,30.980793],[81.275341,30.981398],[81.275256,30.981437]]}},
{"type":"Feature","properties":{"mountain_slug":"mount-kailash","trail":"Mount Kailash Kora","seq":5,"start_mile":0.5,"end_mile":0.6},"geometry":{"type":"LineString","coordinates":[[81.275256,30.981437],[81.273772,30.982126]]}},
{"type":"Feature","properties":{"mountain_slug":"mount-kailash","trail":"Mount Kailash Kora","seq":6,"start_mile":0.6,"end_mile":0.7},"geometry":{"type":"LineString","coordinates":[[81.273772,30.982126],[81.273671,30.982173],[81.27258,30.983146]]}},
{"type":"Feature","properties":{"mountain_slug":"mount-kailash","trail":"Mount Kailash Kora","seq":7,"start_mile":0.7,"end_mile":0.8},"geometry":{"type":"LineString","coordinates":[[81.27258,30.983146],[81.27158,30.984038],[81.27139,30.984173]]}},
{"type":"Feature","properties":{"mountain_slug":"mount-kailash","trail":"Mount Kailash Kora","seq":8,"start_mile":0.8,"end_mile":0.9},"geometry":{"type":"LineString","coordinates":[[81.27139,30.984173],[81.270089,30.985096]]}},
{"type":"Feature","properties":{"mountain_slug":"mount-kailash","trail":"Mount Kailash Kora","seq":9,"start_mile":0.9,"end_mile":1.0},"geometry":{"type":"LineString","coordinates":[[81.270089,30.985096],[81.268788,30.98602]]}},
{"type":"Feature","properties":{"mountain_slug":"mount-kailash","trail":"Mount Kailash Kora","seq":10,"start_mile":1.0,"end_mile":1.1},"geometry":{"type":"LineString","coordinates":[[81.268788,30.98602],[81.268137,30.986482],[81.267423,30.986867]]}},
{"type":"Feature","properties":{"mountain_slug":"mount-kailash","trail":"Mount Kailash Kora","seq":11,"start_mile":1.1,"end_mile":1.2},"geometry":{"type":"LineString","coordinates":[[81.267423,30.986867],[81.265994,30.987637]]}},
{"type":"Feature","properties":{"mountain_slug":"mount-kailash","trail":"Mount Kailash Kora","seq":12,"start_mile":1.2,"end_mile":1.3},"geometry":{"type":"LineString","coordinates":[[81.265994,30.987637],[81.265616,30.987841],[81.264651,30.988511]]}},
{"type":"Feature","properties":{"mountain_slug":"mount-kailash","trail":"Mount Kailash Kora","seq":13,"start_mile":1.3,"end_mile":1.4},"geometry":{"type":"LineString","coordinates":[[81.264651,30.988511],[81.263339,30.989422]]}},
{"type":"Feature","properties":{"mountain_slug":"mount-kailash","trail":"Mount Kailash Kora","seq":14,"start_mile":1.4,"end_mile":1.5},"geometry":{"type":"LineString","coordinates":[[81.263339,30.989422],[81.262026,30.990333]]}},
{"type":"Feature","properties":{"mountain_slug":"mount-kailash","trail":"Mount Kailash Kora","seq":15,"start_mile":1.5,"end_mile":1.6},"geometry":{"type":"LineString","coordinates":[[81.262026,30.990333],[81.261832,30.990468],[81.261065,30.991514]]}},
{"type":"Feature","properties":{"mountain_slug":"mount-kailash","trail":"Mount Kailash Kora","seq":16,"start_mile":1.6,"end_mile":1.7},"geometry":{"type":"LineString","coordinates":[[81.261065,30.991514],[81.260165,30.992742]]}},
{"type":"Feature","properties":{"mountain_slug":"mount-kailash","trail":"Mount Kailash Kora","seq":17,"start_mile":1.7,"end_mile":1.8},"geometry":{"type":"LineString","coordinates":[[81.260165,30.992742],[81.259795,30.993247],[81.259081,30.993811],[81.259058,30.993805]]}},
{"type":"Feature","properties":{"mountain_slug":"mount-kailash","trail":"Mount Kailash Kora","seq":18,"start_mile":1.8,"end_mile":1.9},"geometry":{"type":"LineString","coordinates":[[81.259058,30.993805],[81.258362,30.993645],[81.258238,30.99447]]}},
{"type":"Feature","properties":{"mountain_slug":"mount-kailash","trail":"Mount Kailash Kora","seq":19,"start_mile":1.9,"end_mile":2.0},"geometry":{"type":"LineString","coordinates":[[81.258238,30.99447],[81.25802,30.99591]]}},
{"type":"Feature","properties":{"mountain_slug":"mount-kailash","trail":"Mount Kailash Kora","seq":20,"start_mile":2.0,"end_mile":2.1},"geometry":{"type":"LineString","coordinates":[[81.25802,30.99591],[81.258009,30.995988],[81.257592,30.997314]]}},
{"type":"Feature","properties":{"mountain_slug":"mount-kailash","trail":"Mount Kailash Kora","seq":21,"start_mile":2.1,"end_mile":2.2},"geometry":{"type":"LineString","coordinates":[[81.257592,30.997314],[81.257582,30.997348],[81.25743,30.998529],[81.257452,30.998756]]}},
{"type":"Feature","properties":{"mountain_slug":"mount-kailash","trail":"Mount Kailash Kora","seq":22,"start_mile":2.2,"end_mile":2.3},"geometry":{"type":"LineString","coordinates":[[81.257452,30.998756],[81.257592,31.000204]]}},
{"type":"Feature","properties":{"mountain_slug":"mount-kailash","trail":"Mount Kailash Kora","seq":23,"start_mile":2.3,"end_mile":2.4},"geometry":{"type":"LineString","coordinates":[[81.257592,31.000204],[81.257697,31.001289],[81.257818,31.001637]]}},
{"type":"Feature","properties":{"mountain_slug":"mount-kailash","trail":"Mount Kailash Kora","seq":24,"start_mile":2.4,"end_mile":2.5},"geometry":{"type":"LineString","coordinates":[[81.257818,31.001637],[81.258185,31.002689],[81.25818,31.003042]]}},
{"type":"Feature","properties":{"mountain_slug":"mount-kailash","trail":"Mount Kailash Kora","seq":25,"start_mile":2.5,"end_mile":2.6},"geometry":{"type":"LineString","coordinates":[[81.25818,31.003042],[81.258176,31.003374],[81.258388,31.004412],[81.258394,31.004478]]}},
{"type":"Feature","properties":{"mountain_slug":"mount-kailash","trail":"Mount Kailash Kora","seq":26,"start_mile":2.6,"end_mile":2.7},"geometry":{"type":"LineString","coordinates":[[81.258394,31.004478],[81.25852,31.005926]]}},
{"type":"Feature","properties":{"mountain_slug":"mount-kailash","trail":"Mount Kailash Kora","seq":27,"start_mile":2.7,"end_mile":2.8},"geometry":{"type":"LineString","coordinates":[[81.25852,31.005926],[81.258645,31.007374]]}},
{"type":"Feature","properties":{"mountain_slug":"mount-kailash","trail":"Mount Kailash Kora","seq":28,"start_mile":2.8,"end_mile":2.9},"geometry":{"type":"LineString","coordinates":[[81.258645,31.007374],[81.258743,31.008497],[81.258789,31.008821]]}},
{"type":"Feature","properties":{"mountain_slug":"mount-kailash","trail":"Mount Kailash Kora","seq":29,"start_mile":2.9,"end_mile":3.0},"geometry":{"type":"LineString","coordinates":[[81.258789,31.008821],[81.258993,31.010262]]}},
{"type":"Feature","properties":{"mountain_slug":"mount-kailash","trail":"Mount Kailash Kora","seq":30,"start_mile":3.0,"end_mile":3.1},"geometry":{"type":"LineString","coordinates":[[81.258993,31.010262],[81.259198,31.011704]]}},
{"type":"Feature","properties":{"mountain_slug":"mount-kailash","trail":"Mount Kailash Kora","seq":31,"start_mile":3.1,"end_mile":3.2},"geometry":{"type":"LineString","coordinates":[[81.259198,31.011704],[81.259297,31.012406],[81.259499,31.012412],[81.259432,31.01298]]}},
{"type":"Feature","properties":{"mountain_slug":"mount-kailash","trail":"Mount Kailash Kora","seq":32,"start_mile":3.2,"end_mile":3.3},"geometry":{"type":"LineString","coordinates":[[81.259432,31.01298],[81.259263,31.014425]]}},
{"type":"Feature","properties":{"mountain_slug":"mount-kailash","trail":"Mount Kailash Kora","seq":33,"start_mile":3.3,"end_mile":3.4},"geometry":{"type":"LineString","coordinates":[[81.259263,31.014425],[81.259151,31.015378],[81.259407,31.01582]]}},
{"type":"Feature","properties":{"mountain_slug":"mount-kailash","trail":"Mount Kailash Kora","seq":34,"start_mile":3.4,"end_mile":3.5},"geometry":{"type":"LineString","coordinates":[[81.259407,31.01582],[81.260158,31.017121]]}},
{"type":"Feature","properties":{"mountain_slug":"mount-kailash","trail":"Mount Kailash Kora","seq":35,"start_mile":3.5,"end_mile":3.6},"geometry":{"type":"LineString","coordinates":[[81.260158,31.017121],[81.260596,31.017879],[81.26097,31.018358],[81.260976,31.018385]]}},
{"type":"Feature","properties":{"mountain_slug":"mount-kailash","trail":"Mount Kailash Kora","seq":36,"start_mile":3.6,"end_mile":3.7},"geometry":{"type":"LineString","coordinates":[[81.260976,31.018385],[81.261061,31.018728],[81.261662,31.0197]]}},
{"type":"Feature","properties":{"mountain_slug":"mount-kailash","trail":"Mount Kailash Kora","seq":37,"start_mile":3.7,"end_mile":3.8},"geometry":{"type":"LineString","coordinates":[[81.261662,31.0197],[81.261702,31.019764],[81.261857,31.020711],[81.262044,31.021103]]}},
{"type":"Feature","properties":{"mountain_slug":"mount-kailash","trail":"Mount Kailash Kora","seq":38,"start_mile":3.8,"end_mile":3.9},"geometry":{"type":"LineString","coordinates":[[81.262044,31.021103],[81.262162,31.021352],[81.263066,31.022243]]}},
{"type":"Feature","properties":{"mountain_slug":"mount-kailash","trail":"Mount Kailash Kora","seq":39,"start_mile":3.9,"end_mile":4.0},"geometry":{"type":"LineString","coordinates":[[81.263066,31.022243],[81.263762,31.022928],[81.26407,31.023401]]}},
{"type":"Feature","properties":{"mountain_slug":"mount-kailash","trail":"Mount Kailash Kora","seq":40,"start_mile":4.0,"end_mile":4.1},"geometry":{"type":"LineString","coordinates":[[81.26407,31.023401],[81.264296,31.023748],[81.264777,31.024309],[81.264953,31.024632]]}},
{"type":"Feature","properties":{"mountain_slug":"mount-kailash","trail":"Mount Kailash Kora","seq":41,"start_mile":4.1,"end_mile":4.2},"geometry":{"type":"LineString","coordinates":[[81.264953,31.024632],[81.265593,31.025808],[81.265718,31.025917]]}},
{"type":"Feature","properties":{"mountain_slug":"mount-kailash","trail":"Mount Kailash Kora","seq":42,"start_mile":4.2,"end_mile":4.3},"geometry":{"type":"LineString","coordinates":[[81.265718,31.025917],[81.266904,31.026949]]}},
{"type":"Feature","properties":{"mountain_slug":"mount-kailash","trail":"Mount Kailash Kora","seq":43,"start_mile":4.3,"end_mile":4.4},"geometry":{"type":"LineString","coordinates":[[81.266904,31.026949],[81.267546,31.027507],[81.267632,31.027797],[81.26793,31.02806]]}},
{"type":"Feature","properties":{"mountain_slug":"mount-kailash","trail":"Mount Kailash Kora","seq":44,"start_mile":4.4,"end_mile":4.5},"geometry":{"type":"LineString","coordinates":[[81.26793,31.02806],[81.268198,31.028297],[81.268787,31.029297]]}},
{"type":"Feature","properties":{"mountain_slug":"mount-kailash","trail":"Mount Kailash Kora","seq":45,"start_mile":4.5,"end_mile":4.6},"geometry":{"type":"LineString","coordinates":[[81.268787,31.029297],[81.269411,31.030354],[81.269613,31.030556]]}},
{"type":"Feature","properties":{"mountain_slug":"mount-kailash","trail":"Mount Kailash Kora","seq":46,"start_mile":4.6,"end_mile":4.7},"geometry":{"type":"LineString","coordinates":[[81.269613,31.030556],[81.270714,31.031656]]}},
{"type":"Feature","properties":{"mountain_slug":"mount-kailash","trail":"Mount Kailash Kora","seq":47,"start_mile":4.7,"end_mile":4.8},"geometry":{"type":"LineString","coordinates":[[81.270714,31.031656],[81.270758,31.0317],[81.271893,31.032694]]}},
{"type":"Feature","properties":{"mountain_slug":"mount-kailash","trail":"Mount Kailash Kora","seq":48,"start_mile":4.8,"end_mile":4.9},"geometry":{"type":"LineString","coordinates":[[81.271893,31.032694],[81.271956,31.032749],[81.272475,31.033326],[81.272898,31.033858]]}},
{"type":"Feature","properties":{"mountain_slug":"mount-kailash","trail":"Mount Kailash Kora","seq":49,"start_mile":4.9,"end_mile":5.0},"geometry":{"type":"LineString","coordinates":[[81.272898,31.033858],[81.273039,31.034034],[81.273709,31.035129]]}},
{"type":"Feature","properties":{"mountain_slug":"mount-kailash","trail":"Mount Kailash Kora","seq":50,"start_mile":5.0,"end_mile":5.1},"geometry":{"type":"LineString","coordinates":[[81.273709,31.035129],[81.273749,31.035194],[81.274318,31.036483]]}},
{"type":"Feature","properties":{"mountain_slug":"mount-kailash","trail":"Mount Kailash Kora","seq":51,"start_mile":5.1,"end_mile":5.2},"geometry":{"type":"LineString","coordinates":[[81.274318,31.036483],[81.274918,31.03784]]}},
{"type":"Feature","properties":{"mountain_slug":"mount-kailash","trail":"Mount Kailash Kora","seq":52,"start_mile":5.2,"end_mile":5.3},"geometry":{"type":"LineString","coordinates":[[81.274918,31.03784],[81.275073,31.038191],[81.275414,31.039227]]}},
{"type":"Feature","properties":{"mountain_slug":"mount-kailash","trail":"Mount Kailash Kora","seq":53,"start_mile":5.3,"end_mile":5.4},"geometry":{"type":"LineString","coordinates":[[81.275414,31.039227],[81.275724,31.040166],[81.275927,31.040447],[81.276065,31.04053]]}},
{"type":"Feature","properties":{"mountain_slug":"mount-kailash","trail":"Mount Kailash Kora","seq":54,"start_mile":5.4,"end_mile":5.5},"geometry":{"type":"LineString","coordinates":[[81.276065,31.04053],[81.276366,31.04071],[81.276553,31.041279],[81.276811,31.041777]]}},
{"type":"Feature","properties":{"mountain_slug":"mount-kailash","trail":"Mount Kailash Kora","seq":55,"start_mile":5.5,"end_mile":5.6},"geometry":{"type":"LineString","coordinates":[[81.276811,31.041777],[81.276881,31.041911],[81.276898,31.042561],[81.277069,31.043199]]}},
{"type":"Feature","properties":{"mountain_slug":"mount-kailash","trail":"Mount Kailash Kora","seq":56,"start_mile":5.6,"end_mile":5.7},"geometry":{"type":"LineString","coordinates":[[81.277069,31.043199],[81.277116,31.043374],[81.27711,31.044289],[81.277234,31.044534],[81.277232,31.044624]]}},
{"type":"Feature","properties":{"mountain_slug":"mount-kailash","trail":"Mount Kailash Kora","seq":57,"start_mile":5.7,"end_mile":5.8},"geometry":{"type":"LineString","coordinates":[[81.277232,31.044624],[81.27723,31.044762],[81.277492,31.045174],[81.278139,31.045809]]}},
{"type":"Feature","properties":{"mountain_slug":"mount-kailash","trail":"Mount Kailash Kora","seq":58,"start_mile":5.8,"end_mile":5.9},"geometry":{"type":"LineString","coordinates":[[81.278139,31.045809],[81.278189,31.045858],[81.278596,31.046661],[81.27875,31.047154]]}},
{"type":"Feature","properties":{"mountain_slug":"mount-kailash","trail":"Mount Kailash Kora","seq":59,"start_mile":5.9,"end_mile":6.0},"geometry":{"type":"LineString","coordinates":[[81.27875,31.047154],[81.278791,31.047285],[81.279425,31.048293],[81.279499,31.048451]]}},
{"type":"Feature","properties":{"mountain_slug":"mount-kailash","trail":"Mount Kailash Kora","seq":60,"start_mile":6.0,"end_mile":6.1},"geometry":{"type":"LineString","coordinates":[[81.279499,31.048451],[81.280133,31.049797]]}},
{"type":"Feature","properties":{"mountain_slug":"mount-kailash","trail":"Mount Kailash Kora","seq":61,"start_mile":6.1,"end_mile":6.2},"geometry":{"type":"LineString","coordinates":[[81.280133,31.049797],[81.280173,31.049882],[81.280173,31.050205],[81.279976,31.050513],[81.279921,31.050775],[81.279937,31.051194]]}},
{"type":"Feature","properties":{"mountain_slug":"mount-kailash","trail":"Mount Kailash Kora","seq":62,"start_mile":6.2,"end_mile":6.3},"geometry":{"type":"LineString","coordinates":[[81.279937,31.051194],[81.279948,31.051483],[81.280075,31.05186],[81.280614,31.052475]]}},
{"type":"Feature","properties":{"mountain_slug":"mount-kailash","trail":"Mount Kailash Kora","seq":63,"start_mile":6.3,"end_mile":6.4},"geometry":{"type":"LineString","coordinates":[[81.280614,31.052475],[81.280728,31.052606],[81.280806,31.05327],[81.280714,31.053886]]}},
{"type":"Feature","properties":{"mountain_slug":"mount-kailash","trail":"Mount Kailash Kora","seq":64,"start_mile":6.4,"end_mile":6.5},"geometry":{"type":"LineString","coordinates":[[81.280714,31.053886],[81.280672,31.054172],[81.280692,31.055314],[81.280676,31.055331]]}},
{"type":"Feature","properties":{"mountain_slug":"mount-kailash","trail":"Mount Kailash Kora","seq":65,"start_mile":6.5,"end_mile":6.6},"geometry":{"type":"LineString","coordinates":[[81.280676,31.055331],[81.280618,31.055396],[81.281109,31.056699]]}},
{"type":"Feature","properties":{"mountain_slug":"mount-kailash","trail":"Mount Kailash Kora","seq":66,"start_mile":6.6,"end_mile":6.7},"geometry":{"type":"LineString","coordinates":[[81.281109,31.056699],[81.281317,31.057252],[81.281259,31.058122]]}},
{"type":"Feature","properties":{"mountain_slug":"mount-kailash","trail":"Mount Kailash Kora","seq":67,"start_mile":6.7,"end_mile":6.8},"geometry":{"type":"LineString","coordinates":[[81.281259,31.058122],[81.281226,31.058614],[81.281238,31.059573]]}},
{"type":"Feature","properties":{"mountain_slug":"mount-kailash","trail":"Mount Kailash Kora","seq":68,"start_mile":6.8,"end_mile":6.9},"geometry":{"type":"LineString","coordinates":[[81.281238,31.059573],[81.281242,31.059907],[81.281525,31.060589],[81.281585,31.060948],[81.281603,31.060975]]}},
{"type":"Feature","properties":{"mountain_slug":"mount-kailash","trail":"Mount Kailash Kora","seq":69,"start_mile":6.9,"end_mile":7.0},"geometry":{"type":"LineString","coordinates":[[81.281603,31.060975],[81.281824,31.061325],[81.282034,31.061885],[81.28209,31.062348]]}},
{"type":"Feature","properties":{"mountain_slug":"mount-kailash","trail":"Mount Kailash Kora","seq":70,"start_mile":7.0,"end_mile":7.1},"geometry":{"type":"LineString","coordinates":[[81.28209,31.062348],[81.282092,31.062367],[81.28188,31.063788]]}},
{"type":"Feature","properties":{"mountain_slug":"mount-kailash","trail":"Mount Kailash Kora","seq":71,"start_mile":7.1,"end_mile":7.2},"geometry":{"type":"LineString","coordinates":[[81.28188,31.063788],[81.281829,31.064129],[81.281891,31.065197],[81.281889,31.065236]]}},
{"type":"Feature","properties":{"mountain_slug":"mount-kailash","trail":"Mount Kailash Kora","seq":72,"start_mile":7.2,"end_mile":7.3},"geometry":{"type":"LineString","coordinates":[[81.281889,31.065236],[81.281795,31.066686]]}},
{"type":"Feature","properties":{"mountain_slug":"mount-kailash","trail":"Mount Kailash Kora","seq":73,"start_mile":7.3,"end_mile":7.4},"geometry":{"type":"LineString","coordinates":[[81.281795,31.066686],[81.281738,31.067566],[81.281939,31.06811]]}},
{"type":"Feature","properties":{"mountain_slug":"mount-kailash","trail":"Mount Kailash Kora","seq":74,"start_mile":7.4,"end_mile":7.5},"geometry":{"type":"LineString","coordinates":[[81.281939,31.06811],[81.282141,31.068658],[81.282318,31.068858],[81.282493,31.069465]]}},
{"type":"Feature","properties":{"mountain_slug":"mount-kailash","trail":"Mount Kailash Kora","seq":75,"start_mile":7.5,"end_mile":7.6},"geometry":{"type":"LineString","coordinates":[[81.282493,31.069465],[81.2826,31.069835],[81.282576,31.070424],[81.282383,31.070876]]}},
{"type":"Feature","properties":{"mountain_slug":"mount-kailash","trail":"Mount Kailash Kora","seq":76,"start_mile":7.6,"end_mile":7.7},"geometry":{"type":"LineString","coordinates":[[81.282383,31.070876],[81.282381,31.070881],[81.282525,31.071498],[81.282461,31.071811],[81.282553,31.072179],[81.282481,31.072286]]}},
{"type":"Feature","properties":{"mountain_slug":"mount-kailash","trail":"Mount Kailash Kora","seq":77,"start_mile":7.7,"end_mile":7.8},"geometry":{"type":"LineString","coordinates":[[81.282481,31.072286],[81.282396,31.072416],[81.282154,31.073702]]}},
{"type":"Feature","properties":{"mountain_slug":"mount-kailash","trail":"Mount Kailash Kora","seq":78,"start_mile":7.8,"end_mile":7.9},"geometry":{"type":"LineString","coordinates":[[81.282154,31.073702],[81.282151,31.073718],[81.282182,31.074045],[81.282582,31.074685],[81.28267,31.075059]]}},
{"type":"Feature","properties":{"mountain_slug":"mount-kailash","trail":"Mount Kailash Kora","seq":79,"start_mile":7.9,"end_mile":8.0},"geometry":{"type":"LineString","coordinates":[[81.28267,31.075059],[81.282821,31.075693],[81.283068,31.0759],[81.283153,31.076112],[81.283411,31.076231],[81.283428,31.07626]]}},
{"type":"Feature","properties":{"mountain_slug":"mount-kailash","trail":"Mount Kailash Kora","seq":80,"start_mile":8.0,"end_mile":8.1},"geometry":{"type":"LineString","coordinates":[[81.283428,31.07626],[81.283518,31.07641],[81.283649,31.076471],[81.284073,31.077084],[81.284222,31.077507]]}},
{"type":"Feature","properties":{"mountain_slug":"mount-kailash","trail":"Mount Kailash Kora","seq":81,"start_mile":8.1,"end_mile":8.2},"geometry":{"type":"LineString","coordinates":[[81.284222,31.077507],[81.284339,31.077839],[81.28444,31.07894]]}},
{"type":"Feature","properties":{"mountain_slug":"mount-kailash","trail":"Mount Kailash Kora","seq":82,"start_mile":8.2,"end_mile":8.3},"geometry":{"type":"LineString","coordinates":[[81.28444,31.07894],[81.284564,31.080288],[81.284606,31.080382]]}},
{"type":"Feature","properties":{"mountain_slug":"mount-kailash","trail":"Mount Kailash Kora","seq":83,"start_mile":8.3,"end_mile":8.4},"geometry":{"type":"LineString","coordinates":[[81.284606,31.080382],[81.284875,31.080982],[81.285294,31.081706]]}},
{"type":"Feature","properties":{"mountain_slug":"mount-kailash","trail":"Mount Kailash Kora","seq":84,"start_mile":8.4,"end_mile":8.5},"geometry":{"type":"LineString","coordinates":[[81.285294,31.081706],[81.28597,31.082875],[81.28611,31.082957]]}},
{"type":"Feature","properties":{"mountain_slug":"mount-kailash","trail":"Mount Kailash Kora","seq":85,"start_mile":8.5,"end_mile":8.6},"geometry":{"type":"LineString","coordinates":[[81.28611,31.082957],[81.28622,31.083022],[81.286417,31.083397],[81.286855,31.083751],[81.286986,31.084024],[81.28701,31.084136]]}},
{"type":"Feature","properties":{"mountain_slug":"mount-kailash","trail":"Mount Kailash Kora","seq":86,"start_mile":8.6,"end_mile":8.7},"geometry":{"type":"LineString","coordinates":[[81.28701,31.084136],[81.28731,31.085565]]}},
{"type":"Feature","properties":{"mountain_slug":"mount-kailash","trail":"Mount Kailash Kora","seq":87,"start_mile":8.7,"end_mile":8.8},"geometry":{"type":"LineString","coordinates":[[81.28731,31.085565],[81.287531,31.086619],[81.287651,31.086985]]}},
{"type":"Feature","properties":{"mountain_slug":"mount-kailash","trail":"Mount Kailash Kora","seq":88,"start_mile":8.8,"end_mile":8.9},"geometry":{"type":"LineString","coordinates":[[81.287651,31.086985],[81.287924,31.087821],[81.288287,31.088315]]}},
{"type":"Feature","properties":{"mountain_slug":"mount-kailash","trail":"Mount Kailash Kora","seq":89,"start_mile":8.9,"end_mile":9.0},"geometry":{"type":"LineString","coordinates":[[81.288287,31.088315],[81.289189,31.089542]]}},
{"type":"Feature","properties":{"mountain_slug":"mount-kailash","trail":"Mount Kailash Kora","seq":90,"start_mile":9.0,"end_mile":9.1},"geometry":{"type":"LineString","coordinates":[[81.289189,31.089542],[81.28987,31.090468],[81.290186,31.090698]]}},
{"type":"Feature","properties":{"mountain_slug":"mount-kailash","trail":"Mount Kailash Kora","seq":91,"start_mile":9.1,"end_mile":9.2},"geometry":{"type":"LineString","coordinates":[[81.290186,31.090698],[81.290907,31.091222],[81.291543,31.091554]]}},
{"type":"Feature","properties":{"mountain_slug":"mount-kailash","trail":"Mount Kailash Kora","seq":92,"start_mile":9.2,"end_mile":9.3},"geometry":{"type":"LineString","coordinates":[[81.291543,31.091554],[81.291724,31.091649],[81.292599,31.092671]]}},
{"type":"Feature","properties":{"mountain_slug":"mount-kailash","trail":"Mount Kailash Kora","seq":93,"start_mile":9.3,"end_mile":9.4},"geometry":{"type":"LineString","coordinates":[[81.292599,31.092671],[81.292657,31.092739],[81.292805,31.09317],[81.293183,31.093688],[81.293412,31.093923]]}},
{"type":"Feature","properties":{"mountain_slug":"mount-kailash","trail":"Mount Kailash Kora","seq":94,"start_mile":9.4,"end_mile":9.5},"geometry":{"type":"LineString","coordinates":[[81.293412,31.093923],[81.294494,31.095038]]}},
{"type":"Feature","properties":{"mountain_slug":"mount-kailash","trail":"Mount Kailash Kora","seq":95,"start_mile":9.5,"end_mile":9.6},"geometry":{"type":"LineString","coordinates":[[81.294494,31.095038],[81.294554,31.0951],[81.294875,31.095779],[81.295281,31.096313]]}},
{"type":"Feature","properties":{"mountain_slug":"mount-kailash","trail":"Mount Kailash Kora","seq":96,"start_mile":9.6,"end_mile":9.7},"geometry":{"type":"LineString","coordinates":[[81.295281,31.096313],[81.295508,31.09661],[81.295653,31.096929],[81.296306,31.097431]]}},
{"type":"Feature","properties":{"mountain_slug":"mount-kailash","trail":"Mount Kailash Kora","seq":97,"start_mile":9.7,"end_mile":9.8},"geometry":{"type":"LineString","coordinates":[[81.296306,31.097431],[81.296637,31.097686],[81.297667,31.098286]]}},
{"type":"Feature","properties":{"mountain_slug":"mount-kailash","trail":"Mount Kailash Kora","seq":98,"start_mile":9.8,"end_mile":9.9},"geometry":{"type":"LineString","coordinates":[[81.297667,31.098286],[81.298064,31.098518],[81.298659,31.098632],[81.299208,31.098836]]}},
{"type":"Feature","properties":{"mountain_slug":"mount-kailash","trail":"Mount Kailash Kora","seq":99,"start_mile":9.9,"end_mile":10.0},"geometry":{"type":"LineString","coordinates":[[81.299208,31.098836],[81.299956,31.099115],[81.300817,31.099237]]}},
{"type":"Feature","properties":{"mountain_slug":"mount-kailash","trail":"Mount Kailash Kora","seq":100,"start_mile":10.0,"end_mile":10.1},"geometry":{"type":"LineString","coordinates":[[81.300817,31.099237],[81.300993,31.099262],[81.302077,31.099527],[81.302431,31.09965]]}},
{"type":"Feature","properties":{"mountain_slug":"mount-kailash","trail":"Mount Kailash Kora","seq":101,"start_mile":10.1,"end_mile":10.2},"geometry":{"type":"LineString","coordinates":[[81.302431,31.09965],[81.303995,31.100195]]}},
{"type":"Feature","properties":{"mountain_slug":"mount-kailash","trail":"Mount Kailash Kora","seq":102,"start_mile":10.2,"end_mile":10.3},"geometry":{"type":"LineString","coordinates":[[81.303995,31.100195],[81.304431,31.100347],[81.30564,31.10047]]}},
{"type":"Feature","properties":{"mountain_slug":"mount-kailash","trail":"Mount Kailash Kora","seq":103,"start_mile":10.3,"end_mile":10.4},"geometry":{"type":"LineString","coordinates":[[81.30564,31.10047],[81.307316,31.100639]]}},
{"type":"Feature","properties":{"mountain_slug":"mount-kailash","trail":"Mount Kailash Kora","seq":104,"start_mile":10.4,"end_mile":10.5},"geometry":{"type":"LineString","coordinates":[[81.307316,31.100639],[81.308585,31.100768],[81.30876,31.100929],[81.308907,31.100967]]}},
{"type":"Feature","properties":{"mountain_slug":"mount-kailash","trail":"Mount Kailash Kora","seq":105,"start_mile":10.5,"end_mile":10.6},"geometry":{"type":"LineString","coordinates":[[81.308907,31.100967],[81.309073,31.101011],[81.309798,31.101076],[81.310552,31.101264]]}},
{"type":"Feature","properties":{"mountain_slug":"mount-kailash","trail":"Mount Kailash Kora","seq":106,"start_mile":10.6,"end_mile":10.7},"geometry":{"type":"LineString","coordinates":[[81.310552,31.101264],[81.310751,31.101314],[81.311919,31.101297],[81.312218,31.101375]]}},
{"type":"Feature","properties":{"mountain_slug":"mount-kailash","trail":"Mount Kailash Kora","seq":107,"start_mile":10.7,"end_mile":10.8},"geometry":{"type":"LineString","coordinates":[[81.312218,31.101375],[81.312621,31.10148],[81.313368,31.101474],[81.313658,31.10159],[81.313855,31.101615]]}},
{"type":"Feature","properties":{"mountain_slug":"mount-kailash","trail":"Mount Kailash Kora","seq":108,"start_mile":10.8,"end_mile":10.9},"geometry":{"type":"LineString","coordinates":[[81.313855,31.101615],[81.314635,31.101718],[81.314955,31.101823],[81.315511,31.101818]]}},
{"type":"Feature","properties":{"mountain_slug":"mount-kailash","trail":"Mount Kailash Kora","seq":109,"start_mile":10.9,"end_mile":11.0},"geometry":{"type":"LineString","coordinates":[[81.315511,31.101818],[81.315662,31.101816],[81.316352,31.102004],[81.317158,31.102093]]}},
{"type":"Feature","properties":{"mountain_slug":"mount-kailash","trail":"Mount Kailash Kora","seq":110,"start_mile":11.0,"end_mile":11.1},"geometry":{"type":"LineString","coordinates":[[81.317158,31.102093],[81.318123,31.1022],[81.318838,31.102205]]}},
{"type":"Feature","properties":{"mountain_slug":"mount-kailash","trail":"Mount Kailash Kora","seq":111,"start_mile":11.1,"end_mile":11.2},"geometry":{"type":"LineString","coordinates":[[81.318838,31.102205],[81.318862,31.102205],[81.319312,31.102056],[81.320368,31.102097],[81.320491,31.10208]]}},
{"type":"Feature","properties":{"mountain_slug":"mount-kailash","trail":"Mount Kailash Kora","seq":112,"start_mile":11.2,"end_mile":11.3},"geometry":{"type":"LineString","coordinates":[[81.320491,31.10208],[81.322053,31.101869],[81.322159,31.101869]]}},
{"type":"Feature","properties":{"mountain_slug":"mount-kailash","trail":"Mount Kailash Kora","seq":113,"start_mile":11.3,"end_mile":11.4},"geometry":{"type":"LineString","coordinates":[[81.322159,31.101869],[81.323654,31.101869],[81.323846,31.101852]]}},
{"type":"Feature","properties":{"mountain_slug":"mount-kailash","trail":"Mount Kailash Kora","seq":114,"start_mile":11.4,"end_mile":11.5},"geometry":{"type":"LineString","coordinates":[[81.323846,31.101852],[81.324599,31.101787],[81.325416,31.101404]]}},
{"type":"Feature","properties":{"mountain_slug":"mount-kailash","trail":"Mount Kailash Kora","seq":115,"start_mile":11.5,"end_mile":11.6},"geometry":{"type":"LineString","coordinates":[[81.325416,31.101404],[81.325988,31.101136],[81.326171,31.100858],[81.326686,31.100496]]}},
{"type":"Feature","properties":{"mountain_slug":"mount-kailash","trail":"Mount Kailash Kora","seq":116,"start_mile":11.6,"end_mile":11.7},"geometry":{"type":"LineString","coordinates":[[81.326686,31.100496],[81.326792,31.100421],[81.327031,31.100416],[81.328009,31.100916],[81.32818,31.100944]]}},
{"type":"Feature","properties":{"mountain_slug":"mount-kailash","trail":"Mount Kailash Kora","seq":117,"start_mile":11.7,"end_mile":11.8},"geometry":{"type":"LineString","coordinates":[[81.32818,31.100944],[81.328429,31.100984],[81.329733,31.100868],[81.329826,31.100938]]}},
{"type":"Feature","properties":{"mountain_slug":"mount-kailash","trail":"Mount Kailash Kora","seq":118,"start_mile":11.8,"end_mile":11.9},"geometry":{"type":"LineString","coordinates":[[81.329826,31.100938],[81.329971,31.101047],[81.330175,31.101042],[81.330443,31.100684],[81.330634,31.100905],[81.331029,31.100676]]}},
{"type":"Feature","properties":{"mountain_slug":"mount-kailash","trail":"Mount Kailash Kora","seq":119,"start_mile":11.9,"end_mile":12.0},"geometry":{"type":"LineString","coordinates":[[81.331029,31.100676],[81.331495,31.100406],[81.331599,31.100427],[81.331426,31.10118],[81.331421,31.101262],[81.331452,31.101263]]}},
{"type":"Feature","properties":{"mountain_slug":"mount-kailash","trail":"Mount Kailash Kora","seq":120,"start_mile":12.0,"end_mile":12.1},"geometry":{"type":"LineString","coordinates":[[81.331452,31.101263],[81.331491,31.101263],[81.331964,31.100744],[81.332656,31.100273]]}},
{"type":"Feature","properties":{"mountain_slug":"mount-kailash","trail":"Mount Kailash Kora","seq":121,"start_mile":12.1,"end_mile":12.2},"geometry":{"type":"LineString","coordinates":[[81.332656,31.100273],[81.333611,31.099621],[81.334062,31.099564],[81.334074,31.099559]]}},
{"type":"Feature","properties":{"mountain_slug":"mount-kailash","trail":"Mount Kailash Kora","seq":122,"start_mile":12.2,"end_mile":12.3},"geometry":{"type":"LineString","coordinates":[[81.334074,31.099559],[81.335611,31.098961]]}},
{"type":"Feature","properties":{"mountain_slug":"mount-kailash","trail":"Mount Kailash Kora","seq":123,"start_mile":12.3,"end_mile":12.4},"geometry":{"type":"LineString","coordinates":[[81.335611,31.098961],[81.336595,31.098578],[81.337174,31.098419]]}},
{"type":"Feature","properties":{"mountain_slug":"mount-kailash","trail":"Mount Kailash Kora","seq":124,"start_mile":12.4,"end_mile":12.5},"geometry":{"type":"LineString","coordinates":[[81.337174,31.098419],[81.337858,31.098231],[81.33851,31.098157],[81.338821,31.098172]]}},
{"type":"Feature","properties":{"mountain_slug":"mount-kailash","trail":"Mount Kailash Kora","seq":125,"start_mile":12.5,"end_mile":12.6},"geometry":{"type":"LineString","coordinates":[[81.338821,31.098172],[81.339038,31.098183],[81.340497,31.098027]]}},
{"type":"Feature","properties":{"mountain_slug":"mount-kailash","trail":"Mount Kailash Kora","seq":126,"start_mile":12.6,"end_mile":12.7},"geometry":{"type":"LineString","coordinates":[[81.340497,31.098027],[81.34084,31.09799],[81.341459,31.097738],[81.342085,31.097566]]}},
{"type":"Feature","properties":{"mountain_slug":"mount-kailash","trail":"Mount Kailash Kora","seq":127,"start_mile":12.7,"end_mile":12.8},"geometry":{"type":"LineString","coordinates":[[81.342085,31.097566],[81.342843,31.097359],[81.343622,31.096985]]}},
{"type":"Feature","properties":{"mountain_slug":"mount-kailash","trail":"Mount Kailash Kora","seq":128,"start_mile":12.8,"end_mile":12.9},"geometry":{"type":"LineString","coordinates":[[81.343622,31.096985],[81.343778,31.09691],[81.345084,31.096738],[81.345264,31.096692]]}},
{"type":"Feature","properties":{"mountain_slug":"mount-kailash","trail":"Mount Kailash Kora","seq":129,"start_mile":12.9,"end_mile":13.0},"geometry":{"type":"LineString","coordinates":[[81.345264,31.096692],[81.345681,31.096585],[81.346606,31.096054],[81.346699,31.095964]]}},
{"type":"Feature","properties":{"mountain_slug":"mount-kailash","trail":"Mount Kailash Kora","seq":130,"start_mile":13.0,"end_mile":13.1},"geometry":{"type":"LineString","coordinates":[[81.346699,31.095964],[81.347379,31.095301],[81.347529,31.095786],[81.347597,31.095754]]}},
{"type":"Feature","properties":{"mountain_slug":"mount-kailash","trail":"Mount Kailash Kora","seq":131,"start_mile":13.1,"end_mile":13.2},"geometry":{"type":"LineString","coordinates":[[81.347597,31.095754],[81.348025,31.095556],[81.348157,31.095698],[81.348012,31.095939],[81.348205,31.096229],[81.348108,31.096462]]}},
{"type":"Feature","properties":{"mountain_slug":"mount-kailash","trail":"Mount Kailash Kora","seq":132,"start_mile":13.2,"end_mile":13.3},"geometry":{"type":"LineString","coordinates":[[81.348108,31.096462],[81.34795,31.09684],[81.348014,31.096982],[81.348992,31.097296]]}},
{"type":"Feature","properties":{"mountain_slug":"mount-kailash","trail":"Mount Kailash Kora","seq":133,"start_mile":13.3,"end_mile":13.4},"geometry":{"type":"LineString","coordinates":[[81.348992,31.097296],[81.350573,31.097802]]}},
{"type":"Feature","properties":{"mountain_slug":"mount-kailash","trail":"Mount Kailash Kora","seq":134,"start_mile":13.4,"end_mile":13.5},"geometry":{"type":"LineString","coordinates":[[81.350573,31.097802],[81.35111,31.097974],[81.351595,31.098262],[81.352118,31.09831]]}},
{"type":"Feature","properties":{"mountain_slug":"mount-kailash","trail":"Mount Kailash Kora","seq":135,"start_mile":13.5,"end_mile":13.6},"geometry":{"type":"LineString","coordinates":[[81.352118,31.09831],[81.352193,31.098317],[81.353635,31.098936]]}},
{"type":"Feature","properties":{"mountain_slug":"mount-kailash","trail":"Mount Kailash Kora","seq":136,"start_mile":13.6,"end_mile":13.7},"geometry":{"type":"LineString","coordinates":[[81.353635,31.098936],[81.353726,31.098975],[81.354292,31.09906],[81.355079,31.099357],[81.355211,31.099422]]}},
{"type":"Feature","properties":{"mountain_slug":"mount-kailash","trail":"Mount Kailash Kora","seq":137,"start_mile":13.7,"end_mile":13.8},"geometry":{"type":"LineString","coordinates":[[81.355211,31.099422],[81.355771,31.099699],[81.355981,31.100025],[81.35658,31.100117]]}},
{"type":"Feature","properties":{"mountain_slug":"mount-kailash","trail":"Mount Kailash Kora","seq":138,"start_mile":13.8,"end_mile":13.9},"geometry":{"type":"LineString","coordinates":[[81.35658,31.100117],[81.356624,31.100124],[81.356726,31.100225],[81.358144,31.100611]]}},
{"type":"Feature","properties":{"mountain_slug":"mount-kailash","trail":"Mount Kailash Kora","seq":139,"start_mile":13.9,"end_mile":14.0},"geometry":{"type":"LineString","coordinates":[[81.358144,31.100611],[81.358703,31.100763],[81.359713,31.101116],[81.359723,31.101113]]}},
{"type":"Feature","properties":{"mountain_slug":"mount-kailash","trail":"Mount Kailash Kora","seq":140,"start_mile":14.0,"end_mile":14.1},"geometry":{"type":"LineString","coordinates":[[81.359723,31.101113],[81.360149,31.100992],[81.360825,31.101047],[81.361374,31.100953]]}},
{"type":"Feature","properties":{"mountain_slug":"mount-kailash","trail":"Mount Kailash Kora","seq":141,"start_mile":14.1,"end_mile":14.2},"geometry":{"type":"LineString","coordinates":[[81.361374,31.100953],[81.361844,31.100873],[81.361871,31.100634],[81.362069,31.100239],[81.362435,31.100046]]}},
{"type":"Feature","properties":{"mountain_slug":"mount-kailash","trail":"Mount Kailash Kora","seq":142,"start_mile":14.2,"end_mile":14.3},"geometry":{"type":"LineString","coordinates":[[81.362435,31.100046],[81.362826,31.099839],[81.363094,31.099904],[81.363577,31.099596],[81.363544,31.099296]]}},
{"type":"Feature","properties":{"mountain_slug":"mount-kailash","trail":"Mount Kailash Kora","seq":143,"start_mile":14.3,"end_mile":14.4},"geometry":{"type":"LineString","coordinates":[[81.363544,31.099296],[81.363539,31.099256],[81.363786,31.099215],[81.363952,31.098953],[81.364253,31.098884],[81.364748,31.098421]]}},
{"type":"Feature","properties":{"mountain_slug":"mount-kailash","trail":"Mount Kailash Kora","seq":144,"start_mile":14.4,"end_mile":14.5},"geometry":{"type":"LineString","coordinates":[[81.364748,31.098421],[81.364778,31.098392],[81.36502,31.098346],[81.36547,31.098048],[81.366173,31.097855],[81.366238,31.097803]]}},
{"type":"Feature","properties":{"mountain_slug":"mount-kailash","trail":"Mount Kailash Kora","seq":145,"start_mile":14.5,"end_mile":14.6},"geometry":{"type":"LineString","coordinates":[[81.366238,31.097803],[81.366559,31.097547],[81.367026,31.09746],[81.36723,31.097299],[81.367648,31.097267],[81.367679,31.097207]]}},
{"type":"Feature","properties":{"mountain_slug":"mount-kailash","trail":"Mount Kailash Kora","seq":146,"start_mile":14.6,"end_mile":14.7},"geometry":{"type":"LineString","coordinates":[[81.367679,31.097207],[81.367766,31.097037],[81.367933,31.096959],[81.368212,31.096969],[81.368367,31.096716],[81.368673,31.096537],[81.368713,31.09638],[81.368795,31.096311]]}},
{"type":"Feature","properties":{"mountain_slug":"mount-kailash","trail":"Mount Kailash Kora","seq":147,"start_mile":14.7,"end_mile":14.8},"geometry":{"type":"LineString","coordinates":[[81.368795,31.096311],[81.36907,31.096075],[81.369295,31.096132],[81.369673,31.095836],[81.369995,31.09545]]}},
{"type":"Feature","properties":{"mountain_slug":"mount-kailash","trail":"Mount Kailash Kora","seq":148,"start_mile":14.8,"end_mile":14.9},"geometry":{"type":"LineString","coordinates":[[81.369995,31.09545],[81.370529,31.09481],[81.370363,31.094442],[81.370245,31.094465],[81.370151,31.094385],[81.370147,31.094333]]}},
{"type":"Feature","properties":{"mountain_slug":"mount-kailash","trail":"Mount Kailash Kora","seq":149,"start_mile":14.9,"end_mile":15.0},"geometry":{"type":"LineString","coordinates":[[81.370147,31.094333],[81.370137,31.094176],[81.370223,31.094116],[81.370644,31.09415],[81.370768,31.094077],[81.371584,31.093999]]}},
{"type":"Feature","properties":{"mountain_slug":"mount-kailash","trail":"Mount Kailash Kora","seq":150,"start_mile":15.0,"end_mile":15.1},"geometry":{"type":"LineString","coordinates":[[81.371584,31.093999],[81.371854,31.093973],[81.372302,31.09376],[81.372637,31.093723],[81.373125,31.093477]]}},
{"type":"Feature","properties":{"mountain_slug":"mount-kailash","trail":"Mount Kailash Kora","seq":151,"start_mile":15.1,"end_mile":15.2},"geometry":{"type":"LineString","coordinates":[[81.373125,31.093477],[81.373171,31.093454],[81.373699,31.093071],[81.373785,31.092775],[81.373753,31.092588],[81.373892,31.092513],[81.373967,31.092348]]}},
{"type":"Feature","properties":{"mountain_slug":"mount-kailash","trail":"Mount Kailash Kora","seq":152,"start_mile":15.2,"end_mile":15.3},"geometry":{"type":"LineString","coordinates":[[81.373967,31.092348],[81.374029,31.09221],[81.374214,31.092108],[81.374211,31.091951],[81.374466,31.091933],[81.374536,31.091881],[81.374438,31.091796],[81.374525,31.091789],[81.374775,31.091965],[81.374939,31.091844]]}},
{"type":"Feature","properties":{"mountain_slug":"mount-kailash","trail":"Mount Kailash Kora","seq":153,"start_mile":15.3,"end_mile":15.4},"geometry":{"type":"LineString","coordinates":[[81.374939,31.091844],[81.375035,31.091773],[81.375051,31.091663],[81.375309,31.091463],[81.37563,31.09102],[81.375722,31.090617]]}},
{"type":"Feature","properties":{"mountain_slug":"mount-kailash","trail":"Mount Kailash Kora","seq":154,"start_mile":15.4,"end_mile":15.5},"geometry":{"type":"LineString","coordinates":[[81.375722,31.090617],[81.375757,31.090464],[81.376103,31.089913],[81.376566,31.089375]]}},
{"type":"Feature","properties":{"mountain_slug":"mount-kailash","trail":"Mount Kailash Kora","seq":155,"start_mile":15.5,"end_mile":15.6},"geometry":{"type":"LineString","coordinates":[[81.376566,31.089375],[81.376867,31.089026],[81.377232,31.088822],[81.377502,31.088767],[81.377882,31.088529]]}},
{"type":"Feature","properties":{"mountain_slug":"mount-kailash","trail":"Mount Kailash Kora","seq":156,"start_mile":15.6,"end_mile":15.7},"geometry":{"type":"LineString","coordinates":[[81.377882,31.088529],[81.377964,31.088478],[81.378085,31.088293],[81.378318,31.088277],[81.37893,31.087841],[81.379224,31.087754]]}},
{"type":"Feature","properties":{"mountain_slug":"mount-kailash","trail":"Mount Kailash Kora","seq":157,"start_mile":15.7,"end_mile":15.8},"geometry":{"type":"LineString","coordinates":[[81.379224,31.087754],[81.379237,31.08775],[81.379568,31.087482],[81.37973,31.087125],[81.380295,31.086671],[81.380296,31.086671]]}},
{"type":"Feature","properties":{"mountain_slug":"mount-kailash","trail":"Mount Kailash Kora","seq":158,"start_mile":15.8,"end_mile":15.9},"geometry":{"type":"LineString","coordinates":[[81.380296,31.086671],[81.380657,31.086506],[81.381698,31.086322],[81.381825,31.086172]]}},
{"type":"Feature","properties":{"mountain_slug":"mount-kailash","trail":"Mount Kailash Kora","seq":159,"start_mile":15.9,"end_mile":16.0},"geometry":{"type":"LineString","coordinates":[[81.381825,31.086172],[81.381856,31.086136],[81.382733,31.085943],[81.383226,31.085654],[81.38331,31.085565]]}},
{"type":"Feature","properties":{"mountain_slug":"mount-kailash","trail":"Mount Kailash Kora","seq":160,"start_mile":16.0,"end_mile":16.1},"geometry":{"type":"LineString","coordinates":[[81.38331,31.085565],[81.383951,31.084878],[81.384139,31.08433]]}},
{"type":"Feature","properties":{"mountain_slug":"mount-kailash","trail":"Mount Kailash Kora","seq":161,"start_mile":16.1,"end_mile":16.2},"geometry":{"type":"LineString","coordinates":[[81.384139,31.08433],[81.384256,31.083986],[81.384305,31.082921],[81.384318,31.082896]]}},
{"type":"Feature","properties":{"mountain_slug":"mount-kailash","trail":"Mount Kailash Kora","seq":162,"start_mile":16.2,"end_mile":16.3},"geometry":{"type":"LineString","coordinates":[[81.384318,31.082896],[81.384509,31.082535],[81.384466,31.082415],[81.38468,31.082264],[81.38457,31.082094],[81.384793,31.082048],[81.384739,31.081857],[81.384855,31.08183]]}},
{"type":"Feature","properties":{"mountain_slug":"mount-kailash","trail":"Mount Kailash Kora","seq":163,"start_mile":16.3,"end_mile":16.4},"geometry":{"type":"LineString","coordinates":[[81.384855,31.08183],[81.384871,31.081827],[81.384903,31.081602],[81.385126,31.081528],[81.385276,31.081292],[81.385417,31.081335],[81.386016,31.081014]]}},
{"type":"Feature","properties":{"mountain_slug":"mount-kailash","trail":"Mount Kailash Kora","seq":164,"start_mile":16.4,"end_mile":16.5},"geometry":{"type":"LineString","coordinates":[[81.386016,31.081014],[81.386231,31.080899],[81.386495,31.079996],[81.386232,31.079794]]}},
{"type":"Feature","properties":{"mountain_slug":"mount-kailash","trail":"Mount Kailash Kora","seq":165,"start_mile":16.5,"end_mile":16.6},"geometry":{"type":"LineString","coordinates":[[81.386232,31.079794],[81.38546,31.079202],[81.385308,31.078881],[81.385116,31.078742]]}},
{"type":"Feature","properties":{"mountain_slug":"mount-kailash","trail":"Mount Kailash Kora","seq":166,"start_mile":16.6,"end_mile":16.7},"geometry":{"type":"LineString","coordinates":[[81.385116,31.078742],[81.385102,31.078733],[81.385056,31.078485],[81.384773,31.077968],[81.384712,31.077653],[81.38483,31.077376]]}},
{"type":"Feature","properties":{"mountain_slug":"mount-kailash","trail":"Mount Kailash Kora","seq":167,"start_mile":16.7,"end_mile":16.8},"geometry":{"type":"LineString","coordinates":[[81.38483,31.077376],[81.384934,31.07713],[81.384941,31.076821],[81.385124,31.076245],[81.384969,31.075994]]}},
{"type":"Feature","properties":{"mountain_slug":"mount-kailash","trail":"Mount Kailash Kora","seq":168,"start_mile":16.8,"end_mile":16.9},"geometry":{"type":"LineString","coordinates":[[81.384969,31.075994],[81.384896,31.075877],[81.384941,31.075725],[81.384796,31.075322],[81.384522,31.075009],[81.384392,31.074719],[81.384354,31.0747]]}},
{"type":"Feature","properties":{"mountain_slug":"mount-kailash","trail":"Mount Kailash Kora","seq":169,"start_mile":16.9,"end_mile":17.0},"geometry":{"type":"LineString","coordinates":[[81.384354,31.0747],[81.38427,31.07466],[81.38411,31.074327],[81.383904,31.074229],[81.383325,31.073595]]}},
{"type":"Feature","properties":{"mountain_slug":"mount-kailash","trail":"Mount Kailash Kora","seq":170,"start_mile":17.0,"end_mile":17.1},"geometry":{"type":"LineString","coordinates":[[81.383325,31.073595],[81.383232,31.073493],[81.38295,31.072936],[81.382513,31.072328]]}},
{"type":"Feature","properties":{"mountain_slug":"mount-kailash","trail":"Mount Kailash Kora","seq":171,"start_mile":17.1,"end_mile":17.2},"geometry":{"type":"LineString","coordinates":[[81.382513,31.072328],[81.382454,31.072246],[81.381539,31.071143]]}},
{"type":"Feature","properties":{"mountain_slug":"mount-kailash","trail":"Mount Kailash Kora","seq":172,"start_mile":17.2,"end_mile":17.3},"geometry":{"type":"LineString","coordinates":[[81.381539,31.071143],[81.381401,31.070977],[81.381287,31.070596],[81.381058,31.070218],[81.380768,31.070043],[81.380628,31.070017]]}},
{"type":"Feature","properties":{"mountain_slug":"mount-kailash","trail":"Mount Kailash Kora","seq":173,"start_mile":17.3,"end_mile":17.4},"geometry":{"type":"LineString","coordinates":[[81.380628,31.070017],[81.380562,31.070006],[81.380066,31.069173],[81.379807,31.06886],[81.379738,31.068815]]}},
{"type":"Feature","properties":{"mountain_slug":"mount-kailash","trail":"Mount Kailash Kora","seq":174,"start_mile":17.4,"end_mile":17.5},"geometry":{"type":"LineString","coordinates":[[81.379738,31.068815],[81.37957,31.068707],[81.379257,31.06747],[81.379257,31.067464]]}},
{"type":"Feature","properties":{"mountain_slug":"mount-kailash","trail":"Mount Kailash Kora","seq":175,"start_mile":17.5,"end_mile":17.6},"geometry":{"type":"LineString","coordinates":[[81.379257,31.067464],[81.379128,31.06607],[81.379143,31.066018]]}},
{"type":"Feature","properties":{"mountain_slug":"mount-kailash","trail":"Mount Kailash Kora","seq":176,"start_mile":17.6,"end_mile":17.7},"geometry":{"type":"LineString","coordinates":[[81.379143,31.066018],[81.379219,31.06574],[81.378823,31.064933],[81.378807,31.064643]]}},
{"type":"Feature","properties":{"mountain_slug":"mount-kailash","trail":"Mount Kailash Kora","seq":177,"start_mile":17.7,"end_mile":17.8},"geometry":{"type":"LineString","coordinates":[[81.378807,31.064643],[81.378777,31.064109],[81.378502,31.063632],[81.378464,31.063426],[81.378305,31.063315]]}},
{"type":"Feature","properties":{"mountain_slug":"mount-kailash","trail":"Mount Kailash Kora","seq":178,"start_mile":17.8,"end_mile":17.9},"geometry":{"type":"LineString","coordinates":[[81.378305,31.063315],[81.378288,31.063304],[81.377983,31.062379],[81.37804,31.061909]]}},
{"type":"Feature","properties":{"mountain_slug":"mount-kailash","trail":"Mount Kailash Kora","seq":179,"start_mile":17.9,"end_mile":18.0},"geometry":{"type":"LineString","coordinates":[[81.37804,31.061909],[81.378044,31.061872],[81.37796,31.061065],[81.377638,31.060528]]}},
{"type":"Feature","properties":{"mountain_slug":"mount-kailash","trail":"Mount Kailash Kora","seq":180,"start_mile":18.0,"end_mile":18.1},"geometry":{"type":"LineString","coordinates":[[81.377638,31.060528],[81.377196,31.059793],[81.377106,31.059766],[81.377069,31.059224]]}},
{"type":"Feature","properties":{"mountain_slug":"mount-kailash","trail":"Mount Kailash Kora","seq":181,"start_mile":18.1,"end_mile":18.2},"geometry":{"type":"LineString","coordinates":[[81.377069,31.059224],[81.376991,31.058095],[81.376893,31.057785]]}},
{"type":"Feature","properties":{"mountain_slug":"mount-kailash","trail":"Mount Kailash Kora","seq":182,"start_mile":18.2,"end_mile":18.3},"geometry":{"type":"LineString","coordinates":[[81.376893,31.057785],[81.376869,31.05771],[81.376641,31.057193],[81.376358,31.057029],[81.376106,31.056701],[81.376112,31.056567]]}},
{"type":"Feature","properties":{"mountain_slug":"mount-kailash","trail":"Mount Kailash Kora","seq":183,"start_mile":18.3,"end_mile":18.4},"geometry":{"type":"LineString","coordinates":[[81.376112,31.056567],[81.376145,31.055852],[81.376061,31.055465],[81.375954,31.05532],[81.375961,31.055149]]}},
{"type":"Feature","properties":{"mountain_slug":"mount-kailash","trail":"Mount Kailash Kora","seq":184,"start_mile":18.4,"end_mile":18.5},"geometry":{"type":"LineString","coordinates":[[81.375961,31.055149],[81.376007,31.053939],[81.376123,31.053719]]}},
{"type":"Feature","properties":{"mountain_slug":"mount-kailash","trail":"Mount Kailash Kora","seq":185,"start_mile":18.5,"end_mile":18.6},"geometry":{"type":"LineString","coordinates":[[81.376123,31.053719],[81.37648,31.053041],[81.376686,31.052421],[81.376675,31.052359]]}},
{"type":"Feature","properties":{"mountain_slug":"mount-kailash","trail":"Mount Kailash Kora","seq":186,"start_mile":18.6,"end_mile":18.7},"geometry":{"type":"LineString","coordinates":[[81.376675,31.052359],[81.376518,31.051469],[81.37632,31.051045],[81.376323,31.05095]]}},
{"type":"Feature","properties":{"mountain_slug":"mount-kailash","trail":"Mount Kailash Kora","seq":187,"start_mile":18.7,"end_mile":18.8},"geometry":{"type":"LineString","coordinates":[[81.376323,31.05095],[81.376346,31.050024],[81.37646,31.049507]]}},
{"type":"Feature","properties":{"mountain_slug":"mount-kailash","trail":"Mount Kailash Kora","seq":188,"start_mile":18.8,"end_mile":18.9},"geometry":{"type":"LineString","coordinates":[[81.37646,31.049507],[81.376545,31.049124],[81.37641,31.048604],[81.376489,31.048079]]}},
{"type":"Feature","properties":{"mountain_slug":"mount-kailash","trail":"Mount Kailash Kora","seq":189,"start_mile":18.9,"end_mile":19.0},"geometry":{"type":"LineString","coordinates":[[81.376489,31.048079],[81.376708,31.04664]]}},
{"type":"Feature","properties":{"mountain_slug":"mount-kailash","trail":"Mount Kailash Kora","seq":190,"start_mile":19.0,"end_mile":19.1},"geometry":{"type":"LineString","coordinates":[[81.376708,31.04664],[81.376796,31.046061],[81.376906,31.04594],[81.377076,31.045247],[81.377076,31.045241]]}},
{"type":"Feature","properties":{"mountain_slug":"mount-kailash","trail":"Mount Kailash Kora","seq":191,"start_mile":19.1,"end_mile":19.2},"geometry":{"type":"LineString","coordinates":[[81.377076,31.045241],[81.377235,31.044025],[81.377367,31.043826]]}},
{"type":"Feature","properties":{"mountain_slug":"mount-kailash","trail":"Mount Kailash Kora","seq":192,"start_mile":19.2,"end_mile":19.3},"geometry":{"type":"LineString","coordinates":[[81.377367,31.043826],[81.377452,31.043699],[81.377536,31.042994],[81.377406,31.042408]]}},
{"type":"Feature","properties":{"mountain_slug":"mount-kailash","trail":"Mount Kailash Kora","seq":193,"start_mile":19.3,"end_mile":19.4},"geometry":{"type":"LineString","coordinates":[[81.377406,31.042408],[81.377253,31.041714],[81.37728,31.040969]]}},
{"type":"Feature","properties":{"mountain_slug":"mount-kailash","trail":"Mount Kailash Kora","seq":194,"start_mile":19.4,"end_mile":19.5},"geometry":{"type":"LineString","coordinates":[[81.37728,31.040969],[81.377301,31.040414],[81.376917,31.03958]]}},
{"type":"Feature","properties":{"mountain_slug":"mount-kailash","trail":"Mount Kailash Kora","seq":195,"start_mile":19.5,"end_mile":19.6},"geometry":{"type":"LineString","coordinates":[[81.376917,31.03958],[81.376849,31.039433],[81.376791,31.039013],[81.376862,31.038144]]}},
{"type":"Feature","properties":{"mountain_slug":"mount-kailash","trail":"Mount Kailash Kora","seq":196,"start_mile":19.6,"end_mile":19.7},"geometry":{"type":"LineString","coordinates":[[81.376862,31.038144],[81.376886,31.037853],[81.377108,31.036709]]}},
{"type":"Feature","properties":{"mountain_slug":"mount-kailash","trail":"Mount Kailash Kora","seq":197,"start_mile":19.7,"end_mile":19.8},"geometry":{"type":"LineString","coordinates":[[81.377108,31.036709],[81.377131,31.036589],[81.37683,31.035837],[81.376434,31.035425]]}},
{"type":"Feature","properties":{"mountain_slug":"mount-kailash","trail":"Mount Kailash Kora","seq":198,"start_mile":19.8,"end_mile":19.9},"geometry":{"type":"LineString","coordinates":[[81.376434,31.035425],[81.376404,31.035394],[81.376418,31.035049],[81.376655,31.034747],[81.376883,31.034232],[81.37692,31.034084]]}},
{"type":"Feature","properties":{"mountain_slug":"mount-kailash","trail":"Mount Kailash Kora","seq":199,"start_mile":19.9,"end_mile":20.0},"geometry":{"type":"LineString","coordinates":[[81.37692,31.034084],[81.377058,31.033544],[81.377089,31.032762],[81.377056,31.032648]]}},
{"type":"Feature","properties":{"mountain_slug":"mount-kailash","trail":"Mount Kailash Kora","seq":200,"start_mile":20.0,"end_mile":20.1},"geometry":{"type":"LineString","coordinates":[[81.377056,31.032648],[81.377043,31.032602],[81.376456,31.032099],[81.376326,31.031417]]}},
{"type":"Feature","properties":{"mountain_slug":"mount-kailash","trail":"Mount Kailash Kora","seq":201,"start_mile":20.1,"end_mile":20.2},"geometry":{"type":"LineString","coordinates":[[81.376326,31.031417],[81.376278,31.031164],[81.376025,31.030466],[81.376272,31.030052]]}},
{"type":"Feature","properties":{"mountain_slug":"mount-kailash","trail":"Mount Kailash Kora","seq":202,"start_mile":20.2,"end_mile":20.3},"geometry":{"type":"LineString","coordinates":[[81.376272,31.030052],[81.376294,31.030016],[81.376444,31.029322],[81.376729,31.028661]]}},
{"type":"Feature","properties":{"mountain_slug":"mount-kailash","trail":"Mount Kailash Kora","seq":203,"start_mile":20.3,"end_mile":20.4},"geometry":{"type":"LineString","coordinates":[[81.376729,31.028661],[81.376776,31.028549],[81.377298,31.027894],[81.377265,31.027356]]}},
{"type":"Feature","properties":{"mountain_slug":"mount-kailash","trail":"Mount Kailash Kora","seq":204,"start_mile":20.4,"end_mile":20.5},"geometry":{"type":"LineString","coordinates":[[81.377265,31.027356],[81.377257,31.027221],[81.376959,31.026347],[81.376962,31.025941]]}},
{"type":"Feature","properties":{"mountain_slug":"mount-kailash","trail":"Mount Kailash Kora","seq":205,"start_mile":20.5,"end_mile":20.6},"geometry":{"type":"LineString","coordinates":[[81.376962,31.025941],[81.37697,31.024489]]}},
{"type":"Feature","properties":{"mountain_slug":"mount-kailash","trail":"Mount Kailash Kora","seq":206,"start_mile":20.6,"end_mile":20.7},"geometry":{"type":"LineString","coordinates":[[81.37697,31.024489],[81.376974,31.023837],[81.377082,31.023042]]}},
{"type":"Feature","properties":{"mountain_slug":"mount-kailash","trail":"Mount Kailash Kora","seq":207,"start_mile":20.7,"end_mile":20.8},"geometry":{"type":"LineString","coordinates":[[81.377082,31.023042],[81.377278,31.0216]]}},
{"type":"Feature","properties":{"mountain_slug":"mount-kailash","trail":"Mount Kailash Kora","seq":208,"start_mile":20.8,"end_mile":20.9},"geometry":{"type":"LineString","coordinates":[[81.377278,31.0216],[81.377299,31.021443],[81.377834,31.020273],[81.377843,31.020237]]}},
{"type":"Feature","properties":{"mountain_slug":"mount-kailash","trail":"Mount Kailash Kora","seq":209,"start_mile":20.9,"end_mile":21.0},"geometry":{"type":"LineString","coordinates":[[81.377843,31.020237],[81.37795,31.019819],[81.377705,31.018817]]}},
{"type":"Feature","properties":{"mountain_slug":"mount-kailash","trail":"Mount Kailash Kora","seq":210,"start_mile":21.0,"end_mile":21.1},"geometry":{"type":"LineString","coordinates":[[81.377705,31.018817],[81.377515,31.018043],[81.37753,31.017382]]}},
{"type":"Feature","properties":{"mountain_slug":"mount-kailash","trail":"Mount Kailash Kora","seq":211,"start_mile":21.1,"end_mile":21.2},"geometry":{"type":"LineString","coordinates":[[81.37753,31.017382],[81.377551,31.016413],[81.377343,31.01623],[81.37735,31.016004]]}},
{"type":"Feature","properties":{"mountain_slug":"mount-kailash","trail":"Mount Kailash Kora","seq":212,"start_mile":21.2,"end_mile":21.3},"geometry":{"type":"LineString","coordinates":[[81.37735,31.016004],[81.377385,31.014851],[81.377256,31.014603],[81.377255,31.014575]]}},
{"type":"Feature","properties":{"mountain_slug":"mount-kailash","trail":"Mount Kailash Kora","seq":213,"start_mile":21.3,"end_mile":21.4},"geometry":{"type":"LineString","coordinates":[[81.377255,31.014575],[81.377197,31.013343],[81.377036,31.013173]]}},
{"type":"Feature","properties":{"mountain_slug":"mount-kailash","trail":"Mount Kailash Kora","seq":214,"start_mile":21.4,"end_mile":21.5},"geometry":{"type":"LineString","coordinates":[[81.377036,31.013173],[81.376923,31.013054],[81.376843,31.012732],[81.376677,31.01258],[81.376623,31.012369],[81.376282,31.011911]]}},
{"type":"Feature","properties":{"mountain_slug":"mount-kailash","trail":"Mount Kailash Kora","seq":215,"start_mile":21.5,"end_mile":21.6},"geometry":{"type":"LineString","coordinates":[[81.376282,31.011911],[81.376264,31.011886],[81.375892,31.011087],[81.375579,31.010595]]}},
{"type":"Feature","properties":{"mountain_slug":"mount-kailash","trail":"Mount Kailash Kora","seq":216,"start_mile":21.6,"end_mile":21.7},"geometry":{"type":"LineString","coordinates":[[81.375579,31.010595],[81.3754,31.010314],[81.375239,31.010185],[81.374829,31.009311]]}},
{"type":"Feature","properties":{"mountain_slug":"mount-kailash","trail":"Mount Kailash Kora","seq":217,"start_mile":21.7,"end_mile":21.8},"geometry":{"type":"LineString","coordinates":[[81.374829,31.009311],[81.374594,31.008808],[81.373925,31.008104]]}},
{"type":"Feature","properties":{"mountain_slug":"mount-kailash","trail":"Mount Kailash Kora","seq":218,"start_mile":21.8,"end_mile":21.9},"geometry":{"type":"LineString","coordinates":[[81.373925,31.008104],[81.373793,31.007966],[81.373442,31.007402],[81.372894,31.00698]]}},
{"type":"Feature","properties":{"mountain_slug":"mount-kailash","trail":"Mount Kailash Kora","seq":219,"start_mile":21.9,"end_mile":22.0},"geometry":{"type":"LineString","coordinates":[[81.372894,31.00698],[81.3723,31.006523],[81.371607,31.006043]]}},
{"type":"Feature","properties":{"mountain_slug":"mount-kailash","trail":"Mount Kailash Kora","seq":220,"start_mile":22.0,"end_mile":22.1},"geometry":{"type":"LineString","coordinates":[[81.371607,31.006043],[81.371418,31.005912],[81.37093,31.005752],[81.37021,31.005256]]}},
{"type":"Feature","properties":{"mountain_slug":"mount-kailash","trail":"Mount Kailash Kora","seq":221,"start_mile":22.1,"end_mile":22.2},"geometry":{"type":"LineString","coordinates":[[81.37021,31.005256],[81.369984,31.0051],[81.368954,31.004575],[81.368807,31.004459]]}},
{"type":"Feature","properties":{"mountain_slug":"mount-kailash","trail":"Mount Kailash Kora","seq":222,"start_mile":22.2,"end_mile":22.3},"geometry":{"type":"LineString","coordinates":[[81.368807,31.004459],[81.367842,31.003697],[81.367492,31.003576]]}},
{"type":"Feature","properties":{"mountain_slug":"mount-kailash","trail":"Mount Kailash Kora","seq":223,"start_mile":22.3,"end_mile":22.4},"geometry":{"type":"LineString","coordinates":[[81.367492,31.003576],[81.366148,31.003114],[81.365956,31.002993]]}},
{"type":"Feature","properties":{"mountain_slug":"mount-kailash","trail":"Mount Kailash Kora","seq":224,"start_mile":22.4,"end_mile":22.5},"geometry":{"type":"LineString","coordinates":[[81.365956,31.002993],[81.365507,31.002709],[81.36525,31.002675],[81.36453,31.002256]]}},
{"type":"Feature","properties":{"mountain_slug":"mount-kailash","trail":"Mount Kailash Kora","seq":225,"start_mile":22.5,"end_mile":22.6},"geometry":{"type":"LineString","coordinates":[[81.36453,31.002256],[81.363397,31.001595],[81.363204,31.001378]]}},
{"type":"Feature","properties":{"mountain_slug":"mount-kailash","trail":"Mount Kailash Kora","seq":226,"start_mile":22.6,"end_mile":22.7},"geometry":{"type":"LineString","coordinates":[[81.363204,31.001378],[81.362178,31.000226]]}},
{"type":"Feature","properties":{"mountain_slug":"mount-kailash","trail":"Mount Kailash Kora","seq":227,"start_mile":22.7,"end_mile":22.8},"geometry":{"type":"LineString","coordinates":[[81.362178,31.000226],[81.361929,30.999946],[81.361614,30.999467],[81.361342,30.999421],[81.361017,30.999286]]}},
{"type":"Feature","properties":{"mountain_slug":"mount-kailash","trail":"Mount Kailash Kora","seq":228,"start_mile":22.8,"end_mile":22.9},"geometry":{"type":"LineString","coordinates":[[81.361017,30.999286],[81.36051,30.999076],[81.359732,30.998916],[81.359536,30.998695]]}},
{"type":"Feature","properties":{"mountain_slug":"mount-kailash","trail":"Mount Kailash Kora","seq":229,"start_mile":22.9,"end_mile":23.0},"geometry":{"type":"LineString","coordinates":[[81.359536,30.998695],[81.359517,30.998673],[81.358939,30.998506],[81.358489,30.997978],[81.358271,30.997821]]}},
{"type":"Feature","properties":{"mountain_slug":"mount-kailash","trail":"Mount Kailash Kora","seq":230,"start_mile":23.0,"end_mile":23.1},"geometry":{"type":"LineString","coordinates":[[81.358271,30.997821],[81.357726,30.99743],[81.357101,30.996783]]}},
{"type":"Feature","properties":{"mountain_slug":"mount-kailash","trail":"Mount Kailash Kora","seq":231,"start_mile":23.1,"end_mile":23.2},"geometry":{"type":"LineString","coordinates":[[81.357101,30.996783],[81.357039,30.996719],[81.356489,30.996275],[81.355857,30.995805]]}},
{"type":"Feature","properties":{"mountain_slug":"mount-kailash","trail":"Mount Kailash Kora","seq":232,"start_mile":23.2,"end_mile":23.3},"geometry":{"type":"LineString","coordinates":[[81.355857,30.995805],[81.354651,30.994907],[81.354574,30.994865]]}},
{"type":"Feature","properties":{"mountain_slug":"mount-kailash","trail":"Mount Kailash Kora","seq":233,"start_mile":23.3,"end_mile":23.4},"geometry":{"type":"LineString","coordinates":[[81.354574,30.994865],[81.353499,30.994279],[81.353285,30.994102],[81.353247,30.994007]]}},
{"type":"Feature","properties":{"mountain_slug":"mount-kailash","trail":"Mount Kailash Kora","seq":234,"start_mile":23.4,"end_mile":23.5},"geometry":{"type":"LineString","coordinates":[[81.353247,30.994007],[81.353172,30.993814],[81.352671,30.993563],[81.352202,30.993171],[81.352,30.993103]]}},
{"type":"Feature","properties":{"mountain_slug":"mount-kailash","trail":"Mount Kailash Kora","seq":235,"start_mile":23.5,"end_mile":23.6},"geometry":{"type":"LineString","coordinates":[[81.352,30.993103],[81.351892,30.993066],[81.3513,30.992611],[81.350895,30.992041]]}},
{"type":"Feature","properties":{"mountain_slug":"mount-kailash","trail":"Mount Kailash Kora","seq":236,"start_mile":23.6,"end_mile":23.7},"geometry":{"type":"LineString","coordinates":[[81.350895,30.992041],[81.35076,30.991851],[81.350035,30.991039],[81.349952,30.990847]]}},
{"type":"Feature","properties":{"mountain_slug":"mount-kailash","trail":"Mount Kailash Kora","seq":237,"start_mile":23.7,"end_mile":23.8},"geometry":{"type":"LineString","coordinates":[[81.349952,30.990847],[81.34973,30.990333],[81.349005,30.98968]]}},
{"type":"Feature","properties":{"mountain_slug":"mount-kailash","trail":"Mount Kailash Kora","seq":238,"start_mile":23.8,"end_mile":23.9},"geometry":{"type":"LineString","coordinates":[[81.349005,30.98968],[81.348876,30.989564],[81.348219,30.988695],[81.348115,30.988456]]}},
{"type":"Feature","properties":{"mountain_slug":"mount-kailash","trail":"Mount Kailash Kora","seq":239,"start_mile":23.9,"end_mile":24.0},"geometry":{"type":"LineString","coordinates":[[81.348115,30.988456],[81.347876,30.987905],[81.348,30.987728],[81.347965,30.987583],[81.347417,30.987395]]}},
{"type":"Feature","properties":{"mountain_slug":"mount-kailash","trail":"Mount Kailash Kora","seq":240,"start_mile":24.0,"end_mile":24.1},"geometry":{"type":"LineString","coordinates":[[81.347417,30.987395],[81.347121,30.987293],[81.346085,30.986525]]}},
{"type":"Feature","properties":{"mountain_slug":"mount-kailash","trail":"Mount Kailash Kora","seq":241,"start_mile":24.1,"end_mile":24.2},"geometry":{"type":"LineString","coordinates":[[81.346085,30.986525],[81.346053,30.986501],[81.345572,30.986274],[81.344544,30.98595]]}},
{"type":"Feature","properties":{"mountain_slug":"mount-kailash","trail":"Mount Kailash Kora","seq":242,"start_mile":24.2,"end_mile":24.3},"geometry":{"type":"LineString","coordinates":[[81.344544,30.98595],[81.344122,30.985818],[81.343508,30.985505],[81.343187,30.985149]]}},
{"type":"Feature","properties":{"mountain_slug":"mount-kailash","trail":"Mount Kailash Kora","seq":243,"start_mile":24.3,"end_mile":24.4},"geometry":{"type":"LineString","coordinates":[[81.343187,30.985149],[81.342566,30.98446],[81.342271,30.984309],[81.342033,30.984112]]}},
{"type":"Feature","properties":{"mountain_slug":"mount-kailash","trail":"Mount Kailash Kora","seq":244,"start_mile":24.4,"end_mile":24.5},"geometry":{"type":"LineString","coordinates":[[81.342033,30.984112],[81.341238,30.983453],[81.340849,30.98308]]}},
{"type":"Feature","properties":{"mountain_slug":"mount-kailash","trail":"Mount Kailash Kora","seq":245,"start_mile":24.5,"end_mile":24.6},"geometry":{"type":"LineString","coordinates":[[81.340849,30.98308],[81.340514,30.982759],[81.339708,30.982252],[81.339606,30.982117]]}},
{"type":"Feature","properties":{"mountain_slug":"mount-kailash","trail":"Mount Kailash Kora","seq":246,"start_mile":24.6,"end_mile":24.7},"geometry":{"type":"LineString","coordinates":[[81.339606,30.982117],[81.339446,30.981906],[81.338338,30.981179]]}},
{"type":"Feature","properties":{"mountain_slug":"mount-kailash","trail":"Mount Kailash Kora","seq":247,"start_mile":24.7,"end_mile":24.8},"geometry":{"type":"LineString","coordinates":[[81.338338,30.981179],[81.337738,30.980786],[81.337431,30.980386],[81.337157,30.980226],[81.337129,30.980197]]}},
{"type":"Feature","properties":{"mountain_slug":"mount-kailash","trail":"Mount Kailash Kora","seq":248,"start_mile":24.8,"end_mile":24.9},"geometry":{"type":"LineString","coordinates":[[81.337129,30.980197],[81.336462,30.979493],[81.336108,30.979043]]}},
{"type":"Feature","properties":{"mountain_slug":"mount-kailash","trail":"Mount Kailash Kora","seq":249,"start_mile":24.9,"end_mile":25.0},"geometry":{"type":"LineString","coordinates":[[81.336108,30.979043],[81.335327,30.97805],[81.335063,30.977939]]}},
{"type":"Feature","properties":{"mountain_slug":"mount-kailash","trail":"Mount Kailash Kora","seq":250,"start_mile":25.0,"end_mile":25.1},"geometry":{"type":"LineString","coordinates":[[81.335063,30.977939],[81.334988,30.977908],[81.334845,30.977403],[81.334137,30.976797]]}},
{"type":"Feature","properties":{"mountain_slug":"mount-kailash","trail":"Mount Kailash Kora","seq":251,"start_mile":25.1,"end_mile":25.2},"geometry":{"type":"LineString","coordinates":[[81.334137,30.976797],[81.333693,30.976417],[81.333426,30.975984],[81.333113,30.975658]]}},
{"type":"Feature","properties":{"mountain_slug":"mount-kailash","trail":"Mount Kailash Kora","seq":252,"start_mile":25.2,"end_mile":25.3},"geometry":{"type":"LineString","coordinates":[[81.333113,30.975658],[81.332484,30.975004],[81.332388,30.974674],[81.332172,30.974489]]}},
{"type":"Feature","properties":{"mountain_slug":"mount-kailash","trail":"Mount Kailash Kora","seq":253,"start_mile":25.3,"end_mile":25.4},"geometry":{"type":"LineString","coordinates":[[81.332172,30.974489],[81.331976,30.974323],[81.33111,30.973364]]}},
{"type":"Feature","properties":{"mountain_slug":"mount-kailash","trail":"Mount Kailash Kora","seq":254,"start_mile":25.4,"end_mile":25.5},"geometry":{"type":"LineString","coordinates":[[81.33111,30.973364],[81.330146,30.972295],[81.330099,30.972205]]}},
{"type":"Feature","properties":{"mountain_slug":"mount-kailash","trail":"Mount Kailash Kora","seq":255,"start_mile":25.5,"end_mile":25.6},"geometry":{"type":"LineString","coordinates":[[81.330099,30.972205],[81.329512,30.971069],[81.329321,30.970942]]}},
{"type":"Feature","properties":{"mountain_slug":"mount-kailash","trail":"Mount Kailash Kora","seq":256,"start_mile":25.6,"end_mile":25.7},"geometry":{"type":"LineString","coordinates":[[81.329321,30.970942],[81.329268,30.970907],[81.329031,30.970861],[81.328265,30.969876]]}},
{"type":"Feature","properties":{"mountain_slug":"mount-kailash","trail":"Mount Kailash Kora","seq":257,"start_mile":25.7,"end_mile":25.8},"geometry":{"type":"LineString","coordinates":[[81.328265,30.969876],[81.32793,30.969445],[81.327843,30.96881],[81.327698,30.968544]]}},
{"type":"Feature","properties":{"mountain_slug":"mount-kailash","trail":"Mount Kailash Kora","seq":258,"start_mile":25.8,"end_mile":25.9},"geometry":{"type":"LineString","coordinates":[[81.327698,30.968544],[81.327437,30.968063],[81.326857,30.967363],[81.326809,30.967318]]}},
{"type":"Feature","properties":{"mountain_slug":"mount-kailash","trail":"Mount Kailash Kora","seq":259,"start_mile":25.9,"end_mile":26.0},"geometry":{"type":"LineString","coordinates":[[81.326809,30.967318],[81.32643,30.966966],[81.325888,30.966695],[81.325507,30.966414]]}},
{"type":"Feature","properties":{"mountain_slug":"mount-kailash","trail":"Mount Kailash Kora","seq":260,"start_mile":26.0,"end_mile":26.1},"geometry":{"type":"LineString","coordinates":[[81.325507,30.966414],[81.325407,30.96634],[81.325087,30.965984],[81.324797,30.965406],[81.324556,30.965252]]}},
{"type":"Feature","properties":{"mountain_slug":"mount-kailash","trail":"Mount Kailash Kora","seq":261,"start_mile":26.1,"end_mile":26.2},"geometry":{"type":"LineString","coordinates":[[81.324556,30.965252],[81.324309,30.965095],[81.324019,30.964647],[81.323975,30.963973]]}},
{"type":"Feature","properties":{"mountain_slug":"mount-kailash","trail":"Mount Kailash Kora","seq":262,"start_mile":26.2,"end_mile":26.3},"geometry":{"type":"LineString","coordinates":[[81.323975,30.963973],[81.323966,30.963825],[81.323584,30.963239],[81.322964,30.962903]]}},
{"type":"Feature","properties":{"mountain_slug":"mount-kailash","trail":"Mount Kailash Kora","seq":263,"start_mile":26.3,"end_mile":26.4},"geometry":{"type":"LineString","coordinates":[[81.322964,30.962903],[81.322905,30.962871],[81.322577,30.962776],[81.322073,30.962795],[81.321845,30.962671],[81.321357,30.962599]]}},
{"type":"Feature","properties":{"mountain_slug":"mount-kailash","trail":"Mount Kailash Kora","seq":264,"start_mile":26.4,"end_mile":26.5},"geometry":{"type":"LineString","coordinates":[[81.321357,30.962599],[81.321224,30.962579],[81.321079,30.962623],[81.320631,30.962386],[81.320464,30.962425],[81.320296,30.962186],[81.319983,30.962097],[81.319975,30.962059]]}},
{"type":"Feature","properties":{"mountain_slug":"mount-kailash","trail":"Mount Kailash Kora","seq":265,"start_mile":26.5,"end_mile":26.6},"geometry":{"type":"LineString","coordinates":[[81.319975,30.962059],[81.31994,30.961885],[81.319362,30.961142],[81.318928,30.961072]]}},
{"type":"Feature","properties":{"mountain_slug":"mount-kailash","trail":"Mount Kailash Kora","seq":266,"start_mile":26.6,"end_mile":26.7},"geometry":{"type":"LineString","coordinates":[[81.318928,30.961072],[81.318666,30.961029],[81.317248,30.961063]]}},
{"type":"Feature","properties":{"mountain_slug":"mount-kailash","trail":"Mount Kailash Kora","seq":267,"start_mile":26.7,"end_mile":26.8},"geometry":{"type":"LineString","coordinates":[[81.317248,30.961063],[81.315873,30.961096],[81.315577,30.961176]]}},
{"type":"Feature","properties":{"mountain_slug":"mount-kailash","trail":"Mount Kailash Kora","seq":268,"start_mile":26.8,"end_mile":26.9},"geometry":{"type":"LineString","coordinates":[[81.315577,30.961176],[81.314778,30.96139],[81.314034,30.961647],[81.313997,30.961671]]}},
{"type":"Feature","properties":{"mountain_slug":"mount-kailash","trail":"Mount Kailash Kora","seq":269,"start_mile":26.9,"end_mile":27.0},"geometry":{"type":"LineString","coordinates":[[81.313997,30.961671],[81.313483,30.961994],[81.312527,30.962367]]}},
{"type":"Feature","properties":{"mountain_slug":"mount-kailash","trail":"Mount Kailash Kora","seq":270,"start_mile":27.0,"end_mile":27.1},"geometry":{"type":"LineString","coordinates":[[81.312527,30.962367],[81.310992,30.962966]]}},
{"type":"Feature","properties":{"mountain_slug":"mount-kailash","trail":"Mount Kailash Kora","seq":271,"start_mile":27.1,"end_mile":27.2},"geometry":{"type":"LineString","coordinates":[[81.310992,30.962966],[81.309624,30.9635],[81.309472,30.963588]]}},
{"type":"Feature","properties":{"mountain_slug":"mount-kailash","trail":"Mount Kailash Kora","seq":272,"start_mile":27.2,"end_mile":27.3},"geometry":{"type":"LineString","coordinates":[[81.309472,30.963588],[81.309065,30.963827],[81.307948,30.964189]]}},
{"type":"Feature","properties":{"mountain_slug":"mount-kailash","trail":"Mount Kailash Kora","seq":273,"start_mile":27.3,"end_mile":27.4},"geometry":{"type":"LineString","coordinates":[[81.307948,30.964189],[81.307668,30.964279],[81.30644,30.964833]]}},
{"type":"Feature","properties":{"mountain_slug":"mount-kailash","trail":"Mount Kailash Kora","seq":274,"start_mile":27.4,"end_mile":27.5},"geometry":{"type":"LineString","coordinates":[[81.30644,30.964833],[81.304947,30.965506]]}},
{"type":"Feature","properties":{"mountain_slug":"mount-kailash","trail":"Mount Kailash Kora","seq":275,"start_mile":27.5,"end_mile":27.6},"geometry":{"type":"LineString","coordinates":[[81.304947,30.965506],[81.30423,30.965829],[81.303915,30.966115],[81.303556,30.9663]]}},
{"type":"Feature","properties":{"mountain_slug":"mount-kailash","trail":"Mount Kailash Kora","seq":276,"start_mile":27.6,"end_mile":27.7},"geometry":{"type":"LineString","coordinates":[[81.303556,30.9663],[81.302473,30.96686],[81.302167,30.967111]]}},
{"type":"Feature","properties":{"mountain_slug":"mount-kailash","trail":"Mount Kailash Kora","seq":277,"start_mile":27.7,"end_mile":27.8},"geometry":{"type":"LineString","coordinates":[[81.302167,30.967111],[81.301102,30.967989],[81.300965,30.968128]]}},
{"type":"Feature","properties":{"mountain_slug":"mount-kailash","trail":"Mount Kailash Kora","seq":278,"start_mile":27.8,"end_mile":27.9},"geometry":{"type":"LineString","coordinates":[[81.300965,30.968128],[81.300511,30.968588],[81.300007,30.969267],[81.299975,30.969299]]}},
{"type":"Feature","properties":{"mountain_slug":"mount-kailash","trail":"Mount Kailash Kora","seq":279,"start_mile":27.9,"end_mile":28.0},"geometry":{"type":"LineString","coordinates":[[81.299975,30.969299],[81.29886,30.970387]]}},
{"type":"Feature","properties":{"mountain_slug":"mount-kailash","trail":"Mount Kailash Kora","seq":280,"start_mile":28.0,"end_mile":28.1},"geometry":{"type":"LineString","coordinates":[[81.29886,30.970387],[81.298224,30.971008],[81.297616,30.971348]]}},
{"type":"Feature","properties":{"mountain_slug":"mount-kailash","trail":"Mount Kailash Kora","seq":281,"start_mile":28.1,"end_mile":28.2},"geometry":{"type":"LineString","coordinates":[[81.297616,30.971348],[81.296507,30.971971],[81.296176,30.972096]]}},
{"type":"Feature","properties":{"mountain_slug":"mount-kailash","trail":"Mount Kailash Kora","seq":282,"start_mile":28.2,"end_mile":28.3},"geometry":{"type":"LineString","coordinates":[[81.296176,30.972096],[81.295652,30.972295],[81.29473,30.972831]]}},
{"type":"Feature","properties":{"mountain_slug":"mount-kailash","trail":"Mount Kailash Kora","seq":283,"start_mile":28.3,"end_mile":28.4},"geometry":{"type":"LineString","coordinates":[[81.29473,30.972831],[81.293341,30.97364],[81.293335,30.973646]]}},
{"type":"Feature","properties":{"mountain_slug":"mount-kailash","trail":"Mount Kailash Kora","seq":284,"start_mile":28.4,"end_mile":28.5},"geometry":{"type":"LineString","coordinates":[[81.293335,30.973646],[81.292693,30.974323],[81.292578,30.97459],[81.292347,30.974804]]}},
{"type":"Feature","properties":{"mountain_slug":"mount-kailash","trail":"Mount Kailash Kora","seq":285,"start_mile":28.5,"end_mile":28.6},"geometry":{"type":"LineString","coordinates":[[81.292347,30.974804],[81.291201,30.97587]]}},
{"type":"Feature","properties":{"mountain_slug":"mount-kailash","trail":"Mount Kailash Kora","seq":286,"start_mile":28.6,"end_mile":28.7},"geometry":{"type":"LineString","coordinates":[[81.291201,30.97587],[81.29098,30.976075],[81.289926,30.976767],[81.289894,30.97678]]}},
{"type":"Feature","properties":{"mountain_slug":"mount-kailash","trail":"Mount Kailash Kora","seq":287,"start_mile":28.7,"end_mile":28.79},"geometry":{"type":"LineString","coordinates":[[81.289894,30.97678],[81.288984,30.977177],[81.288474,30.977292]]}}
]}
