{"type": "FeatureCollection", "attribution": "© OpenStreetMap contributors (ODbL 1.0), via Overture Maps Foundation release 2026-09-23.0", "license": "ODbL-1.0", "source": "https://overturemaps-us-west-2.s3.amazonaws.com/release/2026-09-23.0/theme=transportation/type=segment/", "features": [
{"type":"Feature","properties":{"mountain_slug":"mount-kailash","name":"Dakini Secret Path","length_km":6.33,"elevation_gain_m":609,"source":"© OpenStreetMap contributors (ODbL), via Overture Maps"},"geometry":{"type":"LineString","coordinates":[[81.376106,31.056701],[81.376011,31.057153],[81.37621,31.058302],[81.375976,31.058719],[81.37563,31.060066],[81.37529,31.060694],[81.375022,31.061583],[81.374287,31.062329],[81.373609,31.063226],[81.372728,31.063933],[81.371596,31.064524],[81.370953,31.064611],[81.370368,31.064528],[81.369869,31.064684],[81.369558,31.064592],[81.369005,31.064643],[81.368496,31.064827],[81.3676,31.064652],[81.366602,31.064611],[81.365476,31.065107],[81.364886,31.06575],[81.364041,31.066028],[81.36378,31.066233],[81.363563,31.066561],[81.363483,31.066897],[81.363314,31.067053],[81.362678,31.067299],[81.362517,31.067297],[81.362211,31.067738],[81.36208,31.068181],[81.361785,31.068535],[81.361085,31.069004],[81.360953,31.069114],[81.360889,31.069325],[81.358343,31.071257],[81.358097,31.071524],[81.357626,31.072334],[81.356388,31.072799],[81.355447,31.0727],[81.354897,31.072987],[81.353966,31.073715],[81.353832,31.074076],[81.353647,31.074205],[81.353618,31.074448],[81.353374,31.074621],[81.353392,31.074765],[81.352934,31.07488],[81.351837,31.075664],[81.351885,31.075797],[81.351512,31.075866],[81.351029,31.076095],[81.350664,31.075978],[81.350364,31.076123],[81.349779,31.076564],[81.349554,31.077067],[81.34905,31.077228],[81.348991,31.077472],[81.348717,31.077701],[81.348503,31.07755],[81.348277,31.077518],[81.348127,31.077706],[81.347843,31.077793],[81.347687,31.078322],[81.347725,31.078698],[81.348036,31.078905],[81.348299,31.079319],[81.348669,31.080325],[81.348304,31.081441],[81.348449,31.081979],[81.34799,31.083104],[81.348216,31.084388],[81.348106,31.084602],[81.347923,31.084685],[81.347907,31.085098],[81.347644,31.085994],[81.34769,31.086377],[81.34743,31.086988],[81.347422,31.08751],[81.347532,31.08776],[81.347526,31.088521],[81.347191,31.088844],[81.347132,31.089127],[81.346982,31.089256],[81.346866,31.090105],[81.346577,31.090262],[81.346014,31.091052],[81.346244,31.091396],[81.346271,31.091672],[81.346062,31.092554],[81.345552,31.092834],[81.345289,31.093101],[81.345118,31.093546],[81.34493,31.094042],[81.34486,31.094741],[81.344592,31.095113],[81.344694,31.096123],[81.344421,31.096826]]}},
{"type":"Feature","properties":{"mountain_slug":"mount-kailash","name":"Mount Kailash Inner Kora","length_km":8.15,"elevation_gain_m":559,"source":"© OpenStreetMap contributors (ODbL), via Overture Maps"},"geometry":{"type":"LineString","coordinates":[[81.297112,31.032419],[81.29758,31.032603],[81.298387,31.033121],[81.299544,31.033332],[81.300165,31.033716],[81.30087,31.033744],[81.301724,31.034182],[81.303237,31.035274],[81.306324,31.035774],[81.308326,31.03674],[81.309123,31.037273],[81.31016,31.037749],[81.310804,31.038346],[81.312027,31.039039],[81.312746,31.039591],[81.313243,31.040127],[81.314124,31.040588],[81.315697,31.042008],[81.315929,31.04259],[81.31814,31.044592],[81.318617,31.045493],[81.31896,31.046595],[81.319152,31.047553],[81.31991,31.049323],[81.319385,31.050038],[81.319165,31.051742],[81.318917,31.051991],[81.318512,31.053317],[81.317877,31.053679],[81.317481,31.054513],[81.31753,31.054979],[81.317265,31.05551],[81.316419,31.056091],[81.315815,31.056225],[81.315649,31.056491],[81.315761,31.056789],[81.315224,31.057392],[81.314129,31.058028],[81.313248,31.058242],[81.311574,31.059261],[81.310698,31.058814],[81.309527,31.058733],[81.30891,31.057897],[81.307153,31.057274],[81.306252,31.056686],[81.304321,31.054553],[81.303632,31.053632],[81.303376,31.052605],[81.302947,31.051686],[81.301486,31.049073],[81.298956,31.047126],[81.2978,31.045031],[81.297843,31.042788],[81.297628,31.041023],[81.297764,31.039865],[81.298065,31.038534],[81.297882,31.037819],[81.297966,31.037506],[81.298553,31.036501],[81.298492,31.036139],[81.298538,31.035791],[81.298424,31.034904],[81.298035,31.034056],[81.297935,31.033998],[81.297699,31.033482],[81.29744,31.033169],[81.297401,31.032875],[81.297134,31.032553],[81.297112,31.032419]]}},
{"type":"Feature","properties":{"mountain_slug":"mount-kailash","name":"Mount Kailash Kora","length_km":46.34,"elevation_gain_m":1270,"source":"© OpenStreetMap contributors (ODbL), via Overture Maps","note":"The hero trail, named by the pack. Mile 0 is the lower trailhead. Mile markers in trail_segments.geojson."},"geometry":{"type":"LineString","coordinates":[[81.282751,30.9784],[81.28258,30.978713],[81.278263,30.980276],[81.276266,30.980793],[81.275341,30.981398],[81.273671,30.982173],[81.27158,30.984038],[81.268137,30.986482],[81.265616,30.987841],[81.261832,30.990468],[81.259795,30.993247],[81.259081,30.993811],[81.258362,30.993645],[81.258009,30.995988],[81.257582,30.997348],[81.25743,30.998529],[81.257697,31.001289],[81.258185,31.002689],[81.258176,31.003374],[81.258388,31.004412],[81.258743,31.008497],[81.259297,31.012406],[81.259499,31.012412],[81.259151,31.015378],[81.260596,31.017879],[81.26097,31.018358],[81.261061,31.018728],[81.261702,31.019764],[81.261857,31.020711],[81.262162,31.021352],[81.263762,31.022928],[81.264296,31.023748],[81.264777,31.024309],[81.265593,31.025808],[81.267546,31.027507],[81.267632,31.027797],[81.268198,31.028297],[81.269411,31.030354],[81.270758,31.0317],[81.271956,31.032749],[81.272475,31.033326],[81.273039,31.034034],[81.273749,31.035194],[81.275073,31.038191],[81.275724,31.040166],[81.275927,31.040447],[81.276366,31.04071],[81.276553,31.041279],[81.276881,31.041911],[81.276898,31.042561],[81.277116,31.043374],[81.27711,31.044289],[81.277234,31.044534],[81.27723,31.044762],[81.277492,31.045174],[81.278189,31.045858],[81.278596,31.046661],[81.278791,31.047285],[81.279425,31.048293],[81.280173,31.049882],[81.280173,31.050205],[81.279976,31.050513],[81.279921,31.050775],[81.279948,31.051483],[81.280075,31.05186],[81.280728,31.052606],[81.280806,31.05327],[81.280672,31.054172],[81.280692,31.055314],[81.280618,31.055396],[81.281317,31.057252],[81.281226,31.058614],[81.281242,31.059907],[81.281525,31.060589],[81.281585,31.060948],[81.281824,31.061325],[81.282034,31.061885],[81.282092,31.062367],[81.281829,31.064129],[81.281891,31.065197],[81.281738,31.067566],[81.282141,31.068658],[81.282318,31.068858],[81.2826,31.069835],[81.282576,31.070424],[81.282381,31.070881],[81.282525,31.071498],[81.282461,31.071811],[81.282553,31.072179],[81.282396,31.072416],[81.282151,31.073718],[81.282182,31.074045],[81.282582,31.074685],[81.282821,31.075693],[81.283068,31.0759],[81.283153,31.076112],[81.283411,31.076231],[81.283518,31.07641],[81.283649,31.076471],[81.284073,31.077084],[81.284339,31.077839],[81.284564,31.080288],[81.284875,31.080982],[81.28597,31.082875],[81.28622,31.083022],[81.286417,31.083397],[81.286855,31.083751],[81.286986,31.084024],[81.287531,31.086619],[81.287924,31.087821],[81.28987,31.090468],[81.290907,31.091222],[81.291724,31.091649],[81.292657,31.092739],[81.292805,31.09317],[81.293183,31.093688],[81.294554,31.0951],[81.294875,31.095779],[81.295508,31.09661],[81.295653,31.096929],[81.296637,31.097686],[81.298064,31.098518],[81.298659,31.098632],[81.299956,31.099115],[81.300993,31.099262],[81.302077,31.099527],[81.304431,31.100347],[81.308585,31.100768],[81.30876,31.100929],[81.309073,31.101011],[81.309798,31.101076],[81.310751,31.101314],[81.311919,31.101297],[81.312621,31.10148],[81.313368,31.101474],[81.313658,31.10159],[81.314635,31.101718],[81.314955,31.101823],[81.315662,31.101816],[81.316352,31.102004],[81.318123,31.1022],[81.318862,31.102205],[81.319312,31.102056],[81.320368,31.102097],[81.322053,31.101869],[81.323654,31.101869],[81.324599,31.101787],[81.325988,31.101136],[81.326171,31.100858],[81.326792,31.100421],[81.327031,31.100416],[81.328009,31.100916],[81.328429,31.100984],[81.329733,31.100868],[81.329971,31.101047],[81.330175,31.101042],[81.330443,31.100684],[81.330634,31.100905],[81.331495,31.100406],[81.331599,31.100427],[81.331426,31.10118],[81.331421,31.101262],[81.331491,31.101263],[81.331964,31.100744],[81.333611,31.099621],[81.334062,31.099564],[81.336595,31.098578],[81.337858,31.098231],[81.33851,31.098157],[81.339038,31.098183],[81.34084,31.09799],[81.341459,31.097738],[81.342843,31.097359],[81.343778,31.09691],[81.345084,31.096738],[81.345681,31.096585],[81.346606,31.096054],[81.347379,31.095301],[81.347529,31.095786],[81.348025,31.095556],[81.348157,31.095698],[81.348012,31.095939],[81.348205,31.096229],[81.34795,31.09684],[81.348014,31.096982],[81.35111,31.097974],[81.351595,31.098262],[81.352193,31.098317],[81.353726,31.098975],[81.354292,31.09906],[81.355079,31.099357],[81.355771,31.099699],[81.355981,31.100025],[81.356624,31.100124],[81.356726,31.100225],[81.358703,31.100763],[81.359713,31.101116],[81.360149,31.100992],[81.360825,31.101047],[81.361844,31.100873],[81.361871,31.100634],[81.362069,31.100239],[81.362826,31.099839],[81.363094,31.099904],[81.363577,31.099596],[81.363539,31.099256],[81.363786,31.099215],[81.363952,31.098953],[81.364253,31.098884],[81.364778,31.098392],[81.36502,31.098346],[81.36547,31.098048],[81.366173,31.097855],[81.366559,31.097547],[81.367026,31.09746],[81.36723,31.097299],[81.367648,31.097267],[81.367766,31.097037],[81.367933,31.096959],[81.368212,31.096969],[81.368367,31.096716],[81.368673,31.096537],[81.368713,31.09638],[81.36907,31.096075],[81.369295,31.096132],[81.369673,31.095836],[81.370529,31.09481],[81.370363,31.094442],[81.370245,31.094465],[81.370151,31.094385],[81.370137,31.094176],[81.370223,31.094116],[81.370644,31.09415],[81.370768,31.094077],[81.371854,31.093973],[81.372302,31.09376],[81.372637,31.093723],[81.373171,31.093454],[81.373699,31.093071],[81.373785,31.092775],[81.373753,31.092588],[81.373892,31.092513],[81.374029,31.09221],[81.374214,31.092108],[81.374211,31.091951],[81.374466,31.091933],[81.374536,31.091881],[81.374438,31.091796],[81.374525,31.091789],[81.374775,31.091965],[81.375035,31.091773],[81.375051,31.091663],[81.375309,31.091463],[81.37563,31.09102],[81.375757,31.090464],[81.376103,31.089913],[81.376867,31.089026],[81.377232,31.088822],[81.377502,31.088767],[81.377964,31.088478],[81.378085,31.088293],[81.378318,31.088277],[81.37893,31.087841],[81.379237,31.08775],[81.379568,31.087482],[81.37973,31.087125],[81.380295,31.086671],[81.380657,31.086506],[81.381698,31.086322],[81.381856,31.086136],[81.382733,31.085943],[81.383226,31.085654],[81.383951,31.084878],[81.384256,31.083986],[81.384305,31.082921],[81.384509,31.082535],[81.384466,31.082415],[81.38468,31.082264],[81.38457,31.082094],[81.384793,31.082048],[81.384739,31.081857],[81.384871,31.081827],[81.384903,31.081602],[81.385126,31.081528],[81.385276,31.081292],[81.385417,31.081335],[81.386231,31.080899],[81.386495,31.079996],[81.38546,31.079202],[81.385308,31.078881],[81.385102,31.078733],[81.385056,31.078485],[81.384773,31.077968],[81.384712,31.077653],[81.384934,31.07713],[81.384941,31.076821],[81.385124,31.076245],[81.384896,31.075877],[81.384941,31.075725],[81.384796,31.075322],[81.384522,31.075009],[81.384392,31.074719],[81.38427,31.07466],[81.38411,31.074327],[81.383904,31.074229],[81.383232,31.073493],[81.38295,31.072936],[81.382454,31.072246],[81.381401,31.070977],[81.381287,31.070596],[81.381058,31.070218],[81.380768,31.070043],[81.380562,31.070006],[81.380066,31.069173],[81.379807,31.06886],[81.37957,31.068707],[81.379257,31.06747],[81.379128,31.06607],[81.379219,31.06574],[81.378823,31.064933],[81.378777,31.064109],[81.378502,31.063632],[81.378464,31.063426],[81.378288,31.063304],[81.377983,31.062379],[81.378044,31.061872],[81.37796,31.061065],[81.377196,31.059793],[81.377106,31.059766],[81.376991,31.058095],[81.376869,31.05771],[81.376641,31.057193],[81.376358,31.057029],[81.376106,31.056701],[81.376145,31.055852],[81.376061,31.055465],[81.375954,31.05532],[81.376007,31.053939],[81.37648,31.053041],[81.376686,31.052421],[81.376518,31.051469],[81.37632,31.051045],[81.376346,31.050024],[81.376545,31.049124],[81.37641,31.048604],[81.376796,31.046061],[81.376906,31.04594],[81.377076,31.045247],[81.377235,31.044025],[81.377452,31.043699],[81.377536,31.042994],[81.377253,31.041714],[81.377301,31.040414],[81.376849,31.039433],[81.376791,31.039013],[81.376886,31.037853],[81.377131,31.036589],[81.37683,31.035837],[81.376404,31.035394],[81.376418,31.035049],[81.376655,31.034747],[81.376883,31.034232],[81.377058,31.033544],[81.377089,31.032762],[81.377043,31.032602],[81.376456,31.032099],[81.376278,31.031164],[81.376025,31.030466],[81.376294,31.030016],[81.376444,31.029322],[81.376776,31.028549],[81.377298,31.027894],[81.377257,31.027221],[81.376959,31.026347],[81.376974,31.023837],[81.377299,31.021443],[81.377834,31.020273],[81.37795,31.019819],[81.377515,31.018043],[81.377551,31.016413],[81.377343,31.01623],[81.377385,31.014851],[81.377256,31.014603],[81.377197,31.013343],[81.376923,31.013054],[81.376843,31.012732],[81.376677,31.01258],[81.376623,31.012369],[81.376264,31.011886],[81.375892,31.011087],[81.3754,31.010314],[81.375239,31.010185],[81.374594,31.008808],[81.373793,31.007966],[81.373442,31.007402],[81.3723,31.006523],[81.371418,31.005912],[81.37093,31.005752],[81.369984,31.0051],[81.368954,31.004575],[81.367842,31.003697],[81.366148,31.003114],[81.365507,31.002709],[81.36525,31.002675],[81.363397,31.001595],[81.361929,30.999946],[81.361614,30.999467],[81.361342,30.999421],[81.36051,30.999076],[81.359732,30.998916],[81.359517,30.998673],[81.358939,30.998506],[81.358489,30.997978],[81.357726,30.99743],[81.357039,30.996719],[81.356489,30.996275],[81.354651,30.994907],[81.353499,30.994279],[81.353285,30.994102],[81.353172,30.993814],[81.352671,30.993563],[81.352202,30.993171],[81.351892,30.993066],[81.3513,30.992611],[81.35076,30.991851],[81.350035,30.991039],[81.34973,30.990333],[81.348876,30.989564],[81.348219,30.988695],[81.347876,30.987905],[81.348,30.987728],[81.347965,30.987583],[81.347121,30.987293],[81.346053,30.986501],[81.345572,30.986274],[81.344122,30.985818],[81.343508,30.985505],[81.342566,30.98446],[81.342271,30.984309],[81.341238,30.983453],[81.340514,30.982759],[81.339708,30.982252],[81.339446,30.981906],[81.337738,30.980786],[81.337431,30.980386],[81.337157,30.980226],[81.336462,30.979493],[81.335327,30.97805],[81.334988,30.977908],[81.334845,30.977403],[81.333693,30.976417],[81.333426,30.975984],[81.332484,30.975004],[81.332388,30.974674],[81.331976,30.974323],[81.330146,30.972295],[81.329512,30.971069],[81.329268,30.970907],[81.329031,30.970861],[81.32793,30.969445],[81.327843,30.96881],[81.327437,30.968063],[81.326857,30.967363],[81.32643,30.966966],[81.325888,30.966695],[81.325407,30.96634],[81.325087,30.965984],[81.324797,30.965406],[81.324309,30.965095],[81.324019,30.964647],[81.323966,30.963825],[81.323584,30.963239],[81.322905,30.962871],[81.322577,30.962776],[81.322073,30.962795],[81.321845,30.962671],[81.321224,30.962579],[81.321079,30.962623],[81.320631,30.962386],[81.320464,30.962425],[81.320296,30.962186],[81.319983,30.962097],[81.31994,30.961885],[81.319362,30.961142],[81.318666,30.961029],[81.315873,30.961096],[81.314778,30.96139],[81.314034,30.961647],[81.313483,30.961994],[81.309624,30.9635],[81.309065,30.963827],[81.307668,30.964279],[81.30423,30.965829],[81.303915,30.966115],[81.302473,30.96686],[81.301102,30.967989],[81.300511,30.968588],[81.300007,30.969267],[81.298224,30.971008],[81.296507,30.971971],[81.295652,30.972295],[81.293341,30.97364],[81.292693,30.974323],[81.292578,30.97459],[81.29098,30.976075],[81.289926,30.976767],[81.288984,30.977177],[81.288474,30.977292]]}}
]}
