{
  "type": "FeatureCollection",
  "attribution": "© OpenStreetMap contributors",
  "license": "ODbL-1.0",
  "source": "https://www.openstreetmap.org/copyright",
  "features": [
    {
      "type": "Feature",
      "properties": {
        "mountain_slug": "mynydd-merthyr",
        "name": "Mid Road",
        "length_km": 3.63,
        "elevation_gain_m": 150,
        "source": "© OpenStreetMap contributors"
      },
      "geometry": {
        "type": "LineString",
        "coordinates": [
          [
            -3.39526,
            51.72079
          ],
          [
            -3.39518,
            51.72072
          ],
          [
            -3.39488,
            51.7207
          ],
          [
            -3.39343,
            51.72091
          ],
          [
            -3.39251,
            51.7211
          ],
          [
            -3.39169,
            51.72137
          ],
          [
            -3.39043,
            51.72207
          ],
          [
            -3.38897,
            51.72235
          ],
          [
            -3.38817,
            51.72269
          ],
          [
            -3.38771,
            51.72283
          ],
          [
            -3.3872,
            51.72293
          ],
          [
            -3.38628,
            51.72287
          ],
          [
            -3.38604,
            51.72276
          ],
          [
            -3.38585,
            51.72255
          ],
          [
            -3.38563,
            51.72207
          ],
          [
            -3.38509,
            51.72143
          ],
          [
            -3.38501,
            51.72109
          ],
          [
            -3.38452,
            51.72078
          ],
          [
            -3.38482,
            51.7201
          ],
          [
            -3.3848,
            51.7199
          ],
          [
            -3.38463,
            51.71977
          ],
          [
            -3.38425,
            51.71968
          ],
          [
            -3.38103,
            51.71919
          ],
          [
            -3.38026,
            51.71889
          ],
          [
            -3.37891,
            51.71825
          ],
          [
            -3.37848,
            51.7181
          ],
          [
            -3.37715,
            51.71777
          ],
          [
            -3.37689,
            51.71767
          ],
          [
            -3.37654,
            51.71744
          ],
          [
            -3.37646,
            51.71737
          ],
          [
            -3.37643,
            51.71695
          ],
          [
            -3.37567,
            51.71645
          ],
          [
            -3.37521,
            51.71605
          ],
          [
            -3.37472,
            51.7151
          ],
          [
            -3.37468,
            51.71486
          ],
          [
            -3.37507,
            51.71443
          ],
          [
            -3.37506,
            51.71418
          ],
          [
            -3.37486,
            51.71385
          ],
          [
            -3.37393,
            51.7131
          ],
          [
            -3.37331,
            51.71247
          ],
          [
            -3.3719,
            51.71155
          ],
          [
            -3.37151,
            51.71098
          ],
          [
            -3.37056,
            51.71037
          ],
          [
            -3.36932,
            51.70979
          ],
          [
            -3.36884,
            51.70943
          ],
          [
            -3.3686,
            51.70906
          ],
          [
            -3.36845,
            51.7084
          ],
          [
            -3.36856,
            51.708
          ],
          [
            -3.36875,
            51.70787
          ],
          [
            -3.36982,
            51.70784
          ],
          [
            -3.37059,
            51.70794
          ],
          [
            -3.37144,
            51.70775
          ],
          [
            -3.3722,
            51.70783
          ],
          [
            -3.3726,
            51.70782
          ],
          [
            -3.3728,
            51.7078
          ],
          [
            -3.37321,
            51.70767
          ],
          [
            -3.3745,
            51.70704
          ],
          [
            -3.37537,
            51.70634
          ],
          [
            -3.37552,
            51.70619
          ],
          [
            -3.37555,
            51.70607
          ],
          [
            -3.37547,
            51.70546
          ]
        ]
      }
    },
    {
      "type": "Feature",
      "properties": {
        "mountain_slug": "mynydd-merthyr",
        "name": "Beast of Burden",
        "length_km": 1.16,
        "elevation_gain_m": 43,
        "source": "© OpenStreetMap contributors"
      },
      "geometry": {
        "type": "LineString",
        "coordinates": [
          [
            -3.37547,
            51.70546
          ],
          [
            -3.37799,
            51.70768
          ],
          [
            -3.381,
            51.7102
          ],
          [
            -3.38167,
            51.71102
          ],
          [
            -3.38168,
            51.71116
          ],
          [
            -3.38184,
            51.71138
          ],
          [
            -3.38237,
            51.712
          ],
          [
            -3.38246,
            51.71202
          ],
          [
            -3.38272,
            51.71228
          ],
          [
            -3.38284,
            51.71248
          ],
          [
            -3.38357,
            51.71305
          ],
          [
            -3.38395,
            51.71314
          ],
          [
            -3.38434,
            51.71353
          ],
          [
            -3.38444,
            51.71357
          ],
          [
            -3.38494,
            51.71359
          ],
          [
            -3.38516,
            51.71369
          ]
        ]
      }
    },
    {
      "type": "Feature",
      "properties": {
        "mountain_slug": "mynydd-merthyr",
        "name": "Upper Road",
        "length_km": 0.79,
        "elevation_gain_m": 52,
        "source": "© OpenStreetMap contributors"
      },
      "geometry": {
        "type": "LineString",
        "coordinates": [
          [
            -3.39348,
            51.71726
          ],
          [
            -3.39354,
            51.71681
          ],
          [
            -3.39341,
            51.7163
          ],
          [
            -3.39332,
            51.71623
          ],
          [
            -3.39254,
            51.71621
          ],
          [
            -3.39165,
            51.7158
          ],
          [
            -3.3911,
            51.71575
          ],
          [
            -3.39032,
            51.71575
          ],
          [
            -3.38993,
            51.71566
          ],
          [
            -3.38807,
            51.7149
          ],
          [
            -3.3866,
            51.71413
          ],
          [
            -3.38637,
            51.71388
          ],
          [
            -3.38632,
            51.71369
          ],
          [
            -3.38637,
            51.71296
          ]
        ]
      }
    },
    {
      "type": "Feature",
      "properties": {
        "mountain_slug": "mynydd-merthyr",
        "name": "Lower Road",
        "length_km": 1.99,
        "elevation_gain_m": 147,
        "source": "© OpenStreetMap contributors"
      },
      "geometry": {
        "type": "LineString",
        "coordinates": [
          [
            -3.37399,
            51.71993
          ],
          [
            -3.37496,
            51.72007
          ],
          [
            -3.37606,
            51.72017
          ],
          [
            -3.378,
            51.72014
          ],
          [
            -3.37911,
            51.72017
          ],
          [
            -3.3802,
            51.72038
          ],
          [
            -3.38107,
            51.72073
          ],
          [
            -3.38119,
            51.72081
          ],
          [
            -3.38129,
            51.721
          ],
          [
            -3.38125,
            51.72144
          ],
          [
            -3.3813,
            51.72154
          ],
          [
            -3.38204,
            51.72216
          ],
          [
            -3.38253,
            51.72295
          ],
          [
            -3.3823,
            51.72365
          ],
          [
            -3.3823,
            51.72386
          ],
          [
            -3.38242,
            51.72406
          ],
          [
            -3.38257,
            51.72418
          ],
          [
            -3.38341,
            51.72464
          ],
          [
            -3.38414,
            51.72488
          ],
          [
            -3.38488,
            51.72496
          ],
          [
            -3.38526,
            51.72493
          ],
          [
            -3.38811,
            51.72441
          ],
          [
            -3.38968,
            51.72371
          ],
          [
            -3.3924,
            51.72227
          ],
          [
            -3.39291,
            51.72168
          ],
          [
            -3.39359,
            51.72137
          ],
          [
            -3.3943,
            51.72113
          ],
          [
            -3.39483,
            51.721
          ],
          [
            -3.39526,
            51.72079
          ]
        ]
      }
    },
    {
      "type": "Feature",
      "properties": {
        "mountain_slug": "mynydd-merthyr",
        "name": "Cefnpennar Road",
        "length_km": 0.91,
        "elevation_gain_m": 103,
        "source": "© OpenStreetMap contributors"
      },
      "geometry": {
        "type": "LineString",
        "coordinates": [
          [
            -3.39551,
            51.70277
          ],
          [
            -3.39556,
            51.70301
          ],
          [
            -3.39571,
            51.70316
          ],
          [
            -3.39586,
            51.70464
          ],
          [
            -3.39608,
            51.70487
          ],
          [
            -3.39627,
            51.70498
          ],
          [
            -3.3965,
            51.70528
          ],
          [
            -3.39621,
            51.70595
          ],
          [
            -3.3962,
            51.7062
          ],
          [
            -3.39659,
            51.70755
          ],
          [
            -3.39661,
            51.7079
          ],
          [
            -3.39645,
            51.70808
          ],
          [
            -3.39651,
            51.70837
          ],
          [
            -3.39673,
            51.7087
          ],
          [
            -3.39662,
            51.70902
          ],
          [
            -3.39691,
            51.70945
          ],
          [
            -3.39726,
            51.71016
          ],
          [
            -3.39714,
            51.71058
          ]
        ]
      }
    }
  ]
}
