{"type": "FeatureCollection", "attribution": "© OpenStreetMap contributors (ODbL 1.0), via Overture Maps Foundation release 2026-09-23.0", "license": "ODbL-1.0", "source": "https://overturemaps-us-west-2.s3.amazonaws.com/release/2026-09-23.0/theme=transportation/type=segment/", "features": [
{"type":"Feature","properties":{"mountain_slug":"kilimanjaro","trail":"Marangu","seq":0,"start_mile":0.0,"end_mile":0.1},"geometry":{"type":"LineString","coordinates":[[37.518,-3.20422],[37.517901,-3.204026],[37.517886,-3.202789]]}},
{"type":"Feature","properties":{"mountain_slug":"kilimanjaro","trail":"Marangu","seq":1,"start_mile":0.1,"end_mile":0.2},"geometry":{"type":"LineString","coordinates":[[37.517886,-3.202789],[37.517886,-3.202746],[37.51757,-3.202136],[37.517388,-3.201518],[37.517342,-3.201453]]}},
{"type":"Feature","properties":{"mountain_slug":"kilimanjaro","trail":"Marangu","seq":2,"start_mile":0.2,"end_mile":0.3},"geometry":{"type":"LineString","coordinates":[[37.517342,-3.201453],[37.516703,-3.200558],[37.516593,-3.200221]]}},
{"type":"Feature","properties":{"mountain_slug":"kilimanjaro","trail":"Marangu","seq":3,"start_mile":0.3,"end_mile":0.4},"geometry":{"type":"LineString","coordinates":[[37.516593,-3.200221],[37.516528,-3.200023],[37.516151,-3.199703],[37.516109,-3.199563],[37.516212,-3.19921],[37.515978,-3.199228]]}},
{"type":"Feature","properties":{"mountain_slug":"kilimanjaro","trail":"Marangu","seq":4,"start_mile":0.4,"end_mile":0.5},"geometry":{"type":"LineString","coordinates":[[37.515978,-3.199228],[37.515702,-3.199249],[37.515453,-3.19911],[37.51531,-3.19823]]}},
{"type":"Feature","properties":{"mountain_slug":"kilimanjaro","trail":"Marangu","seq":5,"start_mile":0.5,"end_mile":0.6},"geometry":{"type":"LineString","coordinates":[[37.51531,-3.19823],[37.514828,-3.197886],[37.514703,-3.197255],[37.514565,-3.197087]]}},
{"type":"Feature","properties":{"mountain_slug":"kilimanjaro","trail":"Marangu","seq":6,"start_mile":0.6,"end_mile":0.7},"geometry":{"type":"LineString","coordinates":[[37.514565,-3.197087],[37.514341,-3.196814],[37.514266,-3.196407],[37.514052,-3.196196],[37.513926,-3.195831]]}},
{"type":"Feature","properties":{"mountain_slug":"kilimanjaro","trail":"Marangu","seq":7,"start_mile":0.7,"end_mile":0.8},"geometry":{"type":"LineString","coordinates":[[37.513926,-3.195831],[37.513826,-3.195539],[37.514076,-3.194732],[37.514208,-3.194529],[37.514252,-3.194491]]}},
{"type":"Feature","properties":{"mountain_slug":"kilimanjaro","trail":"Marangu","seq":8,"start_mile":0.8,"end_mile":0.9},"geometry":{"type":"LineString","coordinates":[[37.514252,-3.194491],[37.514311,-3.194439],[37.514668,-3.194378],[37.515213,-3.193872],[37.515227,-3.193605]]}},
{"type":"Feature","properties":{"mountain_slug":"kilimanjaro","trail":"Marangu","seq":9,"start_mile":0.9,"end_mile":1.0},"geometry":{"type":"LineString","coordinates":[[37.515227,-3.193605],[37.515244,-3.193309],[37.515432,-3.193005],[37.515493,-3.192374],[37.515633,-3.192284]]}},
{"type":"Feature","properties":{"mountain_slug":"kilimanjaro","trail":"Marangu","seq":10,"start_mile":1.0,"end_mile":1.1},"geometry":{"type":"LineString","coordinates":[[37.515633,-3.192284],[37.51568,-3.192254],[37.515775,-3.192064],[37.515745,-3.191623],[37.515879,-3.191406],[37.516294,-3.191286],[37.516313,-3.191235]]}},
{"type":"Feature","properties":{"mountain_slug":"kilimanjaro","trail":"Marangu","seq":11,"start_mile":1.1,"end_mile":1.2},"geometry":{"type":"LineString","coordinates":[[37.516313,-3.191235],[37.516474,-3.190807],[37.516209,-3.190074],[37.516186,-3.189857]]}},
{"type":"Feature","properties":{"mountain_slug":"kilimanjaro","trail":"Marangu","seq":12,"start_mile":1.2,"end_mile":1.3},"geometry":{"type":"LineString","coordinates":[[37.516186,-3.189857],[37.516032,-3.188409]]}},
{"type":"Feature","properties":{"mountain_slug":"kilimanjaro","trail":"Marangu","seq":13,"start_mile":1.3,"end_mile":1.4},"geometry":{"type":"LineString","coordinates":[[37.516032,-3.188409],[37.515967,-3.1878],[37.515484,-3.187615],[37.515232,-3.187415]]}},
{"type":"Feature","properties":{"mountain_slug":"kilimanjaro","trail":"Marangu","seq":14,"start_mile":1.4,"end_mile":1.5},"geometry":{"type":"LineString","coordinates":[[37.515232,-3.187415],[37.514949,-3.18719],[37.514748,-3.186916],[37.514286,-3.186582],[37.514187,-3.186431]]}},
{"type":"Feature","properties":{"mountain_slug":"kilimanjaro","trail":"Marangu","seq":15,"start_mile":1.5,"end_mile":1.6},"geometry":{"type":"LineString","coordinates":[[37.514187,-3.186431],[37.513913,-3.186014],[37.513684,-3.185087]]}},
{"type":"Feature","properties":{"mountain_slug":"kilimanjaro","trail":"Marangu","seq":16,"start_mile":1.6,"end_mile":1.7},"geometry":{"type":"LineString","coordinates":[[37.513684,-3.185087],[37.513471,-3.184229],[37.513623,-3.183882],[37.513631,-3.18369]]}},
{"type":"Feature","properties":{"mountain_slug":"kilimanjaro","trail":"Marangu","seq":17,"start_mile":1.7,"end_mile":1.8},"geometry":{"type":"LineString","coordinates":[[37.513631,-3.18369],[37.51364,-3.18345],[37.513835,-3.183039],[37.513903,-3.182457],[37.513876,-3.182375],[37.513797,-3.18234]]}},
{"type":"Feature","properties":{"mountain_slug":"kilimanjaro","trail":"Marangu","seq":18,"start_mile":1.8,"end_mile":1.9},"geometry":{"type":"LineString","coordinates":[[37.513797,-3.18234],[37.513685,-3.182292],[37.513456,-3.181941],[37.51338,-3.181608],[37.513386,-3.181036]]}},
{"type":"Feature","properties":{"mountain_slug":"kilimanjaro","trail":"Marangu","seq":19,"start_mile":1.9,"end_mile":2.0},"geometry":{"type":"LineString","coordinates":[[37.513386,-3.181036],[37.513386,-3.181023],[37.513714,-3.180584],[37.514022,-3.180494],[37.514301,-3.180284],[37.514505,-3.180203]]}},
{"type":"Feature","properties":{"mountain_slug":"kilimanjaro","trail":"Marangu","seq":20,"start_mile":2.0,"end_mile":2.1},"geometry":{"type":"LineString","coordinates":[[37.514505,-3.180203],[37.514723,-3.180117],[37.515921,-3.179922]]}},
{"type":"Feature","properties":{"mountain_slug":"kilimanjaro","trail":"Marangu","seq":21,"start_mile":2.1,"end_mile":2.2},"geometry":{"type":"LineString","coordinates":[[37.515921,-3.179922],[37.51608,-3.179896],[37.516341,-3.179758],[37.516604,-3.179465],[37.516854,-3.178917]]}},
{"type":"Feature","properties":{"mountain_slug":"kilimanjaro","trail":"Marangu","seq":22,"start_mile":2.2,"end_mile":2.3},"geometry":{"type":"LineString","coordinates":[[37.516854,-3.178917],[37.517094,-3.17839],[37.517124,-3.178114],[37.517013,-3.177787],[37.516855,-3.17759]]}},
{"type":"Feature","properties":{"mountain_slug":"kilimanjaro","trail":"Marangu","seq":23,"start_mile":2.3,"end_mile":2.4},"geometry":{"type":"LineString","coordinates":[[37.516855,-3.17759],[37.516517,-3.177169],[37.516375,-3.176502],[37.516153,-3.176439]]}},
{"type":"Feature","properties":{"mountain_slug":"kilimanjaro","trail":"Marangu","seq":24,"start_mile":2.4,"end_mile":2.5},"geometry":{"type":"LineString","coordinates":[[37.516153,-3.176439],[37.515188,-3.176167],[37.514976,-3.176236],[37.514755,-3.176205]]}},
{"type":"Feature","properties":{"mountain_slug":"kilimanjaro","trail":"Marangu","seq":25,"start_mile":2.5,"end_mile":2.6},"geometry":{"type":"LineString","coordinates":[[37.514755,-3.176205],[37.514714,-3.176199],[37.513952,-3.176532],[37.513543,-3.176939]]}},
{"type":"Feature","properties":{"mountain_slug":"kilimanjaro","trail":"Marangu","seq":26,"start_mile":2.6,"end_mile":2.7},"geometry":{"type":"LineString","coordinates":[[37.513543,-3.176939],[37.513145,-3.177335],[37.51301,-3.177383],[37.51252,-3.177248],[37.512339,-3.177095]]}},
{"type":"Feature","properties":{"mountain_slug":"kilimanjaro","trail":"Marangu","seq":27,"start_mile":2.7,"end_mile":2.8},"geometry":{"type":"LineString","coordinates":[[37.512339,-3.177095],[37.51221,-3.176984],[37.511981,-3.176892],[37.511239,-3.176946],[37.510963,-3.176865]]}},
{"type":"Feature","properties":{"mountain_slug":"kilimanjaro","trail":"Marangu","seq":28,"start_mile":2.8,"end_mile":2.9},"geometry":{"type":"LineString","coordinates":[[37.510963,-3.176865],[37.510742,-3.1768],[37.510417,-3.176839],[37.509938,-3.176697],[37.509569,-3.176828]]}},
{"type":"Feature","properties":{"mountain_slug":"kilimanjaro","trail":"Marangu","seq":29,"start_mile":2.9,"end_mile":3.0},"geometry":{"type":"LineString","coordinates":[[37.509569,-3.176828],[37.509529,-3.176843],[37.509181,-3.176717],[37.508321,-3.176137]]}},
{"type":"Feature","properties":{"mountain_slug":"kilimanjaro","trail":"Marangu","seq":30,"start_mile":3.0,"end_mile":3.1},"geometry":{"type":"LineString","coordinates":[[37.508321,-3.176137],[37.508135,-3.176012],[37.507998,-3.175714],[37.507931,-3.175294],[37.507614,-3.174939]]}},
{"type":"Feature","properties":{"mountain_slug":"kilimanjaro","trail":"Marangu","seq":31,"start_mile":3.1,"end_mile":3.2},"geometry":{"type":"LineString","coordinates":[[37.507614,-3.174939],[37.50744,-3.174745],[37.507022,-3.173981],[37.506788,-3.17376]]}},
{"type":"Feature","properties":{"mountain_slug":"kilimanjaro","trail":"Marangu","seq":32,"start_mile":3.2,"end_mile":3.3},"geometry":{"type":"LineString","coordinates":[[37.506788,-3.17376],[37.50669,-3.173668],[37.506575,-3.173313],[37.506554,-3.172647],[37.506398,-3.172415]]}},
{"type":"Feature","properties":{"mountain_slug":"kilimanjaro","trail":"Marangu","seq":33,"start_mile":3.3,"end_mile":3.4},"geometry":{"type":"LineString","coordinates":[[37.506398,-3.172415],[37.505915,-3.1717],[37.50554,-3.171398],[37.505433,-3.171384]]}},
{"type":"Feature","properties":{"mountain_slug":"kilimanjaro","trail":"Marangu","seq":34,"start_mile":3.4,"end_mile":3.5},"geometry":{"type":"LineString","coordinates":[[37.505433,-3.171384],[37.505167,-3.171349],[37.504151,-3.171028],[37.504036,-3.171023]]}},
{"type":"Feature","properties":{"mountain_slug":"kilimanjaro","trail":"Marangu","seq":35,"start_mile":3.5,"end_mile":3.6},"geometry":{"type":"LineString","coordinates":[[37.504036,-3.171023],[37.503012,-3.17098],[37.502619,-3.170822]]}},
{"type":"Feature","properties":{"mountain_slug":"kilimanjaro","trail":"Marangu","seq":36,"start_mile":3.6,"end_mile":3.7},"geometry":{"type":"LineString","coordinates":[[37.502619,-3.170822],[37.501413,-3.170338],[37.50132,-3.170221]]}},
{"type":"Feature","properties":{"mountain_slug":"kilimanjaro","trail":"Marangu","seq":37,"start_mile":3.7,"end_mile":3.8},"geometry":{"type":"LineString","coordinates":[[37.50132,-3.170221],[37.500969,-3.169779],[37.500961,-3.169508],[37.501221,-3.169219],[37.501144,-3.169004]]}},
{"type":"Feature","properties":{"mountain_slug":"kilimanjaro","trail":"Marangu","seq":38,"start_mile":3.8,"end_mile":3.9},"geometry":{"type":"LineString","coordinates":[[37.501144,-3.169004],[37.501126,-3.168953],[37.500486,-3.168047],[37.500239,-3.167896]]}},
{"type":"Feature","properties":{"mountain_slug":"kilimanjaro","trail":"Marangu","seq":39,"start_mile":3.9,"end_mile":4.0},"geometry":{"type":"LineString","coordinates":[[37.500239,-3.167896],[37.500043,-3.167777],[37.499772,-3.16749],[37.499612,-3.166946],[37.499435,-3.166753]]}},
{"type":"Feature","properties":{"mountain_slug":"kilimanjaro","trail":"Marangu","seq":40,"start_mile":4.0,"end_mile":4.1},"geometry":{"type":"LineString","coordinates":[[37.499435,-3.166753],[37.498791,-3.16605],[37.498365,-3.165794]]}},
{"type":"Feature","properties":{"mountain_slug":"kilimanjaro","trail":"Marangu","seq":41,"start_mile":4.1,"end_mile":4.2},"geometry":{"type":"LineString","coordinates":[[37.498365,-3.165794],[37.497537,-3.165295],[37.49726,-3.165009],[37.497188,-3.164961]]}},
{"type":"Feature","properties":{"mountain_slug":"kilimanjaro","trail":"Marangu","seq":42,"start_mile":4.2,"end_mile":4.3},"geometry":{"type":"LineString","coordinates":[[37.497188,-3.164961],[37.496641,-3.164597],[37.496058,-3.164059]]}},
{"type":"Feature","properties":{"mountain_slug":"kilimanjaro","trail":"Marangu","seq":43,"start_mile":4.3,"end_mile":4.4},"geometry":{"type":"LineString","coordinates":[[37.496058,-3.164059],[37.495814,-3.163833],[37.494894,-3.163197]]}},
{"type":"Feature","properties":{"mountain_slug":"kilimanjaro","trail":"Marangu","seq":44,"start_mile":4.4,"end_mile":4.5},"geometry":{"type":"LineString","coordinates":[[37.494894,-3.163197],[37.494584,-3.162982],[37.494274,-3.162657],[37.493874,-3.16259],[37.493675,-3.162501]]}},
{"type":"Feature","properties":{"mountain_slug":"kilimanjaro","trail":"Marangu","seq":45,"start_mile":4.5,"end_mile":4.6},"geometry":{"type":"LineString","coordinates":[[37.493675,-3.162501],[37.492947,-3.162174],[37.492452,-3.16175]]}},
{"type":"Feature","properties":{"mountain_slug":"kilimanjaro","trail":"Marangu","seq":46,"start_mile":4.6,"end_mile":4.7},"geometry":{"type":"LineString","coordinates":[[37.492452,-3.16175],[37.492318,-3.161634],[37.491338,-3.160975],[37.491275,-3.160908]]}},
{"type":"Feature","properties":{"mountain_slug":"kilimanjaro","trail":"Marangu","seq":47,"start_mile":4.7,"end_mile":4.8},"geometry":{"type":"LineString","coordinates":[[37.491275,-3.160908],[37.49105,-3.160663],[37.490696,-3.159914],[37.490653,-3.159624]]}},
{"type":"Feature","properties":{"mountain_slug":"kilimanjaro","trail":"Marangu","seq":48,"start_mile":4.8,"end_mile":4.9},"geometry":{"type":"LineString","coordinates":[[37.490653,-3.159624],[37.490644,-3.159559],[37.490057,-3.159094],[37.489614,-3.159035],[37.489458,-3.158929]]}},
{"type":"Feature","properties":{"mountain_slug":"kilimanjaro","trail":"Marangu","seq":49,"start_mile":4.9,"end_mile":5.0},"geometry":{"type":"LineString","coordinates":[[37.489458,-3.158929],[37.489435,-3.158914],[37.489165,-3.158508],[37.488659,-3.158052],[37.488587,-3.157806]]}},
{"type":"Feature","properties":{"mountain_slug":"kilimanjaro","trail":"Marangu","seq":50,"start_mile":5.0,"end_mile":5.1},"geometry":{"type":"LineString","coordinates":[[37.488587,-3.157806],[37.488461,-3.157371],[37.488237,-3.157436],[37.488082,-3.157583],[37.487769,-3.157536],[37.487596,-3.157376]]}},
{"type":"Feature","properties":{"mountain_slug":"kilimanjaro","trail":"Marangu","seq":51,"start_mile":5.1,"end_mile":5.2},"geometry":{"type":"LineString","coordinates":[[37.487596,-3.157376],[37.487164,-3.156977],[37.486697,-3.156304],[37.486665,-3.156273]]}},
{"type":"Feature","properties":{"mountain_slug":"kilimanjaro","trail":"Marangu","seq":52,"start_mile":5.2,"end_mile":5.3},"geometry":{"type":"LineString","coordinates":[[37.486665,-3.156273],[37.485621,-3.155265]]}},
{"type":"Feature","properties":{"mountain_slug":"kilimanjaro","trail":"Marangu","seq":53,"start_mile":5.3,"end_mile":5.4},"geometry":{"type":"LineString","coordinates":[[37.485621,-3.155265],[37.485386,-3.155038],[37.48481,-3.154577],[37.48456,-3.154281]]}},
{"type":"Feature","properties":{"mountain_slug":"kilimanjaro","trail":"Marangu","seq":54,"start_mile":5.4,"end_mile":5.5},"geometry":{"type":"LineString","coordinates":[[37.48456,-3.154281],[37.484287,-3.153959],[37.483908,-3.153639],[37.483409,-3.153454]]}},
{"type":"Feature","properties":{"mountain_slug":"kilimanjaro","trail":"Marangu","seq":55,"start_mile":5.5,"end_mile":5.6},"geometry":{"type":"LineString","coordinates":[[37.483409,-3.153454],[37.482865,-3.153251],[37.482244,-3.15274],[37.482184,-3.152713]]}},
{"type":"Feature","properties":{"mountain_slug":"kilimanjaro","trail":"Marangu","seq":56,"start_mile":5.6,"end_mile":5.7},"geometry":{"type":"LineString","coordinates":[[37.482184,-3.152713],[37.48152,-3.152413],[37.480838,-3.152182]]}},
{"type":"Feature","properties":{"mountain_slug":"kilimanjaro","trail":"Marangu","seq":57,"start_mile":5.7,"end_mile":5.8},"geometry":{"type":"LineString","coordinates":[[37.480838,-3.152182],[37.479925,-3.151872],[37.479444,-3.151819]]}},
{"type":"Feature","properties":{"mountain_slug":"kilimanjaro","trail":"Marangu","seq":58,"start_mile":5.8,"end_mile":5.9},"geometry":{"type":"LineString","coordinates":[[37.479444,-3.151819],[37.479091,-3.15178],[37.478647,-3.15182],[37.478062,-3.151685],[37.478015,-3.151685]]}},
{"type":"Feature","properties":{"mountain_slug":"kilimanjaro","trail":"Marangu","seq":59,"start_mile":5.9,"end_mile":6.0},"geometry":{"type":"LineString","coordinates":[[37.478015,-3.151685],[37.477479,-3.151691],[37.476667,-3.151517],[37.476585,-3.151514]]}},
{"type":"Feature","properties":{"mountain_slug":"kilimanjaro","trail":"Marangu","seq":60,"start_mile":6.0,"end_mile":6.1},"geometry":{"type":"LineString","coordinates":[[37.476585,-3.151514],[37.475726,-3.151484],[37.475587,-3.151327],[37.475444,-3.150974]]}},
{"type":"Feature","properties":{"mountain_slug":"kilimanjaro","trail":"Marangu","seq":61,"start_mile":6.1,"end_mile":6.2},"geometry":{"type":"LineString","coordinates":[[37.475444,-3.150974],[37.475339,-3.150715],[37.475194,-3.14988],[37.475022,-3.149601]]}},
{"type":"Feature","properties":{"mountain_slug":"kilimanjaro","trail":"Marangu","seq":62,"start_mile":6.2,"end_mile":6.3},"geometry":{"type":"LineString","coordinates":[[37.475022,-3.149601],[37.475007,-3.149577],[37.474963,-3.149322],[37.474638,-3.149059],[37.474472,-3.148766],[37.474361,-3.14837]]}},
{"type":"Feature","properties":{"mountain_slug":"kilimanjaro","trail":"Marangu","seq":63,"start_mile":6.3,"end_mile":6.4},"geometry":{"type":"LineString","coordinates":[[37.474361,-3.14837],[37.474358,-3.148361],[37.474026,-3.148056],[37.473553,-3.147969],[37.473198,-3.147641],[37.473174,-3.147633]]}},
{"type":"Feature","properties":{"mountain_slug":"kilimanjaro","trail":"Marangu","seq":64,"start_mile":6.4,"end_mile":6.5},"geometry":{"type":"LineString","coordinates":[[37.473174,-3.147633],[37.472817,-3.147508],[37.472082,-3.147073],[37.471923,-3.146923]]}},
{"type":"Feature","properties":{"mountain_slug":"kilimanjaro","trail":"Marangu","seq":65,"start_mile":6.5,"end_mile":6.6},"geometry":{"type":"LineString","coordinates":[[37.471923,-3.146923],[37.471189,-3.146232],[37.470777,-3.146071]]}},
{"type":"Feature","properties":{"mountain_slug":"kilimanjaro","trail":"Marangu","seq":66,"start_mile":6.6,"end_mile":6.7},"geometry":{"type":"LineString","coordinates":[[37.470777,-3.146071],[37.470701,-3.146041],[37.46934,-3.145921]]}},
{"type":"Feature","properties":{"mountain_slug":"kilimanjaro","trail":"Marangu","seq":67,"start_mile":6.7,"end_mile":6.8},"geometry":{"type":"LineString","coordinates":[[37.46934,-3.145921],[37.469297,-3.145917],[37.468832,-3.145556],[37.468284,-3.144947]]}},
{"type":"Feature","properties":{"mountain_slug":"kilimanjaro","trail":"Marangu","seq":68,"start_mile":6.8,"end_mile":6.9},"geometry":{"type":"LineString","coordinates":[[37.468284,-3.144947],[37.468271,-3.144932],[37.467737,-3.1445],[37.467087,-3.144199],[37.467066,-3.144182]]}},
{"type":"Feature","properties":{"mountain_slug":"kilimanjaro","trail":"Marangu","seq":69,"start_mile":6.9,"end_mile":7.0},"geometry":{"type":"LineString","coordinates":[[37.467066,-3.144182],[37.466819,-3.143995],[37.466255,-3.143925],[37.465684,-3.143939]]}},
{"type":"Feature","properties":{"mountain_slug":"kilimanjaro","trail":"Marangu","seq":70,"start_mile":7.0,"end_mile":7.1},"geometry":{"type":"LineString","coordinates":[[37.465684,-3.143939],[37.465266,-3.143949],[37.464787,-3.143853],[37.464251,-3.143927]]}},
{"type":"Feature","properties":{"mountain_slug":"kilimanjaro","trail":"Marangu","seq":71,"start_mile":7.1,"end_mile":7.2},"geometry":{"type":"LineString","coordinates":[[37.464251,-3.143927],[37.464069,-3.143953],[37.463856,-3.143864],[37.463708,-3.143655],[37.463363,-3.143773],[37.463312,-3.143557],[37.463396,-3.143383]]}},
{"type":"Feature","properties":{"mountain_slug":"kilimanjaro","trail":"Marangu","seq":72,"start_mile":7.2,"end_mile":7.3},"geometry":{"type":"LineString","coordinates":[[37.463396,-3.143383],[37.463486,-3.143194],[37.463498,-3.142852],[37.46292,-3.142611],[37.462723,-3.142421]]}},
{"type":"Feature","properties":{"mountain_slug":"kilimanjaro","trail":"Marangu","seq":73,"start_mile":7.3,"end_mile":7.4},"geometry":{"type":"LineString","coordinates":[[37.462723,-3.142421],[37.462667,-3.142366],[37.462408,-3.141872],[37.461845,-3.141419],[37.461758,-3.141452]]}},
{"type":"Feature","properties":{"mountain_slug":"kilimanjaro","trail":"Marangu","seq":74,"start_mile":7.4,"end_mile":7.5},"geometry":{"type":"LineString","coordinates":[[37.461758,-3.141452],[37.461542,-3.141535],[37.461229,-3.141925],[37.460542,-3.142135]]}},
{"type":"Feature","properties":{"mountain_slug":"kilimanjaro","trail":"Marangu","seq":75,"start_mile":7.5,"end_mile":7.6},"geometry":{"type":"LineString","coordinates":[[37.460542,-3.142135],[37.460519,-3.142142],[37.459563,-3.142056],[37.459129,-3.141892]]}},
{"type":"Feature","properties":{"mountain_slug":"kilimanjaro","trail":"Marangu","seq":76,"start_mile":7.6,"end_mile":7.7},"geometry":{"type":"LineString","coordinates":[[37.459129,-3.141892],[37.458927,-3.141816],[37.457853,-3.141771],[37.457705,-3.141719]]}},
{"type":"Feature","properties":{"mountain_slug":"kilimanjaro","trail":"Marangu","seq":77,"start_mile":7.7,"end_mile":7.8},"geometry":{"type":"LineString","coordinates":[[37.457705,-3.141719],[37.456472,-3.14128],[37.456332,-3.141278]]}},
{"type":"Feature","properties":{"mountain_slug":"kilimanjaro","trail":"Marangu","seq":78,"start_mile":7.8,"end_mile":7.9},"geometry":{"type":"LineString","coordinates":[[37.456332,-3.141278],[37.455906,-3.14127],[37.455309,-3.141143],[37.454958,-3.140927]]}},
{"type":"Feature","properties":{"mountain_slug":"kilimanjaro","trail":"Marangu","seq":79,"start_mile":7.9,"end_mile":8.0},"geometry":{"type":"LineString","coordinates":[[37.454958,-3.140927],[37.454825,-3.140845],[37.454606,-3.140836],[37.45418,-3.141064],[37.45386,-3.140804],[37.453681,-3.14079]]}},
{"type":"Feature","properties":{"mountain_slug":"kilimanjaro","trail":"Marangu","seq":80,"start_mile":8.0,"end_mile":8.1},"geometry":{"type":"LineString","coordinates":[[37.453681,-3.14079],[37.452758,-3.140718],[37.452266,-3.140542]]}},
{"type":"Feature","properties":{"mountain_slug":"kilimanjaro","trail":"Marangu","seq":81,"start_mile":8.1,"end_mile":8.2},"geometry":{"type":"LineString","coordinates":[[37.452266,-3.140542],[37.451022,-3.140096],[37.450897,-3.14007]]}},
{"type":"Feature","properties":{"mountain_slug":"kilimanjaro","trail":"Marangu","seq":82,"start_mile":8.2,"end_mile":8.3},"geometry":{"type":"LineString","coordinates":[[37.450897,-3.14007],[37.449831,-3.139844],[37.449504,-3.139698]]}},
{"type":"Feature","properties":{"mountain_slug":"kilimanjaro","trail":"Marangu","seq":83,"start_mile":8.3,"end_mile":8.4},"geometry":{"type":"LineString","coordinates":[[37.449504,-3.139698],[37.448182,-3.139103]]}},
{"type":"Feature","properties":{"mountain_slug":"kilimanjaro","trail":"Marangu","seq":84,"start_mile":8.4,"end_mile":8.5},"geometry":{"type":"LineString","coordinates":[[37.448182,-3.139103],[37.4476,-3.138842],[37.447125,-3.13869],[37.446815,-3.138661]]}},
{"type":"Feature","properties":{"mountain_slug":"kilimanjaro","trail":"Marangu","seq":85,"start_mile":8.5,"end_mile":8.6},"geometry":{"type":"LineString","coordinates":[[37.446815,-3.138661],[37.4467,-3.13865],[37.446412,-3.138161],[37.44579,-3.138395],[37.445687,-3.138404]]}},
{"type":"Feature","properties":{"mountain_slug":"kilimanjaro","trail":"Marangu","seq":86,"start_mile":8.6,"end_mile":8.7},"geometry":{"type":"LineString","coordinates":[[37.445687,-3.138404],[37.445247,-3.138443],[37.444571,-3.138369],[37.444255,-3.138451]]}},
{"type":"Feature","properties":{"mountain_slug":"kilimanjaro","trail":"Marangu","seq":87,"start_mile":8.7,"end_mile":8.8},"geometry":{"type":"LineString","coordinates":[[37.444255,-3.138451],[37.443579,-3.138625],[37.442955,-3.138958],[37.442922,-3.138986]]}},
{"type":"Feature","properties":{"mountain_slug":"kilimanjaro","trail":"Marangu","seq":88,"start_mile":8.8,"end_mile":8.9},"geometry":{"type":"LineString","coordinates":[[37.442922,-3.138986],[37.44264,-3.139221],[37.441942,-3.139292],[37.441589,-3.139434]]}},
{"type":"Feature","properties":{"mountain_slug":"kilimanjaro","trail":"Marangu","seq":89,"start_mile":8.9,"end_mile":9.0},"geometry":{"type":"LineString","coordinates":[[37.441589,-3.139434],[37.441545,-3.139452],[37.441056,-3.139948],[37.440378,-3.13975]]}},
{"type":"Feature","properties":{"mountain_slug":"kilimanjaro","trail":"Marangu","seq":90,"start_mile":9.0,"end_mile":9.1},"geometry":{"type":"LineString","coordinates":[[37.440378,-3.13975],[37.440251,-3.139713],[37.439553,-3.139735],[37.439386,-3.139849],[37.439029,-3.139747],[37.439001,-3.139712]]}},
{"type":"Feature","properties":{"mountain_slug":"kilimanjaro","trail":"Marangu","seq":91,"start_mile":9.1,"end_mile":9.2},"geometry":{"type":"LineString","coordinates":[[37.439001,-3.139712],[37.438775,-3.139428],[37.438451,-3.138826],[37.43812,-3.138592]]}},
{"type":"Feature","properties":{"mountain_slug":"kilimanjaro","trail":"Marangu","seq":92,"start_mile":9.2,"end_mile":9.3},"geometry":{"type":"LineString","coordinates":[[37.43812,-3.138592],[37.437598,-3.138224],[37.437195,-3.137611],[37.43714,-3.137554]]}},
{"type":"Feature","properties":{"mountain_slug":"kilimanjaro","trail":"Marangu","seq":93,"start_mile":9.3,"end_mile":9.4},"geometry":{"type":"LineString","coordinates":[[37.43714,-3.137554],[37.436904,-3.137309],[37.43642,-3.137402],[37.436178,-3.137149],[37.435945,-3.137017]]}},
{"type":"Feature","properties":{"mountain_slug":"kilimanjaro","trail":"Marangu","seq":94,"start_mile":9.4,"end_mile":9.5},"geometry":{"type":"LineString","coordinates":[[37.435945,-3.137017],[37.435836,-3.136955],[37.435443,-3.136217],[37.435177,-3.135957],[37.43513,-3.135847]]}},
{"type":"Feature","properties":{"mountain_slug":"kilimanjaro","trail":"Marangu","seq":95,"start_mile":9.5,"end_mile":9.6},"geometry":{"type":"LineString","coordinates":[[37.43513,-3.135847],[37.434895,-3.135304],[37.4343,-3.134681]]}},
{"type":"Feature","properties":{"mountain_slug":"kilimanjaro","trail":"Marangu","seq":96,"start_mile":9.6,"end_mile":9.7},"geometry":{"type":"LineString","coordinates":[[37.4343,-3.134681],[37.434037,-3.134406],[37.433503,-3.133476]]}},
{"type":"Feature","properties":{"mountain_slug":"kilimanjaro","trail":"Marangu","seq":97,"start_mile":9.7,"end_mile":9.8},"geometry":{"type":"LineString","coordinates":[[37.433503,-3.133476],[37.433271,-3.133073],[37.43277,-3.132667],[37.432671,-3.132448],[37.432598,-3.132377]]}},
{"type":"Feature","properties":{"mountain_slug":"kilimanjaro","trail":"Marangu","seq":98,"start_mile":9.8,"end_mile":9.9},"geometry":{"type":"LineString","coordinates":[[37.432598,-3.132377],[37.431564,-3.131358]]}},
{"type":"Feature","properties":{"mountain_slug":"kilimanjaro","trail":"Marangu","seq":99,"start_mile":9.9,"end_mile":10.0},"geometry":{"type":"LineString","coordinates":[[37.431564,-3.131358],[37.431348,-3.131145],[37.43047,-3.130697],[37.430369,-3.130571]]}},
{"type":"Feature","properties":{"mountain_slug":"kilimanjaro","trail":"Marangu","seq":100,"start_mile":10.0,"end_mile":10.1},"geometry":{"type":"LineString","coordinates":[[37.430369,-3.130571],[37.429827,-3.129893],[37.429391,-3.129505]]}},
{"type":"Feature","properties":{"mountain_slug":"kilimanjaro","trail":"Marangu","seq":101,"start_mile":10.1,"end_mile":10.2},"geometry":{"type":"LineString","coordinates":[[37.429391,-3.129505],[37.429242,-3.129373],[37.429072,-3.128694],[37.428743,-3.128248]]}},
{"type":"Feature","properties":{"mountain_slug":"kilimanjaro","trail":"Marangu","seq":102,"start_mile":10.2,"end_mile":10.3},"geometry":{"type":"LineString","coordinates":[[37.428743,-3.128248],[37.42874,-3.128245],[37.428686,-3.127907],[37.428236,-3.127298],[37.428143,-3.12696]]}},
{"type":"Feature","properties":{"mountain_slug":"kilimanjaro","trail":"Marangu","seq":103,"start_mile":10.3,"end_mile":10.4},"geometry":{"type":"LineString","coordinates":[[37.428143,-3.12696],[37.428099,-3.126803],[37.428,-3.12621],[37.428184,-3.125979],[37.428209,-3.125787],[37.428145,-3.125597]]}},
{"type":"Feature","properties":{"mountain_slug":"kilimanjaro","trail":"Marangu","seq":104,"start_mile":10.4,"end_mile":10.5},"geometry":{"type":"LineString","coordinates":[[37.428145,-3.125597],[37.428053,-3.125327],[37.428024,-3.124157]]}},
{"type":"Feature","properties":{"mountain_slug":"kilimanjaro","trail":"Marangu","seq":105,"start_mile":10.5,"end_mile":10.6},"geometry":{"type":"LineString","coordinates":[[37.428024,-3.124157],[37.428017,-3.123876],[37.427943,-3.12342],[37.42759,-3.122802]]}},
{"type":"Feature","properties":{"mountain_slug":"kilimanjaro","trail":"Marangu","seq":106,"start_mile":10.6,"end_mile":10.7},"geometry":{"type":"LineString","coordinates":[[37.42759,-3.122802],[37.427327,-3.122341],[37.427149,-3.12184],[37.426878,-3.121559]]}},
{"type":"Feature","properties":{"mountain_slug":"kilimanjaro","trail":"Marangu","seq":107,"start_mile":10.7,"end_mile":10.8},"geometry":{"type":"LineString","coordinates":[[37.426878,-3.121559],[37.426749,-3.121426],[37.42639,-3.12028],[37.426359,-3.120219]]}},
{"type":"Feature","properties":{"mountain_slug":"kilimanjaro","trail":"Marangu","seq":108,"start_mile":10.8,"end_mile":10.9},"geometry":{"type":"LineString","coordinates":[[37.426359,-3.120219],[37.426059,-3.119609],[37.425575,-3.119005]]}},
{"type":"Feature","properties":{"mountain_slug":"kilimanjaro","trail":"Marangu","seq":109,"start_mile":10.9,"end_mile":11.0},"geometry":{"type":"LineString","coordinates":[[37.425575,-3.119005],[37.425217,-3.118559],[37.424874,-3.117987],[37.424698,-3.117867]]}},
{"type":"Feature","properties":{"mountain_slug":"kilimanjaro","trail":"Marangu","seq":110,"start_mile":11.0,"end_mile":11.1},"geometry":{"type":"LineString","coordinates":[[37.424698,-3.117867],[37.424638,-3.117826],[37.424218,-3.117842],[37.423835,-3.117132],[37.423731,-3.11702]]}},
{"type":"Feature","properties":{"mountain_slug":"kilimanjaro","trail":"Marangu","seq":111,"start_mile":11.1,"end_mile":11.2},"geometry":{"type":"LineString","coordinates":[[37.423731,-3.11702],[37.423327,-3.116586],[37.422851,-3.11587]]}},
{"type":"Feature","properties":{"mountain_slug":"kilimanjaro","trail":"Marangu","seq":112,"start_mile":11.2,"end_mile":11.3},"geometry":{"type":"LineString","coordinates":[[37.422851,-3.11587],[37.422727,-3.115684],[37.421827,-3.114848]]}},
{"type":"Feature","properties":{"mountain_slug":"kilimanjaro","trail":"Marangu","seq":113,"start_mile":11.3,"end_mile":11.4},"geometry":{"type":"LineString","coordinates":[[37.421827,-3.114848],[37.421424,-3.114473],[37.420971,-3.113694]]}},
{"type":"Feature","properties":{"mountain_slug":"kilimanjaro","trail":"Marangu","seq":114,"start_mile":11.4,"end_mile":11.5},"geometry":{"type":"LineString","coordinates":[[37.420971,-3.113694],[37.420253,-3.112459],[37.420244,-3.112435]]}},
{"type":"Feature","properties":{"mountain_slug":"kilimanjaro","trail":"Marangu","seq":115,"start_mile":11.5,"end_mile":11.6},"geometry":{"type":"LineString","coordinates":[[37.420244,-3.112435],[37.4201,-3.112067],[37.419903,-3.111897],[37.419668,-3.111403],[37.419517,-3.111203]]}},
{"type":"Feature","properties":{"mountain_slug":"kilimanjaro","trail":"Marangu","seq":116,"start_mile":11.6,"end_mile":11.7},"geometry":{"type":"LineString","coordinates":[[37.419517,-3.111203],[37.41866,-3.110067],[37.418638,-3.110047]]}},
{"type":"Feature","properties":{"mountain_slug":"kilimanjaro","trail":"Marangu","seq":117,"start_mile":11.7,"end_mile":11.8},"geometry":{"type":"LineString","coordinates":[[37.418638,-3.110047],[37.417564,-3.109071]]}},
{"type":"Feature","properties":{"mountain_slug":"kilimanjaro","trail":"Marangu","seq":118,"start_mile":11.8,"end_mile":11.9},"geometry":{"type":"LineString","coordinates":[[37.417564,-3.109071],[37.416491,-3.108094]]}},
{"type":"Feature","properties":{"mountain_slug":"kilimanjaro","trail":"Marangu","seq":119,"start_mile":11.9,"end_mile":12.0},"geometry":{"type":"LineString","coordinates":[[37.416491,-3.108094],[37.415417,-3.107118]]}},
{"type":"Feature","properties":{"mountain_slug":"kilimanjaro","trail":"Marangu","seq":120,"start_mile":12.0,"end_mile":12.1},"geometry":{"type":"LineString","coordinates":[[37.415417,-3.107118],[37.414388,-3.106182],[37.414345,-3.106139]]}},
{"type":"Feature","properties":{"mountain_slug":"kilimanjaro","trail":"Marangu","seq":121,"start_mile":12.1,"end_mile":12.2},"geometry":{"type":"LineString","coordinates":[[37.414345,-3.106139],[37.413834,-3.105634],[37.413395,-3.105046]]}},
{"type":"Feature","properties":{"mountain_slug":"kilimanjaro","trail":"Marangu","seq":122,"start_mile":12.2,"end_mile":12.3},"geometry":{"type":"LineString","coordinates":[[37.413395,-3.105046],[37.412567,-3.103938],[37.412513,-3.103895]]}},
{"type":"Feature","properties":{"mountain_slug":"kilimanjaro","trail":"Marangu","seq":123,"start_mile":12.3,"end_mile":12.4},"geometry":{"type":"LineString","coordinates":[[37.412513,-3.103895],[37.411695,-3.103248],[37.411349,-3.103032]]}},
{"type":"Feature","properties":{"mountain_slug":"kilimanjaro","trail":"Marangu","seq":124,"start_mile":12.4,"end_mile":12.5},"geometry":{"type":"LineString","coordinates":[[37.411349,-3.103032],[37.411017,-3.102824],[37.410534,-3.102402],[37.410262,-3.102085]]}},
{"type":"Feature","properties":{"mountain_slug":"kilimanjaro","trail":"Marangu","seq":125,"start_mile":12.5,"end_mile":12.6},"geometry":{"type":"LineString","coordinates":[[37.410262,-3.102085],[37.409466,-3.101156],[37.409368,-3.100949]]}},
{"type":"Feature","properties":{"mountain_slug":"kilimanjaro","trail":"Marangu","seq":126,"start_mile":12.6,"end_mile":12.7},"geometry":{"type":"LineString","coordinates":[[37.409368,-3.100949],[37.409016,-3.100207],[37.408907,-3.099584]]}},
{"type":"Feature","properties":{"mountain_slug":"kilimanjaro","trail":"Marangu","seq":127,"start_mile":12.7,"end_mile":12.8},"geometry":{"type":"LineString","coordinates":[[37.408907,-3.099584],[37.408873,-3.099389],[37.408957,-3.098232],[37.408978,-3.098137]]}},
{"type":"Feature","properties":{"mountain_slug":"kilimanjaro","trail":"Marangu","seq":128,"start_mile":12.8,"end_mile":12.9},"geometry":{"type":"LineString","coordinates":[[37.408978,-3.098137],[37.409282,-3.096714]]}},
{"type":"Feature","properties":{"mountain_slug":"kilimanjaro","trail":"Marangu","seq":129,"start_mile":12.9,"end_mile":13.0},"geometry":{"type":"LineString","coordinates":[[37.409282,-3.096714],[37.409306,-3.096602],[37.409251,-3.095757],[37.40913,-3.095278]]}},
{"type":"Feature","properties":{"mountain_slug":"kilimanjaro","trail":"Marangu","seq":130,"start_mile":13.0,"end_mile":13.1},"geometry":{"type":"LineString","coordinates":[[37.40913,-3.095278],[37.40906,-3.095005],[37.408653,-3.093905]]}},
{"type":"Feature","properties":{"mountain_slug":"kilimanjaro","trail":"Marangu","seq":131,"start_mile":13.1,"end_mile":13.2},"geometry":{"type":"LineString","coordinates":[[37.408653,-3.093905],[37.408147,-3.092541]]}},
{"type":"Feature","properties":{"mountain_slug":"kilimanjaro","trail":"Marangu","seq":132,"start_mile":13.2,"end_mile":13.3},"geometry":{"type":"LineString","coordinates":[[37.408147,-3.092541],[37.408005,-3.092159],[37.407591,-3.091198]]}},
{"type":"Feature","properties":{"mountain_slug":"kilimanjaro","trail":"Marangu","seq":133,"start_mile":13.3,"end_mile":13.4},"geometry":{"type":"LineString","coordinates":[[37.407591,-3.091198],[37.407016,-3.089862]]}},
{"type":"Feature","properties":{"mountain_slug":"kilimanjaro","trail":"Marangu","seq":134,"start_mile":13.4,"end_mile":13.5},"geometry":{"type":"LineString","coordinates":[[37.407016,-3.089862],[37.406913,-3.089624],[37.406141,-3.088714]]}},
{"type":"Feature","properties":{"mountain_slug":"kilimanjaro","trail":"Marangu","seq":135,"start_mile":13.5,"end_mile":13.6},"geometry":{"type":"LineString","coordinates":[[37.406141,-3.088714],[37.405778,-3.088286],[37.405268,-3.087556]]}},
{"type":"Feature","properties":{"mountain_slug":"kilimanjaro","trail":"Marangu","seq":136,"start_mile":13.6,"end_mile":13.7},"geometry":{"type":"LineString","coordinates":[[37.405268,-3.087556],[37.404435,-3.086365]]}},
{"type":"Feature","properties":{"mountain_slug":"kilimanjaro","trail":"Marangu","seq":137,"start_mile":13.7,"end_mile":13.8},"geometry":{"type":"LineString","coordinates":[[37.404435,-3.086365],[37.404207,-3.086039],[37.403463,-3.085292]]}},
{"type":"Feature","properties":{"mountain_slug":"kilimanjaro","trail":"Marangu","seq":138,"start_mile":13.8,"end_mile":13.9},"geometry":{"type":"LineString","coordinates":[[37.403463,-3.085292],[37.402952,-3.084778],[37.402551,-3.084465],[37.40237,-3.084345]]}},
{"type":"Feature","properties":{"mountain_slug":"kilimanjaro","trail":"Marangu","seq":139,"start_mile":13.9,"end_mile":14.0},"geometry":{"type":"LineString","coordinates":[[37.40237,-3.084345],[37.402269,-3.084278],[37.401753,-3.084137],[37.400975,-3.083988]]}},
{"type":"Feature","properties":{"mountain_slug":"kilimanjaro","trail":"Marangu","seq":140,"start_mile":14.0,"end_mile":14.1},"geometry":{"type":"LineString","coordinates":[[37.400975,-3.083988],[37.399593,-3.083723],[37.399553,-3.083712]]}},
{"type":"Feature","properties":{"mountain_slug":"kilimanjaro","trail":"Marangu","seq":141,"start_mile":14.1,"end_mile":14.2},"geometry":{"type":"LineString","coordinates":[[37.399553,-3.083712],[37.399078,-3.083585],[37.3986,-3.083328],[37.398197,-3.083233]]}},
{"type":"Feature","properties":{"mountain_slug":"kilimanjaro","trail":"Marangu","seq":142,"start_mile":14.2,"end_mile":14.3},"geometry":{"type":"LineString","coordinates":[[37.398197,-3.083233],[37.397878,-3.083158],[37.397619,-3.083184],[37.397458,-3.083088],[37.396972,-3.08303],[37.396798,-3.082973]]}},
{"type":"Feature","properties":{"mountain_slug":"kilimanjaro","trail":"Marangu","seq":143,"start_mile":14.3,"end_mile":14.4},"geometry":{"type":"LineString","coordinates":[[37.396798,-3.082973],[37.396249,-3.082792],[37.395952,-3.082561],[37.395504,-3.082349]]}},
{"type":"Feature","properties":{"mountain_slug":"kilimanjaro","trail":"Marangu","seq":144,"start_mile":14.4,"end_mile":14.5},"geometry":{"type":"LineString","coordinates":[[37.395504,-3.082349],[37.394847,-3.082036],[37.394582,-3.081787],[37.394385,-3.081486]]}},
{"type":"Feature","properties":{"mountain_slug":"kilimanjaro","trail":"Marangu","seq":145,"start_mile":14.5,"end_mile":14.6},"geometry":{"type":"LineString","coordinates":[[37.394385,-3.081486],[37.394239,-3.081263],[37.393949,-3.08112],[37.393091,-3.081133]]}},
{"type":"Feature","properties":{"mountain_slug":"kilimanjaro","trail":"Marangu","seq":146,"start_mile":14.6,"end_mile":14.7},"geometry":{"type":"LineString","coordinates":[[37.393091,-3.081133],[37.391956,-3.081149],[37.391652,-3.081226]]}},
{"type":"Feature","properties":{"mountain_slug":"kilimanjaro","trail":"Marangu","seq":147,"start_mile":14.7,"end_mile":14.8},"geometry":{"type":"LineString","coordinates":[[37.391652,-3.081226],[37.391149,-3.081352],[37.390445,-3.081378],[37.390226,-3.081426]]}},
{"type":"Feature","properties":{"mountain_slug":"kilimanjaro","trail":"Marangu","seq":148,"start_mile":14.8,"end_mile":14.9},"geometry":{"type":"LineString","coordinates":[[37.390226,-3.081426],[37.390019,-3.081472],[37.389516,-3.081712],[37.388837,-3.081713]]}},
{"type":"Feature","properties":{"mountain_slug":"kilimanjaro","trail":"Marangu","seq":149,"start_mile":14.9,"end_mile":15.0},"geometry":{"type":"LineString","coordinates":[[37.388837,-3.081713],[37.388682,-3.081714],[37.387964,-3.081246],[37.387751,-3.08092],[37.387738,-3.080872]]}},
{"type":"Feature","properties":{"mountain_slug":"kilimanjaro","trail":"Marangu","seq":150,"start_mile":15.0,"end_mile":15.1},"geometry":{"type":"LineString","coordinates":[[37.387738,-3.080872],[37.387681,-3.080651],[37.387448,-3.080473],[37.387176,-3.080463],[37.386571,-3.08021]]}},
{"type":"Feature","properties":{"mountain_slug":"kilimanjaro","trail":"Marangu","seq":151,"start_mile":15.1,"end_mile":15.2},"geometry":{"type":"LineString","coordinates":[[37.386571,-3.08021],[37.385935,-3.079944],[37.385255,-3.079749],[37.385213,-3.079718]]}},
{"type":"Feature","properties":{"mountain_slug":"kilimanjaro","trail":"Marangu","seq":152,"start_mile":15.2,"end_mile":15.3},"geometry":{"type":"LineString","coordinates":[[37.385213,-3.079718],[37.384532,-3.079222],[37.384545,-3.07909],[37.384367,-3.079042],[37.384212,-3.078902],[37.384129,-3.078902]]}},
{"type":"Feature","properties":{"mountain_slug":"kilimanjaro","trail":"Marangu","seq":153,"start_mile":15.3,"end_mile":15.4},"geometry":{"type":"LineString","coordinates":[[37.384129,-3.078902],[37.384084,-3.078902],[37.384052,-3.078748],[37.383907,-3.078733],[37.383612,-3.078438],[37.383306,-3.078323],[37.383111,-3.078358],[37.383006,-3.078266],[37.382986,-3.078262]]}},
{"type":"Feature","properties":{"mountain_slug":"kilimanjaro","trail":"Marangu","seq":154,"start_mile":15.4,"end_mile":15.5},"geometry":{"type":"LineString","coordinates":[[37.382986,-3.078262],[37.382471,-3.078173],[37.381554,-3.07829]]}},
{"type":"Feature","properties":{"mountain_slug":"kilimanjaro","trail":"Marangu","seq":155,"start_mile":15.5,"end_mile":15.6},"geometry":{"type":"LineString","coordinates":[[37.381554,-3.07829],[37.381373,-3.078313],[37.380515,-3.078053],[37.380165,-3.078121],[37.380155,-3.07813]]}},
{"type":"Feature","properties":{"mountain_slug":"kilimanjaro","trail":"Marangu","seq":156,"start_mile":15.6,"end_mile":15.7},"geometry":{"type":"LineString","coordinates":[[37.380155,-3.07813],[37.380055,-3.078223],[37.378947,-3.078353],[37.37894,-3.07855]]}},
{"type":"Feature","properties":{"mountain_slug":"kilimanjaro","trail":"Marangu","seq":157,"start_mile":15.7,"end_mile":15.8},"geometry":{"type":"LineString","coordinates":[[37.37894,-3.07855],[37.378937,-3.07863],[37.378852,-3.07864],[37.378242,-3.078425],[37.377974,-3.078465],[37.377643,-3.078312]]}},
{"type":"Feature","properties":{"mountain_slug":"kilimanjaro","trail":"Marangu","seq":158,"start_mile":15.8,"end_mile":15.9},"geometry":{"type":"LineString","coordinates":[[37.377643,-3.078312],[37.377206,-3.078111],[37.376864,-3.078133],[37.376313,-3.07799],[37.376258,-3.077994]]}},
{"type":"Feature","properties":{"mountain_slug":"kilimanjaro","trail":"Marangu","seq":159,"start_mile":15.9,"end_mile":16.0},"geometry":{"type":"LineString","coordinates":[[37.376258,-3.077994],[37.376096,-3.078003],[37.375933,-3.077798],[37.375638,-3.077693],[37.375571,-3.077581],[37.375433,-3.077608],[37.375348,-3.077433],[37.375213,-3.077428],[37.375144,-3.077339]]}},
{"type":"Feature","properties":{"mountain_slug":"kilimanjaro","trail":"Marangu","seq":160,"start_mile":16.0,"end_mile":16.1},"geometry":{"type":"LineString","coordinates":[[37.375144,-3.077339],[37.374968,-3.077109],[37.374955,-3.076954],[37.37473,-3.076839],[37.374398,-3.076457],[37.374177,-3.076539],[37.374171,-3.076529]]}},
{"type":"Feature","properties":{"mountain_slug":"kilimanjaro","trail":"Marangu","seq":161,"start_mile":16.1,"end_mile":16.2},"geometry":{"type":"LineString","coordinates":[[37.374171,-3.076529],[37.3741,-3.076414],[37.374007,-3.076454],[37.373837,-3.076359],[37.373645,-3.075957],[37.37342,-3.07609],[37.373342,-3.076047],[37.373217,-3.07618],[37.373186,-3.07615]]}},
{"type":"Feature","properties":{"mountain_slug":"kilimanjaro","trail":"Marangu","seq":162,"start_mile":16.2,"end_mile":16.3},"geometry":{"type":"LineString","coordinates":[[37.373186,-3.07615],[37.373077,-3.076047],[37.373007,-3.076132],[37.372929,-3.076022],[37.372827,-3.076107],[37.372712,-3.075765],[37.372422,-3.076005],[37.372353,-3.07583]]}},
{"type":"Feature","properties":{"mountain_slug":"kilimanjaro","trail":"Marangu","seq":163,"start_mile":16.3,"end_mile":16.4},"geometry":{"type":"LineString","coordinates":[[37.372353,-3.07583],[37.372349,-3.07582],[37.372254,-3.075877],[37.372204,-3.075812],[37.372069,-3.075945],[37.371921,-3.075718],[37.371784,-3.075795],[37.371716,-3.075668],[37.371634,-3.075713],[37.371576,-3.075475],[37.371462,-3.07557]]}},
{"type":"Feature","properties":{"mountain_slug":"kilimanjaro","trail":"Marangu","seq":164,"start_mile":16.4,"end_mile":16.5},"geometry":{"type":"LineString","coordinates":[[37.371462,-3.07557],[37.371374,-3.075643],[37.371201,-3.075318],[37.371078,-3.07543],[37.370943,-3.075318],[37.370718,-3.075528],[37.370478,-3.075317]]}},
{"type":"Feature","properties":{"mountain_slug":"kilimanjaro","trail":"Marangu","seq":165,"start_mile":16.5,"end_mile":16.6},"geometry":{"type":"LineString","coordinates":[[37.370478,-3.075317],[37.370466,-3.075306],[37.370278,-3.075403],[37.370243,-3.075333],[37.37011,-3.07532],[37.3697,-3.075403],[37.369395,-3.075093],[37.369275,-3.075116],[37.369268,-3.075081]]}},
{"type":"Feature","properties":{"mountain_slug":"kilimanjaro","trail":"Marangu","seq":166,"start_mile":16.6,"end_mile":16.7},"geometry":{"type":"LineString","coordinates":[[37.369268,-3.075081],[37.369203,-3.074753],[37.369068,-3.074796],[37.36906,-3.074674],[37.368908,-3.074724],[37.36889,-3.074639],[37.368752,-3.074656],[37.36873,-3.074599],[37.368462,-3.074626],[37.36836,-3.074536]]}},
{"type":"Feature","properties":{"mountain_slug":"kilimanjaro","trail":"Marangu","seq":167,"start_mile":16.7,"end_mile":16.8},"geometry":{"type":"LineString","coordinates":[[37.36836,-3.074536],[37.368259,-3.074446],[37.367164,-3.075175]]}},
{"type":"Feature","properties":{"mountain_slug":"kilimanjaro","trail":"Marangu","seq":168,"start_mile":16.8,"end_mile":16.9},"geometry":{"type":"LineString","coordinates":[[37.367164,-3.075175],[37.366695,-3.075488],[37.366072,-3.076119]]}},
{"type":"Feature","properties":{"mountain_slug":"kilimanjaro","trail":"Marangu","seq":169,"start_mile":16.9,"end_mile":17.0},"geometry":{"type":"LineString","coordinates":[[37.366072,-3.076119],[37.365977,-3.076215],[37.365496,-3.076265],[37.365294,-3.076371],[37.365206,-3.076657],[37.364977,-3.076858]]}},
{"type":"Feature","properties":{"mountain_slug":"kilimanjaro","trail":"Marangu","seq":170,"start_mile":17.0,"end_mile":17.1},"geometry":{"type":"LineString","coordinates":[[37.364977,-3.076858],[37.364962,-3.076872],[37.364435,-3.077042],[37.364067,-3.077483],[37.363785,-3.077589]]}},
{"type":"Feature","properties":{"mountain_slug":"kilimanjaro","trail":"Marangu","seq":171,"start_mile":17.1,"end_mile":17.2},"geometry":{"type":"LineString","coordinates":[[37.363785,-3.077589],[37.363333,-3.077758],[37.363103,-3.077768],[37.362518,-3.078215]]}},
{"type":"Feature","properties":{"mountain_slug":"kilimanjaro","trail":"Marangu","seq":172,"start_mile":17.2,"end_mile":17.3},"geometry":{"type":"LineString","coordinates":[[37.362518,-3.078215],[37.362308,-3.078375],[37.361584,-3.079058],[37.361397,-3.079101]]}},
{"type":"Feature","properties":{"mountain_slug":"kilimanjaro","trail":"Marangu","seq":173,"start_mile":17.3,"end_mile":17.4},"geometry":{"type":"LineString","coordinates":[[37.361397,-3.079101],[37.359985,-3.079423]]}},
{"type":"Feature","properties":{"mountain_slug":"kilimanjaro","trail":"Marangu","seq":174,"start_mile":17.4,"end_mile":17.5},"geometry":{"type":"LineString","coordinates":[[37.359985,-3.079423],[37.359745,-3.079477],[37.358812,-3.07948],[37.358561,-3.079384]]}},
{"type":"Feature","properties":{"mountain_slug":"kilimanjaro","trail":"Marangu","seq":175,"start_mile":17.5,"end_mile":17.6},"geometry":{"type":"LineString","coordinates":[[37.358561,-3.079384],[37.357408,-3.07894],[37.357255,-3.078792]]}},
{"type":"Feature","properties":{"mountain_slug":"kilimanjaro","trail":"Marangu","seq":176,"start_mile":17.6,"end_mile":17.7},"geometry":{"type":"LineString","coordinates":[[37.357255,-3.078792],[37.357072,-3.078614],[37.356733,-3.078496],[37.356685,-3.078344],[37.356455,-3.078166],[37.356076,-3.078091]]}},
{"type":"Feature","properties":{"mountain_slug":"kilimanjaro","trail":"Marangu","seq":177,"start_mile":17.7,"end_mile":17.8},"geometry":{"type":"LineString","coordinates":[[37.356076,-3.078091],[37.356058,-3.078087],[37.355133,-3.077518],[37.354895,-3.077267]]}},
{"type":"Feature","properties":{"mountain_slug":"kilimanjaro","trail":"Marangu","seq":178,"start_mile":17.8,"end_mile":17.89},"geometry":{"type":"LineString","coordinates":[[37.354895,-3.077267],[37.354701,-3.077063],[37.354497,-3.076741],[37.353999,-3.076408]]}}
]}
