{"type": "FeatureCollection", "attribution": "© OpenStreetMap contributors (ODbL 1.0), via Overture Maps Foundation release 2026-09-23.0", "license": "ODbL-1.0", "source": "https://overturemaps-us-west-2.s3.amazonaws.com/release/2026-09-23.0/theme=transportation/type=segment/", "features": [
{"type":"Feature","properties":{"mountain_slug":"kilimanjaro","name":"Barranco Wall","length_km":3.21,"elevation_gain_m":332,"source":"© OpenStreetMap contributors (ODbL), via Overture Maps"},"geometry":{"type":"LineString","coordinates":[[37.32969,-3.095419],[37.329931,-3.095349],[37.330314,-3.095099],[37.330438,-3.094924],[37.330771,-3.094758],[37.331099,-3.09437],[37.331385,-3.094165],[37.331799,-3.09401],[37.331956,-3.09403],[37.332336,-3.094377],[37.33261,-3.094455],[37.332718,-3.09459],[37.332716,-3.094918],[37.332517,-3.095216],[37.332666,-3.095506],[37.332706,-3.095412],[37.332782,-3.095519],[37.333556,-3.095196],[37.33371,-3.095246],[37.333975,-3.09568],[37.334255,-3.095822],[37.334554,-3.096215],[37.334619,-3.096482],[37.334768,-3.096521],[37.334865,-3.096885],[37.334827,-3.096993],[37.334941,-3.097004],[37.335196,-3.097355],[37.335619,-3.098303],[37.335703,-3.0983],[37.335722,-3.098444],[37.335793,-3.098531],[37.336144,-3.098585],[37.336501,-3.098936],[37.336541,-3.098865],[37.33664,-3.098944],[37.336654,-3.098781],[37.337052,-3.099072],[37.337255,-3.099305],[37.337231,-3.099455],[37.337378,-3.099595],[37.337486,-3.099986],[37.337598,-3.100023],[37.337817,-3.099958],[37.338549,-3.100577],[37.339468,-3.101059],[37.340504,-3.10131],[37.341164,-3.101103],[37.34219,-3.101289],[37.342294,-3.101445],[37.342289,-3.101727],[37.342024,-3.102424],[37.342232,-3.102625],[37.342558,-3.102622],[37.344007,-3.102175],[37.344516,-3.102291],[37.344757,-3.102181],[37.344952,-3.101984],[37.345276,-3.102142],[37.345564,-3.102184],[37.345878,-3.102365],[37.345986,-3.102591],[37.347105,-3.103637],[37.347076,-3.104062],[37.347243,-3.104771],[37.347144,-3.105227],[37.346971,-3.105512],[37.346686,-3.106964]]}},
{"type":"Feature","properties":{"mountain_slug":"kilimanjaro","name":"Lemosho","length_km":22.06,"elevation_gain_m":1765,"source":"© OpenStreetMap contributors (ODbL), via Overture Maps","note":"Longest of 3 OpenStreetMap pieces with this name that do not join into one line (22.1 of 28.2 km in the bbox)."},"geometry":{"type":"LineString","coordinates":[[37.194,-3.000797],[37.195872,-3.000857],[37.196298,-3.000762],[37.196588,-3.0004],[37.197297,-3.000119],[37.197379,-2.999857],[37.197663,-2.999567],[37.198224,-2.999492],[37.198916,-2.999024],[37.199866,-2.998912],[37.200044,-2.998645],[37.200372,-2.998695],[37.200495,-2.998648],[37.200616,-2.998172],[37.200878,-2.99819],[37.201027,-2.998115],[37.201192,-2.997777],[37.201618,-2.997775],[37.202033,-2.997877],[37.202243,-2.998012],[37.2025,-2.998018],[37.20279,-2.99819],[37.202868,-2.998502],[37.20324,-2.998477],[37.203572,-2.99904],[37.203815,-2.999158],[37.20385,-2.999268],[37.204365,-2.999672],[37.20446,-2.999875],[37.204895,-3.000242],[37.205635,-3.001377],[37.205853,-3.002185],[37.206127,-3.00267],[37.206185,-3.003087],[37.206313,-3.003327],[37.206585,-3.003733],[37.206807,-3.003855],[37.207157,-3.004397],[37.20739,-3.004533],[37.207618,-3.004907],[37.208081,-3.005425],[37.208561,-3.005527],[37.208855,-3.005702],[37.209033,-3.00568],[37.209688,-3.005873],[37.209803,-3.005961],[37.21022,-3.005972],[37.210678,-3.00632],[37.211178,-3.006418],[37.212177,-3.00613],[37.212803,-3.006163],[37.213298,-3.006047],[37.213958,-3.005563],[37.214527,-3.005308],[37.215843,-3.005032],[37.216315,-3.00486],[37.218147,-3.004673],[37.220512,-3.004695],[37.220783,-3.004895],[37.222038,-3.007135],[37.2225,-3.007553],[37.222775,-3.00794],[37.224063,-3.008883],[37.22467,-3.009192],[37.225368,-3.009873],[37.225708,-3.010012],[37.225975,-3.010223],[37.226162,-3.010255],[37.227375,-3.011032],[37.228242,-3.01188],[37.22931,-3.013233],[37.229407,-3.013715],[37.229744,-3.014082],[37.22983,-3.014294],[37.23003,-3.01446],[37.230305,-3.01452],[37.230373,-3.01474],[37.230468,-3.014805],[37.231223,-3.01503],[37.231432,-3.015272],[37.23225,-3.015678],[37.232723,-3.016105],[37.233097,-3.016652],[37.233578,-3.016892],[37.23455,-3.017655],[37.234872,-3.018084],[37.235211,-3.018268],[37.235332,-3.018587],[37.235942,-3.018878],[37.236422,-3.01954],[37.236787,-3.019765],[37.237397,-3.020459],[37.237854,-3.020697],[37.238276,-3.021094],[37.239003,-3.021379],[37.239264,-3.021696],[37.24064,-3.022173],[37.242645,-3.023302],[37.244525,-3.024253],[37.247842,-3.026526],[37.248867,-3.027504],[37.249059,-3.027665],[37.249248,-3.027646],[37.249473,-3.028022],[37.249963,-3.028282],[37.250322,-3.02866],[37.25193,-3.029263],[37.252226,-3.029579],[37.252966,-3.030006],[37.253267,-3.030295],[37.254817,-3.030479],[37.255359,-3.030436],[37.255955,-3.030824],[37.256794,-3.031657],[37.257592,-3.03215],[37.257971,-3.032745],[37.258164,-3.033271],[37.258651,-3.033913],[37.258695,-3.034245],[37.258642,-3.034658],[37.259722,-3.035826],[37.260595,-3.037433],[37.261522,-3.038269],[37.261981,-3.038333],[37.2626,-3.0388],[37.262958,-3.03895],[37.263134,-3.039119],[37.263342,-3.039516],[37.264118,-3.040109],[37.264805,-3.041061],[37.265021,-3.041191],[37.265445,-3.041676],[37.266678,-3.042418],[37.267928,-3.04329],[37.268227,-3.043592],[37.268934,-3.04405],[37.269195,-3.04446],[37.269612,-3.044643],[37.270097,-3.045128],[37.270348,-3.045688],[37.270478,-3.04655],[37.270529,-3.04821],[37.270824,-3.048803],[37.2712,-3.049966],[37.271574,-3.050496],[37.271628,-3.050809],[37.272426,-3.051484],[37.272913,-3.051747],[37.273192,-3.052024],[37.273416,-3.052469],[37.274,-3.05271],[37.274265,-3.053253],[37.274664,-3.053751],[37.275302,-3.054276],[37.276002,-3.054439],[37.276817,-3.054845],[37.277134,-3.054818],[37.277757,-3.055083],[37.278353,-3.055137],[37.278841,-3.05509],[37.279977,-3.05467],[37.281868,-3.054292],[37.282487,-3.054358],[37.284314,-3.05428],[37.285162,-3.054424],[37.285779,-3.054267],[37.287023,-3.054251],[37.28833,-3.054025],[37.289556,-3.054451],[37.290564,-3.054706],[37.291745,-3.054841],[37.292098,-3.054734],[37.292886,-3.05491],[37.294944,-3.055002],[37.29634,-3.055351],[37.297319,-3.055488],[37.2977,-3.055691],[37.298761,-3.055731],[37.299184,-3.055861],[37.300688,-3.056021],[37.301678,-3.056612],[37.302271,-3.056761],[37.302858,-3.056764],[37.303496,-3.056887],[37.304442,-3.056696],[37.30493,-3.056864],[37.305944,-3.056969],[37.306816,-3.057259],[37.307603,-3.057721],[37.308671,-3.058177],[37.309369,-3.0588],[37.310775,-3.059705],[37.311551,-3.060738],[37.311828,-3.060959],[37.31281,-3.061347],[37.313083,-3.061387],[37.313357,-3.061292],[37.313851,-3.061432],[37.316446,-3.063098],[37.316667,-3.063317],[37.317477,-3.063606],[37.317984,-3.063884],[37.319486,-3.064413],[37.319956,-3.06451],[37.321047,-3.065311],[37.321894,-3.065442],[37.322133,-3.065404],[37.323713,-3.06595],[37.325656,-3.066812],[37.326434,-3.067301],[37.327525,-3.067727],[37.327894,-3.068348],[37.32806,-3.069472],[37.327823,-3.069788],[37.327755,-3.070236],[37.327464,-3.071188],[37.327052,-3.072019],[37.32681,-3.072749],[37.326761,-3.074134],[37.32682,-3.074178],[37.326802,-3.07429],[37.327147,-3.07469],[37.326989,-3.075188],[37.32698,-3.075333],[37.327103,-3.075393],[37.327079,-3.075526],[37.32649,-3.076347],[37.325478,-3.077356],[37.325474,-3.077475],[37.325688,-3.077783],[37.325485,-3.07983],[37.325564,-3.080684],[37.325388,-3.081442],[37.325448,-3.081923],[37.325354,-3.082416],[37.325227,-3.082653],[37.325142,-3.083768],[37.325238,-3.083967],[37.325498,-3.084076],[37.325653,-3.084573],[37.325556,-3.086061],[37.325734,-3.086639],[37.326151,-3.087128],[37.326718,-3.087413],[37.327495,-3.087987],[37.32758,-3.088175],[37.328006,-3.088475],[37.328309,-3.088563],[37.328364,-3.088937],[37.328582,-3.089163],[37.328615,-3.089418],[37.328905,-3.089898],[37.328961,-3.09041],[37.328886,-3.092126],[37.329176,-3.09272],[37.329277,-3.093473],[37.32941,-3.093862],[37.329471,-3.094646],[37.32969,-3.095419]]}},
{"type":"Feature","properties":{"mountain_slug":"kilimanjaro","name":"Machame","length_km":16.4,"elevation_gain_m":2176,"source":"© OpenStreetMap contributors (ODbL), via Overture Maps","note":"Joined across 62 m of Machame, unnamed path. Longest of 2 OpenStreetMap pieces with this name that do not join into one line (16.4 of 21.0 km in the bbox)."},"geometry":{"type":"LineString","coordinates":[[37.238621,-3.173433],[37.238988,-3.172442],[37.23877,-3.172211],[37.238169,-3.172128],[37.237922,-3.172017],[37.237646,-3.171812],[37.237458,-3.171545],[37.237423,-3.171348],[37.237492,-3.171132],[37.237896,-3.170903],[37.237957,-3.170753],[37.237761,-3.169994],[37.237457,-3.169452],[37.237327,-3.169048],[37.237018,-3.168644],[37.237057,-3.167998],[37.237146,-3.167725],[37.237438,-3.167326],[37.237506,-3.166659],[37.238076,-3.165094],[37.238428,-3.163616],[37.238822,-3.163096],[37.239062,-3.1626],[37.239047,-3.161422],[37.239198,-3.160114],[37.239421,-3.159126],[37.23994,-3.157671],[37.2405,-3.15704],[37.240987,-3.156705],[37.241148,-3.156501],[37.241371,-3.155468],[37.242406,-3.153831],[37.242751,-3.152977],[37.243403,-3.152034],[37.243445,-3.151797],[37.243264,-3.151092],[37.243246,-3.150634],[37.242812,-3.148954],[37.242915,-3.148198],[37.242866,-3.147393],[37.243022,-3.146531],[37.243516,-3.145841],[37.243596,-3.144885],[37.243959,-3.14454],[37.244502,-3.144351],[37.244698,-3.144209],[37.245041,-3.14386],[37.245306,-3.143354],[37.245541,-3.143122],[37.245667,-3.142888],[37.245766,-3.142255],[37.246114,-3.1418],[37.246308,-3.141093],[37.246525,-3.140785],[37.246769,-3.140116],[37.246816,-3.139276],[37.246765,-3.138916],[37.246615,-3.138606],[37.246255,-3.138203],[37.246046,-3.137832],[37.245775,-3.136877],[37.246225,-3.135488],[37.246612,-3.134929],[37.246767,-3.134339],[37.246666,-3.13344],[37.246806,-3.132763],[37.246878,-3.131636],[37.247284,-3.130586],[37.247602,-3.130395],[37.247758,-3.130164],[37.247975,-3.129189],[37.247885,-3.128826],[37.248047,-3.128487],[37.248264,-3.127636],[37.248631,-3.127171],[37.248686,-3.126652],[37.24925,-3.126373],[37.249463,-3.126171],[37.249562,-3.125882],[37.249878,-3.125694],[37.250157,-3.125346],[37.250972,-3.12501],[37.251213,-3.124739],[37.251247,-3.124563],[37.251492,-3.124535],[37.251659,-3.124274],[37.251715,-3.123847],[37.251504,-3.123361],[37.251483,-3.123019],[37.251644,-3.122401],[37.251855,-3.122148],[37.251964,-3.121868],[37.252086,-3.121306],[37.251846,-3.120747],[37.252023,-3.119961],[37.251899,-3.11934],[37.252045,-3.11896],[37.252285,-3.118675],[37.25251,-3.117769],[37.252772,-3.117638],[37.253073,-3.117187],[37.253666,-3.116599],[37.25429,-3.116193],[37.255368,-3.114274],[37.256114,-3.113785],[37.25632,-3.113193],[37.257259,-3.112734],[37.257885,-3.112133],[37.258016,-3.110652],[37.258699,-3.108685],[37.25942,-3.107983],[37.260302,-3.107314],[37.260945,-3.106304],[37.261125,-3.105871],[37.261399,-3.104764],[37.261452,-3.10336],[37.261705,-3.102654],[37.26169,-3.102258],[37.261772,-3.102132],[37.261846,-3.101639],[37.262162,-3.100989],[37.262581,-3.099781],[37.263184,-3.098864],[37.263596,-3.098496],[37.264051,-3.097888],[37.264107,-3.097555],[37.264428,-3.097261],[37.26461,-3.096905],[37.265077,-3.096543],[37.265825,-3.095589],[37.266019,-3.095514],[37.266255,-3.095286],[37.266881,-3.095065],[37.266934,-3.09491],[37.266857,-3.094561],[37.267122,-3.094316],[37.267304,-3.094222],[37.267888,-3.094219],[37.268124,-3.093777],[37.268538,-3.093371],[37.268688,-3.093336],[37.26886,-3.093046],[37.2691,-3.093],[37.269479,-3.092657],[37.269959,-3.092389],[37.270142,-3.092189],[37.270407,-3.092018],[37.270585,-3.091986],[37.27069,-3.091703],[37.271,-3.091393],[37.27166,-3.091069],[37.272181,-3.091072],[37.272568,-3.090879],[37.272889,-3.090482],[37.273027,-3.090423],[37.273145,-3.090166],[37.27363,-3.089627],[37.273703,-3.089434],[37.274088,-3.089228],[37.274308,-3.088917],[37.274633,-3.088165],[37.274757,-3.088012],[37.27492,-3.08799],[37.275013,-3.087885],[37.275066,-3.087659],[37.275367,-3.087206],[37.275533,-3.08707],[37.275605,-3.086837],[37.275798,-3.086763],[37.275978,-3.086512],[37.276163,-3.086454],[37.276249,-3.0863],[37.276634,-3.085997],[37.276894,-3.085956],[37.27724,-3.085778],[37.277696,-3.08509],[37.27867,-3.084224],[37.278932,-3.083858],[37.279193,-3.083301],[37.279872,-3.082835],[37.280013,-3.082482],[37.280096,-3.081917],[37.280202,-3.081839],[37.280378,-3.081873],[37.28076,-3.081496],[37.28108,-3.080998],[37.281139,-3.080769],[37.281738,-3.080281],[37.282068,-3.079945],[37.282087,-3.079817],[37.282305,-3.07973],[37.282443,-3.079773],[37.282475,-3.079553],[37.282592,-3.079397],[37.282846,-3.079306],[37.283351,-3.078928],[37.284009,-3.078677],[37.284452,-3.078046],[37.284249,-3.077676],[37.284305,-3.077159],[37.284243,-3.077049],[37.284458,-3.076044],[37.284217,-3.075548],[37.284208,-3.075243],[37.283957,-3.074842],[37.283682,-3.074696],[37.283619,-3.074314],[37.28326,-3.073762],[37.283337,-3.073663],[37.283228,-3.073381],[37.283015,-3.073112],[37.282695,-3.072949],[37.282386,-3.072639],[37.282348,-3.072202],[37.282106,-3.071927],[37.282035,-3.071585],[37.281912,-3.071368],[37.281652,-3.07125],[37.281437,-3.070692],[37.281301,-3.070651],[37.281138,-3.070477],[37.280726,-3.070315],[37.279754,-3.070257],[37.279175,-3.06971],[37.278237,-3.069094],[37.27802,-3.068578],[37.277764,-3.068363],[37.277672,-3.068045],[37.27705,-3.067966],[37.27672,-3.067639],[37.276497,-3.067179],[37.276284,-3.066361],[37.276356,-3.065945],[37.276589,-3.065456],[37.276612,-3.065208],[37.276234,-3.064767],[37.276224,-3.064546],[37.275727,-3.0635],[37.27561,-3.062956],[37.275638,-3.061662],[37.275777,-3.061411],[37.275882,-3.060886],[37.27599,-3.058867],[37.275951,-3.058599],[37.275825,-3.058369],[37.275792,-3.057462],[37.275349,-3.05583],[37.275161,-3.054484]]}},
{"type":"Feature","properties":{"mountain_slug":"kilimanjaro","name":"Marangu","length_km":28.79,"elevation_gain_m":3609,"source":"© OpenStreetMap contributors (ODbL), via Overture Maps","note":"The hero trail: the longest named trail in the box. Mile 0 is the lower trailhead. Mile markers in trail_segments.geojson."},"geometry":{"type":"LineString","coordinates":[[37.518,-3.20422],[37.517901,-3.204026],[37.517886,-3.202746],[37.51757,-3.202136],[37.517388,-3.201518],[37.516703,-3.200558],[37.516528,-3.200023],[37.516151,-3.199703],[37.516109,-3.199563],[37.516212,-3.19921],[37.515702,-3.199249],[37.515453,-3.19911],[37.51531,-3.19823],[37.514828,-3.197886],[37.514703,-3.197255],[37.514341,-3.196814],[37.514266,-3.196407],[37.514052,-3.196196],[37.513826,-3.195539],[37.514076,-3.194732],[37.514208,-3.194529],[37.514311,-3.194439],[37.514668,-3.194378],[37.515213,-3.193872],[37.515244,-3.193309],[37.515432,-3.193005],[37.515493,-3.192374],[37.51568,-3.192254],[37.515775,-3.192064],[37.515745,-3.191623],[37.515879,-3.191406],[37.516294,-3.191286],[37.516474,-3.190807],[37.516209,-3.190074],[37.515967,-3.1878],[37.515484,-3.187615],[37.514949,-3.18719],[37.514748,-3.186916],[37.514286,-3.186582],[37.513913,-3.186014],[37.513471,-3.184229],[37.513623,-3.183882],[37.51364,-3.18345],[37.513835,-3.183039],[37.513903,-3.182457],[37.513876,-3.182375],[37.513685,-3.182292],[37.513456,-3.181941],[37.51338,-3.181608],[37.513386,-3.181023],[37.513714,-3.180584],[37.514022,-3.180494],[37.514301,-3.180284],[37.514723,-3.180117],[37.51608,-3.179896],[37.516341,-3.179758],[37.516604,-3.179465],[37.517094,-3.17839],[37.517124,-3.178114],[37.517013,-3.177787],[37.516517,-3.177169],[37.516375,-3.176502],[37.515188,-3.176167],[37.514976,-3.176236],[37.514714,-3.176199],[37.513952,-3.176532],[37.513145,-3.177335],[37.51301,-3.177383],[37.51252,-3.177248],[37.51221,-3.176984],[37.511981,-3.176892],[37.511239,-3.176946],[37.510742,-3.1768],[37.510417,-3.176839],[37.509938,-3.176697],[37.509529,-3.176843],[37.509181,-3.176717],[37.508135,-3.176012],[37.507998,-3.175714],[37.507931,-3.175294],[37.50744,-3.174745],[37.507022,-3.173981],[37.50669,-3.173668],[37.506575,-3.173313],[37.506554,-3.172647],[37.505915,-3.1717],[37.50554,-3.171398],[37.505167,-3.171349],[37.504151,-3.171028],[37.503012,-3.17098],[37.501413,-3.170338],[37.500969,-3.169779],[37.500961,-3.169508],[37.501221,-3.169219],[37.501126,-3.168953],[37.500486,-3.168047],[37.500043,-3.167777],[37.499772,-3.16749],[37.499612,-3.166946],[37.498791,-3.16605],[37.497537,-3.165295],[37.49726,-3.165009],[37.496641,-3.164597],[37.495814,-3.163833],[37.494584,-3.162982],[37.494274,-3.162657],[37.493874,-3.16259],[37.492947,-3.162174],[37.492318,-3.161634],[37.491338,-3.160975],[37.49105,-3.160663],[37.490696,-3.159914],[37.490644,-3.159559],[37.490057,-3.159094],[37.489614,-3.159035],[37.489435,-3.158914],[37.489165,-3.158508],[37.488659,-3.158052],[37.488461,-3.157371],[37.488237,-3.157436],[37.488082,-3.157583],[37.487769,-3.157536],[37.487164,-3.156977],[37.486697,-3.156304],[37.485386,-3.155038],[37.48481,-3.154577],[37.484287,-3.153959],[37.483908,-3.153639],[37.482865,-3.153251],[37.482244,-3.15274],[37.48152,-3.152413],[37.479925,-3.151872],[37.479091,-3.15178],[37.478647,-3.15182],[37.478062,-3.151685],[37.477479,-3.151691],[37.476667,-3.151517],[37.475726,-3.151484],[37.475587,-3.151327],[37.475339,-3.150715],[37.475194,-3.14988],[37.475007,-3.149577],[37.474963,-3.149322],[37.474638,-3.149059],[37.474472,-3.148766],[37.474358,-3.148361],[37.474026,-3.148056],[37.473553,-3.147969],[37.473198,-3.147641],[37.472817,-3.147508],[37.472082,-3.147073],[37.471189,-3.146232],[37.470701,-3.146041],[37.469297,-3.145917],[37.468832,-3.145556],[37.468271,-3.144932],[37.467737,-3.1445],[37.467087,-3.144199],[37.466819,-3.143995],[37.466255,-3.143925],[37.465266,-3.143949],[37.464787,-3.143853],[37.464069,-3.143953],[37.463856,-3.143864],[37.463708,-3.143655],[37.463363,-3.143773],[37.463312,-3.143557],[37.463486,-3.143194],[37.463498,-3.142852],[37.46292,-3.142611],[37.462667,-3.142366],[37.462408,-3.141872],[37.461845,-3.141419],[37.461542,-3.141535],[37.461229,-3.141925],[37.460519,-3.142142],[37.459563,-3.142056],[37.458927,-3.141816],[37.457853,-3.141771],[37.456472,-3.14128],[37.455906,-3.14127],[37.455309,-3.141143],[37.454825,-3.140845],[37.454606,-3.140836],[37.45418,-3.141064],[37.45386,-3.140804],[37.452758,-3.140718],[37.451022,-3.140096],[37.449831,-3.139844],[37.4476,-3.138842],[37.447125,-3.13869],[37.4467,-3.13865],[37.446412,-3.138161],[37.44579,-3.138395],[37.445247,-3.138443],[37.444571,-3.138369],[37.443579,-3.138625],[37.442955,-3.138958],[37.44264,-3.139221],[37.441942,-3.139292],[37.441545,-3.139452],[37.441056,-3.139948],[37.440251,-3.139713],[37.439553,-3.139735],[37.439386,-3.139849],[37.439029,-3.139747],[37.438775,-3.139428],[37.438451,-3.138826],[37.437598,-3.138224],[37.437195,-3.137611],[37.436904,-3.137309],[37.43642,-3.137402],[37.436178,-3.137149],[37.435836,-3.136955],[37.435443,-3.136217],[37.435177,-3.135957],[37.434895,-3.135304],[37.434037,-3.134406],[37.433271,-3.133073],[37.43277,-3.132667],[37.432671,-3.132448],[37.431348,-3.131145],[37.43047,-3.130697],[37.429827,-3.129893],[37.429242,-3.129373],[37.429072,-3.128694],[37.42874,-3.128245],[37.428686,-3.127907],[37.428236,-3.127298],[37.428099,-3.126803],[37.428,-3.12621],[37.428184,-3.125979],[37.428209,-3.125787],[37.428053,-3.125327],[37.428017,-3.123876],[37.427943,-3.12342],[37.427327,-3.122341],[37.427149,-3.12184],[37.426749,-3.121426],[37.42639,-3.12028],[37.426059,-3.119609],[37.425217,-3.118559],[37.424874,-3.117987],[37.424638,-3.117826],[37.424218,-3.117842],[37.423835,-3.117132],[37.423327,-3.116586],[37.422727,-3.115684],[37.421424,-3.114473],[37.420253,-3.112459],[37.4201,-3.112067],[37.419903,-3.111897],[37.419668,-3.111403],[37.41866,-3.110067],[37.414388,-3.106182],[37.413834,-3.105634],[37.412567,-3.103938],[37.411695,-3.103248],[37.411017,-3.102824],[37.410534,-3.102402],[37.409466,-3.101156],[37.409016,-3.100207],[37.408873,-3.099389],[37.408957,-3.098232],[37.409306,-3.096602],[37.409251,-3.095757],[37.40906,-3.095005],[37.408005,-3.092159],[37.406913,-3.089624],[37.405778,-3.088286],[37.404207,-3.086039],[37.402952,-3.084778],[37.402551,-3.084465],[37.402269,-3.084278],[37.401753,-3.084137],[37.399593,-3.083723],[37.399078,-3.083585],[37.3986,-3.083328],[37.397878,-3.083158],[37.397619,-3.083184],[37.397458,-3.083088],[37.396972,-3.08303],[37.396249,-3.082792],[37.395952,-3.082561],[37.394847,-3.082036],[37.394582,-3.081787],[37.394239,-3.081263],[37.393949,-3.08112],[37.391956,-3.081149],[37.391149,-3.081352],[37.390445,-3.081378],[37.390019,-3.081472],[37.389516,-3.081712],[37.388682,-3.081714],[37.387964,-3.081246],[37.387751,-3.08092],[37.387681,-3.080651],[37.387448,-3.080473],[37.387176,-3.080463],[37.385935,-3.079944],[37.385255,-3.079749],[37.384532,-3.079222],[37.384545,-3.07909],[37.384367,-3.079042],[37.384212,-3.078902],[37.384084,-3.078902],[37.384052,-3.078748],[37.383907,-3.078733],[37.383612,-3.078438],[37.383306,-3.078323],[37.383111,-3.078358],[37.383006,-3.078266],[37.382471,-3.078173],[37.381373,-3.078313],[37.380515,-3.078053],[37.380165,-3.078121],[37.380055,-3.078223],[37.378947,-3.078353],[37.378937,-3.07863],[37.378852,-3.07864],[37.378242,-3.078425],[37.377974,-3.078465],[37.377206,-3.078111],[37.376864,-3.078133],[37.376313,-3.07799],[37.376096,-3.078003],[37.375933,-3.077798],[37.375638,-3.077693],[37.375571,-3.077581],[37.375433,-3.077608],[37.375348,-3.077433],[37.375213,-3.077428],[37.374968,-3.077109],[37.374955,-3.076954],[37.37473,-3.076839],[37.374398,-3.076457],[37.374177,-3.076539],[37.3741,-3.076414],[37.374007,-3.076454],[37.373837,-3.076359],[37.373645,-3.075957],[37.37342,-3.07609],[37.373342,-3.076047],[37.373217,-3.07618],[37.373077,-3.076047],[37.373007,-3.076132],[37.372929,-3.076022],[37.372827,-3.076107],[37.372712,-3.075765],[37.372422,-3.076005],[37.372349,-3.07582],[37.372254,-3.075877],[37.372204,-3.075812],[37.372069,-3.075945],[37.371921,-3.075718],[37.371784,-3.075795],[37.371716,-3.075668],[37.371634,-3.075713],[37.371576,-3.075475],[37.371374,-3.075643],[37.371201,-3.075318],[37.371078,-3.07543],[37.370943,-3.075318],[37.370718,-3.075528],[37.370466,-3.075306],[37.370278,-3.075403],[37.370243,-3.075333],[37.37011,-3.07532],[37.3697,-3.075403],[37.369395,-3.075093],[37.369275,-3.075116],[37.369203,-3.074753],[37.369068,-3.074796],[37.36906,-3.074674],[37.368908,-3.074724],[37.36889,-3.074639],[37.368752,-3.074656],[37.36873,-3.074599],[37.368462,-3.074626],[37.368259,-3.074446],[37.366695,-3.075488],[37.365977,-3.076215],[37.365496,-3.076265],[37.365294,-3.076371],[37.365206,-3.076657],[37.364962,-3.076872],[37.364435,-3.077042],[37.364067,-3.077483],[37.363333,-3.077758],[37.363103,-3.077768],[37.362308,-3.078375],[37.361584,-3.079058],[37.359745,-3.079477],[37.358812,-3.07948],[37.357408,-3.07894],[37.357072,-3.078614],[37.356733,-3.078496],[37.356685,-3.078344],[37.356455,-3.078166],[37.356058,-3.078087],[37.355133,-3.077518],[37.354701,-3.077063],[37.354497,-3.076741],[37.353999,-3.076408]]}},
{"type":"Feature","properties":{"mountain_slug":"kilimanjaro","name":"Mweka","length_km":15.34,"elevation_gain_m":3004,"source":"© OpenStreetMap contributors (ODbL), via Overture Maps"},"geometry":{"type":"LineString","coordinates":[[37.341486,-3.2195],[37.342134,-3.218753],[37.342592,-3.217583],[37.34258,-3.217394],[37.342425,-3.217287],[37.342093,-3.21734],[37.341703,-3.217138],[37.341418,-3.217095],[37.340946,-3.216324],[37.340546,-3.21514],[37.340827,-3.214693],[37.340886,-3.214146],[37.341525,-3.213686],[37.341858,-3.213227],[37.342622,-3.211796],[37.343539,-3.210883],[37.344644,-3.210231],[37.345794,-3.209152],[37.345952,-3.208737],[37.345748,-3.208042],[37.345786,-3.207843],[37.346375,-3.207224],[37.3475,-3.206862],[37.347983,-3.20557],[37.34856,-3.205151],[37.348736,-3.204898],[37.348771,-3.204182],[37.349122,-3.203644],[37.349914,-3.202976],[37.350281,-3.202498],[37.350597,-3.202219],[37.350876,-3.201614],[37.351658,-3.200647],[37.351759,-3.19997],[37.352366,-3.199385],[37.352464,-3.198583],[37.352378,-3.198181],[37.352555,-3.197378],[37.352523,-3.19636],[37.352589,-3.195827],[37.352832,-3.195482],[37.353355,-3.194962],[37.353805,-3.193896],[37.353585,-3.192868],[37.353682,-3.192398],[37.353512,-3.191925],[37.353521,-3.190954],[37.354444,-3.189688],[37.354359,-3.189059],[37.354747,-3.188478],[37.355407,-3.18774],[37.355527,-3.186515],[37.355478,-3.185955],[37.355742,-3.185525],[37.355806,-3.185198],[37.356035,-3.184898],[37.356359,-3.18471],[37.356514,-3.184239],[37.357118,-3.183678],[37.357125,-3.183069],[37.357335,-3.182665],[37.357518,-3.182531],[37.358139,-3.181349],[37.358123,-3.180689],[37.357893,-3.180484],[37.357963,-3.179606],[37.357861,-3.17922],[37.358236,-3.178476],[37.35855,-3.17848],[37.359066,-3.177941],[37.359427,-3.176746],[37.359299,-3.176233],[37.359864,-3.175607],[37.360056,-3.175211],[37.360125,-3.174818],[37.360104,-3.173943],[37.359905,-3.173874],[37.359741,-3.173686],[37.359631,-3.173189],[37.359635,-3.172591],[37.359826,-3.172083],[37.359835,-3.171598],[37.35962,-3.171267],[37.359385,-3.171209],[37.359204,-3.17079],[37.359132,-3.170195],[37.359272,-3.169901],[37.359262,-3.169292],[37.359554,-3.168801],[37.359658,-3.168327],[37.359674,-3.167303],[37.359742,-3.167079],[37.360216,-3.16688],[37.361145,-3.166317],[37.361626,-3.166238],[37.362389,-3.165211],[37.363167,-3.164837],[37.363349,-3.164496],[37.363671,-3.16425],[37.364119,-3.163624],[37.36432,-3.16312],[37.36462,-3.16266],[37.364851,-3.162552],[37.365535,-3.161752],[37.365505,-3.161518],[37.365838,-3.160945],[37.36595,-3.160158],[37.366283,-3.159799],[37.366524,-3.15906],[37.366677,-3.158386],[37.366632,-3.157688],[37.366716,-3.157047],[37.367085,-3.156278],[37.367678,-3.155869],[37.367776,-3.155342],[37.368162,-3.155092],[37.368771,-3.155085],[37.368877,-3.154963],[37.3689,-3.154597],[37.369005,-3.15419],[37.369119,-3.154078],[37.369382,-3.152949],[37.369228,-3.152671],[37.369097,-3.152144],[37.369298,-3.151596],[37.369207,-3.151068],[37.369302,-3.150747],[37.369181,-3.150477],[37.369177,-3.149941],[37.369861,-3.148698],[37.370174,-3.148539],[37.370416,-3.148251],[37.370438,-3.147979],[37.370586,-3.147836],[37.370784,-3.147398],[37.37086,-3.147122],[37.370784,-3.146855],[37.371231,-3.145702],[37.371273,-3.14524],[37.371532,-3.144727],[37.371518,-3.144186],[37.371775,-3.143513],[37.371793,-3.142418],[37.372058,-3.14133],[37.372085,-3.138661],[37.372016,-3.138522],[37.372056,-3.138331],[37.371743,-3.137532],[37.371776,-3.137032],[37.371706,-3.136945],[37.371722,-3.136637],[37.371641,-3.136416],[37.371776,-3.136011],[37.371694,-3.135878],[37.371759,-3.135772],[37.371695,-3.135463],[37.371926,-3.134827],[37.371852,-3.13472],[37.371888,-3.134534],[37.371792,-3.13426],[37.371866,-3.133984],[37.371771,-3.133757],[37.371732,-3.133256],[37.372071,-3.132263],[37.372263,-3.132041],[37.372329,-3.131796],[37.372228,-3.131433],[37.37232,-3.131133],[37.372376,-3.13029],[37.372192,-3.129587],[37.372148,-3.12814],[37.372348,-3.126946],[37.372115,-3.125811],[37.371546,-3.124764],[37.371555,-3.122726],[37.37183,-3.121663],[37.373421,-3.118499],[37.374017,-3.117022],[37.374587,-3.116159],[37.37507,-3.115081],[37.375311,-3.114717],[37.375376,-3.114343],[37.375697,-3.113644],[37.377298,-3.110962],[37.377686,-3.109858],[37.377938,-3.109415],[37.37814,-3.109261],[37.378328,-3.108919],[37.3788,-3.108396],[37.37897,-3.10827],[37.379156,-3.10824],[37.379214,-3.107634],[37.378862,-3.106824],[37.37864,-3.105541],[37.378568,-3.104273],[37.378862,-3.103781],[37.37903,-3.103708],[37.379196,-3.103392],[37.379143,-3.103349],[37.379143,-3.102058],[37.379062,-3.101542],[37.378408,-3.100892]]}},
{"type":"Feature","properties":{"mountain_slug":"kilimanjaro","name":"Northern Circuit","length_km":25.39,"elevation_gain_m":2205,"source":"© OpenStreetMap contributors (ODbL), via Overture Maps"},"geometry":{"type":"LineString","coordinates":[[37.264489,-3.040642],[37.265245,-3.040975],[37.265914,-3.041497],[37.26622,-3.041649],[37.266756,-3.041676],[37.267282,-3.041806],[37.26822,-3.041724],[37.269111,-3.041833],[37.269375,-3.041798],[37.269593,-3.041965],[37.270803,-3.042187],[37.271094,-3.042168],[37.271692,-3.042278],[37.272229,-3.04221],[37.273596,-3.042646],[37.273809,-3.042622],[37.274066,-3.042417],[37.274293,-3.042383],[37.275045,-3.042533],[37.27642,-3.043284],[37.277124,-3.042974],[37.278033,-3.042841],[37.278488,-3.042971],[37.278873,-3.043183],[37.279419,-3.043148],[37.279663,-3.043225],[37.281004,-3.043239],[37.282084,-3.043118],[37.282937,-3.043223],[37.283105,-3.043123],[37.284144,-3.043204],[37.284716,-3.043053],[37.285435,-3.043236],[37.285702,-3.04316],[37.287143,-3.043288],[37.287815,-3.043133],[37.288364,-3.043257],[37.289405,-3.043296],[37.290605,-3.043076],[37.290834,-3.042933],[37.29102,-3.042974],[37.291432,-3.042736],[37.291638,-3.042701],[37.292318,-3.042777],[37.293164,-3.043055],[37.293371,-3.043244],[37.294819,-3.043489],[37.29557,-3.043428],[37.296264,-3.043582],[37.296604,-3.043545],[37.297718,-3.043185],[37.298147,-3.043232],[37.298658,-3.043133],[37.299182,-3.042887],[37.299782,-3.042025],[37.300427,-3.040485],[37.300491,-3.039658],[37.300689,-3.039613],[37.301832,-3.038691],[37.302569,-3.038287],[37.302904,-3.037729],[37.303191,-3.037463],[37.303162,-3.036991],[37.303783,-3.036557],[37.303875,-3.036212],[37.304153,-3.035854],[37.304519,-3.035125],[37.304716,-3.034569],[37.304766,-3.033916],[37.306297,-3.033605],[37.306666,-3.033611],[37.306991,-3.033705],[37.307556,-3.033626],[37.307908,-3.033502],[37.30839,-3.033493],[37.308498,-3.033334],[37.30887,-3.033107],[37.309119,-3.032798],[37.309294,-3.032725],[37.3095,-3.032417],[37.309957,-3.032077],[37.309981,-3.031949],[37.310146,-3.031798],[37.311603,-3.031463],[37.312337,-3.031442],[37.312806,-3.031329],[37.312998,-3.031147],[37.313485,-3.030904],[37.313948,-3.030826],[37.315014,-3.029896],[37.316308,-3.028562],[37.316629,-3.028326],[37.317087,-3.027592],[37.317329,-3.027377],[37.317365,-3.027222],[37.317515,-3.027191],[37.317777,-3.02699],[37.318494,-3.025818],[37.31895,-3.025589],[37.319502,-3.025143],[37.319881,-3.024949],[37.320559,-3.025058],[37.321881,-3.024886],[37.322448,-3.024705],[37.322669,-3.024569],[37.322913,-3.024142],[37.323288,-3.023744],[37.324266,-3.023023],[37.324677,-3.022548],[37.325166,-3.022159],[37.32701,-3.021797],[37.327483,-3.021646],[37.327744,-3.021522],[37.328006,-3.021184],[37.328212,-3.021141],[37.328282,-3.021033],[37.328559,-3.020931],[37.328825,-3.020413],[37.329259,-3.019935],[37.329409,-3.019514],[37.329713,-3.01905],[37.329972,-3.018871],[37.330119,-3.018591],[37.331024,-3.017518],[37.332502,-3.016169],[37.333875,-3.014457],[37.334956,-3.014392],[37.335996,-3.014006],[37.337052,-3.013826],[37.337817,-3.0138],[37.338774,-3.013599],[37.339307,-3.013439],[37.339982,-3.013022],[37.340768,-3.013086],[37.3428,-3.012563],[37.343776,-3.012587],[37.34421,-3.012503],[37.344782,-3.012281],[37.346202,-3.012004],[37.34692,-3.012339],[37.347083,-3.012279],[37.347453,-3.012317],[37.348112,-3.012253],[37.348213,-3.01213],[37.348429,-3.012182],[37.349967,-3.011927],[37.350981,-3.012082],[37.35161,-3.012261],[37.352611,-3.01215],[37.35479,-3.012646],[37.355508,-3.013041],[37.355903,-3.01352],[37.357102,-3.014326],[37.357734,-3.014933],[37.358036,-3.015448],[37.358058,-3.015804],[37.358325,-3.016172],[37.358292,-3.016527],[37.358622,-3.01651],[37.35882,-3.01641],[37.358913,-3.016602],[37.359037,-3.016623],[37.359174,-3.016584],[37.359226,-3.016479],[37.359735,-3.016446],[37.35992,-3.016311],[37.360177,-3.016347],[37.360627,-3.016039],[37.361368,-3.016108],[37.361722,-3.016456],[37.361842,-3.016968],[37.362026,-3.017317],[37.362405,-3.017647],[37.362958,-3.018351],[37.363227,-3.018551],[37.363403,-3.018911],[37.365675,-3.019791],[37.368445,-3.020518],[37.37053,-3.021987],[37.37201,-3.02266],[37.37241,-3.023102],[37.373839,-3.024112],[37.374642,-3.024326],[37.375665,-3.024966],[37.376286,-3.025021],[37.377376,-3.025677],[37.378169,-3.025485],[37.378591,-3.025729],[37.378634,-3.026368],[37.379216,-3.026303],[37.379977,-3.02655],[37.381054,-3.026568],[37.381752,-3.027269],[37.383052,-3.027759],[37.384153,-3.028832],[37.384472,-3.028885],[37.38502,-3.029316],[37.387303,-3.029996],[37.388132,-3.030837],[37.388792,-3.031222],[37.389036,-3.031482],[37.389972,-3.031905],[37.39046,-3.031908],[37.390659,-3.032135],[37.391083,-3.032344],[37.392121,-3.033118],[37.392754,-3.034061],[37.393971,-3.035448],[37.395455,-3.03738],[37.3962,-3.037996],[37.396546,-3.037964],[37.396715,-3.038122],[37.397423,-3.038301],[37.398432,-3.038759],[37.400224,-3.039034],[37.400231,-3.039164],[37.401615,-3.039077],[37.402147,-3.039763],[37.402675,-3.039897],[37.402892,-3.040094],[37.403358,-3.040898],[37.405026,-3.042019],[37.405185,-3.042671],[37.405701,-3.043382],[37.406542,-3.043769],[37.407533,-3.04392],[37.408388,-3.044502],[37.409084,-3.044659],[37.409535,-3.044606],[37.410098,-3.044823],[37.410614,-3.044654],[37.410414,-3.044953],[37.410336,-3.045336],[37.409656,-3.046141],[37.409154,-3.047069],[37.40858,-3.047913],[37.407426,-3.049222],[37.406794,-3.049572],[37.406494,-3.050074],[37.406002,-3.050405],[37.405342,-3.051296],[37.402553,-3.053919],[37.400352,-3.056967],[37.399825,-3.05748],[37.399515,-3.057602],[37.398803,-3.058748],[37.398042,-3.058896],[37.396815,-3.059544],[37.396087,-3.059678],[37.394977,-3.060307],[37.394386,-3.061098],[37.393595,-3.06308],[37.39229,-3.065213],[37.390116,-3.066521],[37.389221,-3.066669],[37.388366,-3.067028],[37.388135,-3.066989],[37.387511,-3.067553],[37.386427,-3.068171],[37.386516,-3.06828],[37.386118,-3.068539],[37.385799,-3.068327],[37.38537,-3.06833],[37.384458,-3.068763],[37.384252,-3.069055],[37.38411,-3.068962],[37.383694,-3.069378],[37.383719,-3.069681],[37.383028,-3.070423],[37.383165,-3.071636],[37.383048,-3.072004],[37.382437,-3.072139],[37.38191,-3.072993],[37.38162,-3.07312],[37.381194,-3.073614],[37.380661,-3.074636],[37.37966,-3.074707],[37.37951,-3.074909],[37.379187,-3.074891],[37.378826,-3.075546],[37.377152,-3.075937],[37.376793,-3.076595],[37.377093,-3.077531],[37.376725,-3.078112]]}},
{"type":"Feature","properties":{"mountain_slug":"kilimanjaro","name":"Rongai","length_km":28.25,"elevation_gain_m":2940,"source":"© OpenStreetMap contributors (ODbL), via Overture Maps"},"geometry":{"type":"LineString","coordinates":[[37.495212,-2.95939],[37.495113,-2.959453],[37.493837,-2.961448],[37.493398,-2.962617],[37.492814,-2.963047],[37.492234,-2.963593],[37.491545,-2.964418],[37.490049,-2.967606],[37.489654,-2.968702],[37.489294,-2.969104],[37.488036,-2.969894],[37.486974,-2.970802],[37.486679,-2.970968],[37.486119,-2.971089],[37.485131,-2.971467],[37.484727,-2.972008],[37.484249,-2.972273],[37.484102,-2.972527],[37.483804,-2.972632],[37.483272,-2.973032],[37.48212,-2.973397],[37.481877,-2.973365],[37.48115,-2.973728],[37.480155,-2.973802],[37.479467,-2.974085],[37.478625,-2.974102],[37.477442,-2.974482],[37.47567,-2.974448],[37.475403,-2.974273],[37.475297,-2.974103],[37.475288,-2.973918],[37.475183,-2.973837],[37.474893,-2.973793],[37.474833,-2.9736],[37.474493,-2.973463],[37.474378,-2.973212],[37.47414,-2.97304],[37.474112,-2.972907],[37.473932,-2.972757],[37.473456,-2.972804],[37.472754,-2.972615],[37.472591,-2.972677],[37.47214,-2.97336],[37.471747,-2.973593],[37.471586,-2.973856],[37.471308,-2.973998],[37.471132,-2.974016],[37.470887,-2.973736],[37.470611,-2.973613],[37.469991,-2.973601],[37.469679,-2.973725],[37.469266,-2.974064],[37.467751,-2.974213],[37.467222,-2.974684],[37.466877,-2.974809],[37.466558,-2.975098],[37.465762,-2.975199],[37.465293,-2.975384],[37.465025,-2.975397],[37.464731,-2.975575],[37.464309,-2.975596],[37.464142,-2.975703],[37.463377,-2.975811],[37.462264,-2.976652],[37.461617,-2.976886],[37.461207,-2.977129],[37.460131,-2.977979],[37.459879,-2.978045],[37.459222,-2.978614],[37.459144,-2.978967],[37.458528,-2.97976],[37.458128,-2.980104],[37.457938,-2.980743],[37.457038,-2.981724],[37.456558,-2.982074],[37.455848,-2.982446],[37.455615,-2.982442],[37.454513,-2.983249],[37.454092,-2.983328],[37.45363,-2.983272],[37.453427,-2.98339],[37.452994,-2.983325],[37.452817,-2.983219],[37.452377,-2.983188],[37.452075,-2.983304],[37.451768,-2.983238],[37.451434,-2.983278],[37.450078,-2.983045],[37.449611,-2.983044],[37.449272,-2.983232],[37.449155,-2.983414],[37.44889,-2.983453],[37.448621,-2.983846],[37.448482,-2.983899],[37.448345,-2.984074],[37.448285,-2.984362],[37.447797,-2.984854],[37.447552,-2.984962],[37.446941,-2.984975],[37.44662,-2.985234],[37.446183,-2.985263],[37.445831,-2.985888],[37.445254,-2.986544],[37.444566,-2.986696],[37.442826,-2.986564],[37.44228,-2.986372],[37.441991,-2.986346],[37.441681,-2.986419],[37.441207,-2.986867],[37.440622,-2.986913],[37.439494,-2.987326],[37.439208,-2.987578],[37.438814,-2.988181],[37.438206,-2.988814],[37.437236,-2.989449],[37.436419,-2.990471],[37.4358,-2.990935],[37.434872,-2.991383],[37.434453,-2.991847],[37.434153,-2.992367],[37.432808,-2.993648],[37.43208,-2.994143],[37.431919,-2.994506],[37.430977,-2.995045],[37.430389,-2.995687],[37.429829,-2.995964],[37.428868,-2.996751],[37.42852,-2.997279],[37.428452,-2.997675],[37.428105,-2.998269],[37.427888,-2.998381],[37.427511,-2.998359],[37.427258,-2.998437],[37.426572,-2.999182],[37.425618,-2.999767],[37.425275,-3.000161],[37.425012,-3.000258],[37.424874,-3.000532],[37.42379,-3.001729],[37.423756,-3.001947],[37.423446,-3.002323],[37.423371,-3.002651],[37.423085,-3.003086],[37.422106,-3.003448],[37.421305,-3.004007],[37.421216,-3.004554],[37.421034,-3.004847],[37.420985,-3.00513],[37.42084,-3.005298],[37.420542,-3.005423],[37.420375,-3.005645],[37.42024,-3.006098],[37.42002,-3.006391],[37.420084,-3.007158],[37.419876,-3.00751],[37.419859,-3.007699],[37.419452,-3.008232],[37.419319,-3.00852],[37.419009,-3.008785],[37.418888,-3.009657],[37.418965,-3.010023],[37.418794,-3.010329],[37.418779,-3.010682],[37.418696,-3.010894],[37.418704,-3.011523],[37.418462,-3.011885],[37.418354,-3.012765],[37.418194,-3.013063],[37.418121,-3.013655],[37.4177,-3.014326],[37.417688,-3.014645],[37.417495,-3.015375],[37.41751,-3.015812],[37.417402,-3.016102],[37.417481,-3.016513],[37.417423,-3.016708],[37.417758,-3.016859],[37.418263,-3.016884],[37.418502,-3.017091],[37.41873,-3.017168],[37.418953,-3.017416],[37.419235,-3.017492],[37.420039,-3.018012],[37.420292,-3.018005],[37.420426,-3.018178],[37.42052,-3.018407],[37.420477,-3.018825],[37.420602,-3.018971],[37.420653,-3.019431],[37.420799,-3.019696],[37.420825,-3.020005],[37.4211,-3.020552],[37.421679,-3.021198],[37.421656,-3.02183],[37.421868,-3.022084],[37.422206,-3.022737],[37.422532,-3.023044],[37.422602,-3.023276],[37.422581,-3.023996],[37.422884,-3.024424],[37.423503,-3.025787],[37.42404,-3.026493],[37.424159,-3.026976],[37.424159,-3.027284],[37.424648,-3.028111],[37.424762,-3.028166],[37.425268,-3.028094],[37.425491,-3.028142],[37.425938,-3.028873],[37.425975,-3.029063],[37.426433,-3.029503],[37.426747,-3.029987],[37.4268,-3.030205],[37.427027,-3.03048],[37.427569,-3.030778],[37.428045,-3.031246],[37.428433,-3.031507],[37.428819,-3.031562],[37.429399,-3.032018],[37.429689,-3.032066],[37.430399,-3.032747],[37.430672,-3.032827],[37.431451,-3.033535],[37.431702,-3.033909],[37.43225,-3.034386],[37.432693,-3.034675],[37.432863,-3.034903],[37.433094,-3.035501],[37.433412,-3.035918],[37.433702,-3.036791],[37.434009,-3.037139],[37.434119,-3.0374],[37.434634,-3.037635],[37.43508,-3.038214],[37.435187,-3.038461],[37.43519,-3.038667],[37.435125,-3.039132],[37.435048,-3.039246],[37.435045,-3.040076],[37.435167,-3.040388],[37.435841,-3.041099],[37.435877,-3.041257],[37.436055,-3.041446],[37.436117,-3.042121],[37.43633,-3.04228],[37.436856,-3.042997],[37.436936,-3.043322],[37.437102,-3.043575],[37.437117,-3.043809],[37.437635,-3.044193],[37.437898,-3.044534],[37.438222,-3.045167],[37.438374,-3.045193],[37.438998,-3.045583],[37.440225,-3.046624],[37.440923,-3.047007],[37.441296,-3.047385],[37.441551,-3.047805],[37.441973,-3.048203],[37.442025,-3.048404],[37.442358,-3.048652],[37.442497,-3.049021],[37.442746,-3.049343],[37.443253,-3.049699],[37.443646,-3.05049],[37.443668,-3.050665],[37.443862,-3.050877],[37.444144,-3.051081],[37.444691,-3.051123],[37.445194,-3.051661],[37.445617,-3.051996],[37.446754,-3.052608],[37.446947,-3.052742],[37.447159,-3.053027],[37.447434,-3.053097],[37.447685,-3.053414],[37.447808,-3.05401],[37.447747,-3.054308],[37.447891,-3.054512],[37.447904,-3.054667],[37.447839,-3.054839],[37.447639,-3.055041],[37.447469,-3.055493],[37.447433,-3.056274],[37.447139,-3.057269],[37.447105,-3.057618],[37.446824,-3.057857],[37.446544,-3.05832],[37.446542,-3.059164],[37.446383,-3.059467],[37.44631,-3.060152],[37.446616,-3.060623],[37.446934,-3.061745],[37.446799,-3.062768],[37.446922,-3.063291],[37.446873,-3.064837],[37.446923,-3.065283],[37.447035,-3.065521],[37.447014,-3.065666],[37.447184,-3.066078],[37.447247,-3.066654],[37.44753,-3.067288],[37.447573,-3.067718],[37.447887,-3.06824],[37.44834,-3.068651],[37.448585,-3.069055],[37.448702,-3.06947],[37.448974,-3.069878],[37.449116,-3.070327],[37.449595,-3.071237],[37.449694,-3.071891],[37.45039,-3.072583],[37.450478,-3.073521],[37.450759,-3.073946],[37.451539,-3.074696],[37.451812,-3.074713],[37.452127,-3.074967],[37.453084,-3.075194],[37.45327,-3.076312],[37.453674,-3.076899],[37.453698,-3.077078],[37.452903,-3.076179],[37.452448,-3.076481],[37.451967,-3.076633],[37.451569,-3.076611],[37.450995,-3.076785],[37.45016,-3.076743],[37.449519,-3.076993],[37.448648,-3.077082],[37.448188,-3.077396],[37.446969,-3.077061],[37.446506,-3.077369],[37.445202,-3.077649],[37.444905,-3.077634],[37.444523,-3.077448],[37.444271,-3.077426],[37.443869,-3.077613],[37.443425,-3.078173],[37.443116,-3.078359],[37.442834,-3.078263],[37.44144,-3.07893],[37.441161,-3.078956],[37.440991,-3.0788],[37.440767,-3.078722],[37.43996,-3.078641],[37.439305,-3.078793],[37.438383,-3.078804],[37.437672,-3.078926],[37.436845,-3.079163],[37.435487,-3.079843],[37.434728,-3.08],[37.434258,-3.080218],[37.43395,-3.080258],[37.433054,-3.080787],[37.432153,-3.081112],[37.43158,-3.081106],[37.429497,-3.080623],[37.427947,-3.080652],[37.425033,-3.080014],[37.42405,-3.080163],[37.420712,-3.079934],[37.420096,-3.080035],[37.415638,-3.080078],[37.414313,-3.079825],[37.412287,-3.079739],[37.411147,-3.079443],[37.409723,-3.079252],[37.408693,-3.078975],[37.407544,-3.078912],[37.406713,-3.079056],[37.403513,-3.079318],[37.401492,-3.079685],[37.401164,-3.079805],[37.400223,-3.079961],[37.399729,-3.079949],[37.399204,-3.080083],[37.398243,-3.080193],[37.397309,-3.080235],[37.396684,-3.080343],[37.39573,-3.080227],[37.392593,-3.080756],[37.392284,-3.080837],[37.391956,-3.081149]]}},
{"type":"Feature","properties":{"mountain_slug":"kilimanjaro","name":"Scree Slope","length_km":1.68,"elevation_gain_m":645,"source":"© OpenStreetMap contributors (ODbL), via Overture Maps"},"geometry":{"type":"LineString","coordinates":[[37.372923,-3.088973],[37.372865,-3.088804],[37.372504,-3.088416],[37.372539,-3.088288],[37.37228,-3.088209],[37.372123,-3.087485],[37.371896,-3.087108],[37.371729,-3.087064],[37.371672,-3.086868],[37.37157,-3.086884],[37.371351,-3.086598],[37.370886,-3.08629],[37.370764,-3.085821],[37.370675,-3.085803],[37.370483,-3.084833],[37.37025,-3.084554],[37.370167,-3.08427],[37.369823,-3.083681],[37.368754,-3.082477],[37.368164,-3.082465],[37.368071,-3.082335],[37.368075,-3.082077],[37.367699,-3.082044],[37.36742,-3.081851],[37.366802,-3.081088],[37.366655,-3.081093],[37.366531,-3.080618],[37.366348,-3.080332],[37.365482,-3.080004],[37.365073,-3.079974],[37.364309,-3.079366],[37.36377,-3.079259]]}},
{"type":"Feature","properties":{"mountain_slug":"kilimanjaro","name":"Shira","length_km":6.45,"elevation_gain_m":245,"source":"© OpenStreetMap contributors (ODbL), via Overture Maps","note":"Joined across 84 m of Shira."},"geometry":{"type":"LineString","coordinates":[[37.230896,-2.986293],[37.23153,-2.986104],[37.231844,-2.98616],[37.232116,-2.98631],[37.232608,-2.986775],[37.23311,-2.98738],[37.233586,-2.988469],[37.234138,-2.989035],[37.234251,-2.989346],[37.234485,-2.989685],[37.234941,-2.990173],[37.235571,-2.990529],[37.235992,-2.9909],[37.236807,-2.991808],[37.237224,-2.992398],[37.23765,-2.99348],[37.237682,-2.993992],[37.237502,-2.995436],[37.237969,-2.997584],[37.238726,-2.999268],[37.238859,-3.000758],[37.239379,-3.002185],[37.239633,-3.003612],[37.240082,-3.004555],[37.240782,-3.005318],[37.24089,-3.006084],[37.24103,-3.006372],[37.242126,-3.007308],[37.242502,-3.007872],[37.242671,-3.00799],[37.243638,-3.008107],[37.243848,-3.008174],[37.244265,-3.00847],[37.244543,-3.008932],[37.244656,-3.009569],[37.245122,-3.010087],[37.24604,-3.010687],[37.246733,-3.010721],[37.246939,-3.010811],[37.248168,-3.011621],[37.248736,-3.012193],[37.249532,-3.013276],[37.250107,-3.013884],[37.250676,-3.014264],[37.25137,-3.014902],[37.251712,-3.015872],[37.252544,-3.017173],[37.252952,-3.017667],[37.253393,-3.018776],[37.254577,-3.020694],[37.254735,-3.021068],[37.254833,-3.02204],[37.254524,-3.02236],[37.254492,-3.022589],[37.254816,-3.023916],[37.255269,-3.024671],[37.255289,-3.02561],[37.255612,-3.026178],[37.256001,-3.026509],[37.256817,-3.027411],[37.25701,-3.027673],[37.257173,-3.028112],[37.257149,-3.028357],[37.256534,-3.029091],[37.256471,-3.029365],[37.256559,-3.029666],[37.256943,-3.030163],[37.25696,-3.030336],[37.256739,-3.030686],[37.25646,-3.030879],[37.256739,-3.030686],[37.256889,-3.030523],[37.25696,-3.030336],[37.257086,-3.0308],[37.257233,-3.031006]]}},
{"type":"Feature","properties":{"mountain_slug":"kilimanjaro","name":"Umbwe","length_km":14.05,"elevation_gain_m":2537,"source":"© OpenStreetMap contributors (ODbL), via Overture Maps"},"geometry":{"type":"LineString","coordinates":[[37.279583,-3.189555],[37.27952,-3.188508],[37.279912,-3.186762],[37.279889,-3.186021],[37.279798,-3.185575],[37.279578,-3.185286],[37.278705,-3.184862],[37.278232,-3.184252],[37.277781,-3.181635],[37.280009,-3.177916],[37.280277,-3.177582],[37.282344,-3.175627],[37.282314,-3.174475],[37.282107,-3.173739],[37.282073,-3.173333],[37.282785,-3.170686],[37.282766,-3.168684],[37.283017,-3.168398],[37.283398,-3.167212],[37.283366,-3.166983],[37.283068,-3.166432],[37.283149,-3.165211],[37.283494,-3.164507],[37.283906,-3.164093],[37.283688,-3.163539],[37.283786,-3.162767],[37.284147,-3.162323],[37.28477,-3.161956],[37.285829,-3.162112],[37.28625,-3.162093],[37.286358,-3.162011],[37.286432,-3.161723],[37.28574,-3.161158],[37.285719,-3.160807],[37.285886,-3.160492],[37.286215,-3.160172],[37.286892,-3.159868],[37.287143,-3.159409],[37.287466,-3.15915],[37.288136,-3.159195],[37.288853,-3.158956],[37.289075,-3.158311],[37.289354,-3.157904],[37.289559,-3.157351],[37.290173,-3.157256],[37.29022,-3.156685],[37.290028,-3.155412],[37.290046,-3.155015],[37.289747,-3.154005],[37.289805,-3.153372],[37.289597,-3.15259],[37.289616,-3.151781],[37.289448,-3.150832],[37.290124,-3.149065],[37.290291,-3.148895],[37.290678,-3.148815],[37.291176,-3.148398],[37.292134,-3.147959],[37.292373,-3.147628],[37.292678,-3.147474],[37.292918,-3.147209],[37.293265,-3.146265],[37.293894,-3.145441],[37.294132,-3.145257],[37.29504,-3.144807],[37.295457,-3.144696],[37.29606,-3.144356],[37.296463,-3.144477],[37.296677,-3.144707],[37.29682,-3.144684],[37.296942,-3.143834],[37.297138,-3.143765],[37.298008,-3.143733],[37.298267,-3.143266],[37.298424,-3.143185],[37.298613,-3.143216],[37.299599,-3.142458],[37.300278,-3.14184],[37.300454,-3.141417],[37.301001,-3.14092],[37.30123,-3.140196],[37.30174,-3.139317],[37.302065,-3.138937],[37.30239,-3.138134],[37.302526,-3.1381],[37.302586,-3.138249],[37.302776,-3.138272],[37.302917,-3.137866],[37.303521,-3.137385],[37.303628,-3.137072],[37.303994,-3.13676],[37.304161,-3.136419],[37.304275,-3.136335],[37.304773,-3.136255],[37.305172,-3.136306],[37.305467,-3.136506],[37.305744,-3.136922],[37.305932,-3.137041],[37.306102,-3.136998],[37.30638,-3.136723],[37.306794,-3.13663],[37.307315,-3.135733],[37.307362,-3.135334],[37.307552,-3.13524],[37.307663,-3.13507],[37.307771,-3.134388],[37.308099,-3.133734],[37.308765,-3.133092],[37.308908,-3.132664],[37.309539,-3.13203],[37.309488,-3.131751],[37.309779,-3.131315],[37.309844,-3.13095],[37.310195,-3.130658],[37.310291,-3.130331],[37.310553,-3.130104],[37.3107,-3.129703],[37.310889,-3.129464],[37.310872,-3.129219],[37.311062,-3.128899],[37.311273,-3.127714],[37.311247,-3.127507],[37.311065,-3.12733],[37.311268,-3.126629],[37.311456,-3.126421],[37.311638,-3.126037],[37.311858,-3.125977],[37.31204,-3.125751],[37.31213,-3.125074],[37.312284,-3.124735],[37.312642,-3.124409],[37.31287,-3.123981],[37.313144,-3.123654],[37.313186,-3.123489],[37.313753,-3.123035],[37.314379,-3.122263],[37.314277,-3.122098],[37.313751,-3.121957],[37.313712,-3.121888],[37.313958,-3.121627],[37.314123,-3.121311],[37.314472,-3.119725],[37.314468,-3.118859],[37.314133,-3.118422],[37.314224,-3.117664],[37.314518,-3.116927],[37.314976,-3.116293],[37.316149,-3.115211],[37.316242,-3.114633],[37.316663,-3.113769],[37.317034,-3.113557],[37.318345,-3.113093],[37.318501,-3.112753],[37.319013,-3.112408],[37.319306,-3.112337],[37.319673,-3.111371],[37.319875,-3.111207],[37.320078,-3.111193],[37.320265,-3.1113],[37.320422,-3.111177],[37.320608,-3.110398],[37.321044,-3.109471],[37.321549,-3.108995],[37.321927,-3.109002],[37.322333,-3.108461],[37.322556,-3.107948],[37.32264,-3.107901],[37.322698,-3.107596],[37.322892,-3.107491],[37.32298,-3.107004],[37.323122,-3.106828],[37.3231,-3.106649],[37.323282,-3.106292],[37.32322,-3.105854],[37.323691,-3.105424],[37.323742,-3.105209],[37.323932,-3.105066],[37.324121,-3.10441],[37.324103,-3.103961],[37.324034,-3.103881],[37.324528,-3.102937],[37.324548,-3.102244],[37.324661,-3.102029],[37.32457,-3.101992],[37.324595,-3.10177],[37.324461,-3.101558],[37.324869,-3.100978],[37.324893,-3.100729],[37.325264,-3.09996],[37.325496,-3.098888],[37.326017,-3.097993],[37.326756,-3.097349],[37.326793,-3.09723],[37.327346,-3.096893],[37.32759,-3.096082],[37.328055,-3.095689],[37.328228,-3.095577],[37.32969,-3.095419]]}}
]}
