{"type": "FeatureCollection", "attribution": "© OpenStreetMap contributors (ODbL 1.0), via Overture Maps Foundation release 2026-09-23.0", "license": "ODbL-1.0", "source": "https://overturemaps-us-west-2.s3.amazonaws.com/release/2026-09-23.0/theme=transportation/type=segment/", "mountain_slug": "kilimanjaro", "hero_trail": "Barranco Wall", "hero_length_mi": 1.978, "elevation": "meters above the EGM2008 geoid, sampled from the Copernicus DEM (step 10)", "features": [
{"type":"Feature","properties":{"trail":null,"hero":false,"class":"path","length_m":662.5},"geometry":{"type":"LineString","coordinates":[[37.328591,-3.089227,4093.6],[37.328731,-3.089427,4086.5],[37.328806,-3.089472,4082.7],[37.328853,-3.08951,4080.5],[37.328881,-3.089548,4079.3],[37.328896,-3.089583,4078.9],[37.328906,-3.089604,4078.7],[37.328935,-3.089627,4077.8],[37.328987,-3.089658,4076.0],[37.329031,-3.0897,4074.4],[37.329069,-3.089745,4072.6],[37.329174,-3.089889,4067.7],[37.32928,-3.090039,4062.8],[37.329397,-3.090215,4055.8],[37.329517,-3.090346,4050.7],[37.32962,-3.090474,4046.6],[37.329666,-3.09054,4044.5],[37.329692,-3.090615,4042.8],[37.329703,-3.090676,4041.5],[37.329723,-3.090737,4040.0],[37.32975,-3.090779,4039.2],[37.329769,-3.090808,4038.6],[37.329783,-3.090843,4038.0],[37.329791,-3.090934,4036.4],[37.329822,-3.091077,4034.0],[37.329863,-3.091201,4031.6],[37.329882,-3.091301,4029.5],[37.32989,-3.091331,4028.9],[37.329906,-3.091359,4028.3],[37.329949,-3.091413,4027.0],[37.330024,-3.09152,4024.9],[37.330111,-3.091634,4023.1],[37.330159,-3.091717,4021.7],[37.330177,-3.091749,4021.2],[37.330183,-3.09177,4020.9],[37.330191,-3.091847,4019.6],[37.330203,-3.091892,4018.9],[37.330219,-3.091931,4018.3],[37.330255,-3.092002,4017.1],[37.330298,-3.092122,4014.9],[37.330317,-3.092233,4012.8],[37.330348,-3.092302,4011.6],[37.330401,-3.092392,4010.0],[37.330475,-3.092501,4008.0],[37.330537,-3.092616,4006.1],[37.330573,-3.092697,4004.7],[37.330597,-3.092728,4004.2],[37.330633,-3.092751,4003.9],[37.330699,-3.092777,4003.6],[37.330774,-3.092826,4002.9],[37.33088,-3.092884,4002.2],[37.330972,-3.092929,4001.6],[37.331009,-3.092952,4001.4],[37.331037,-3.09298,4001.0],[37.331063,-3.093042,4000.2],[37.33108,-3.093111,3999.0],[37.331088,-3.09319,3997.6],[37.331086,-3.093258,3996.3],[37.331083,-3.093307,3995.4],[37.331082,-3.093332,3994.9],[37.331089,-3.093359,3994.4],[37.331131,-3.093405,3993.2],[37.331159,-3.093436,3992.1],[37.331174,-3.093452,3991.6],[37.3312,-3.093466,3990.9],[37.331221,-3.093477,3990.3],[37.331241,-3.093493,3989.6],[37.331268,-3.093542,3988.3],[37.331334,-3.093662,3985.0],[37.331391,-3.093769,3982.3],[37.331416,-3.093807,3981.0],[37.331451,-3.093833,3979.6],[37.33151,-3.093854,3977.6],[37.331557,-3.09387,3976.0],[37.331598,-3.093898,3974.3],[37.331644,-3.093942,3971.8],[37.331712,-3.094042,3968.6]]}},
{"type":"Feature","properties":{"trail":null,"hero":false,"class":"path","length_m":456.5},"geometry":{"type":"LineString","coordinates":[[37.328591,-3.089227,4093.6],[37.328582,-3.089163,4094.1],[37.328537,-3.089093,4096.8],[37.328429,-3.088955,4102.5],[37.328364,-3.088937,4105.5],[37.328347,-3.088873,4106.4],[37.32834,-3.088792,4107.8],[37.328323,-3.088691,4109.8],[37.328309,-3.088563,4112.1],[37.328266,-3.088521,4114.5],[37.328183,-3.088541,4117.8],[37.328096,-3.088518,4121.9],[37.328006,-3.088475,4126.4],[37.327969,-3.088416,4128.8],[37.327872,-3.088349,4133.3],[37.32772,-3.088259,4139.8],[37.32758,-3.088175,4145.5],[37.32754,-3.08809,4147.3],[37.327495,-3.087987,4148.1],[37.327408,-3.087916,4150.4],[37.327247,-3.087832,4155.8],[37.327103,-3.087721,4159.7],[37.326958,-3.087637,4163.9],[37.326803,-3.087521,4168.4],[37.326718,-3.087413,4170.0],[37.326582,-3.087316,4174.2],[37.326416,-3.087258,4180.0],[37.326245,-3.087195,4187.0],[37.326151,-3.087128,4191.2],[37.326036,-3.087027,4196.6],[37.326023,-3.086925,4196.7],[37.325975,-3.086861,4197.8],[37.325835,-3.08673,4202.4],[37.325735,-3.086639,4206.4]]}},
{"type":"Feature","properties":{"trail":null,"hero":false,"class":"path","length_m":467.3},"geometry":{"type":"LineString","coordinates":[[37.328591,-3.089227,4093.6],[37.328593,-3.089337,4093.5],[37.328615,-3.089418,4092.3],[37.328696,-3.089564,4088.9],[37.328779,-3.089695,4085.4],[37.328867,-3.089804,4080.2],[37.328905,-3.089898,4077.4],[37.328928,-3.090028,4074.9],[37.32895,-3.090175,4071.1],[37.328942,-3.090297,4068.6],[37.328961,-3.09041,4065.0],[37.328953,-3.090664,4058.6],[37.328945,-3.090884,4053.5],[37.328922,-3.091145,4047.5],[37.328905,-3.091368,4042.2],[37.328894,-3.091569,4037.5],[37.328907,-3.091681,4034.9],[37.328914,-3.09177,4033.2],[37.328903,-3.091899,4031.0],[37.328889,-3.092007,4029.2],[37.328886,-3.092126,4026.7],[37.328913,-3.092204,4024.4],[37.32895,-3.092289,4021.9],[37.328966,-3.09236,4020.3],[37.32899,-3.092435,4018.6],[37.329063,-3.092501,4016.9],[37.329129,-3.092609,4014.8],[37.329176,-3.09272,4013.0],[37.329185,-3.092852,4010.6],[37.329187,-3.09294,4008.7],[37.329211,-3.093071,4006.0],[37.329242,-3.093138,4004.7],[37.32924,-3.093266,4002.4]]}},
{"type":"Feature","properties":{"trail":null,"hero":false,"class":"path","length_m":822.6},"geometry":{"type":"LineString","coordinates":[[37.325735,-3.086639,4206.4],[37.325599,-3.0866,4212.5],[37.325464,-3.086562,4218.4],[37.32526,-3.086409,4225.8],[37.32513,-3.086266,4231.1],[37.325016,-3.086116,4234.6],[37.32488,-3.085947,4242.1],[37.324793,-3.085813,4246.0],[37.324705,-3.085678,4250.8],[37.32461,-3.085531,4256.7],[37.324514,-3.085383,4263.2],[37.32443,-3.085127,4270.9],[37.324398,-3.084984,4275.3],[37.324365,-3.084841,4280.3],[37.324339,-3.084683,4284.8],[37.324313,-3.084526,4289.4],[37.324278,-3.08436,4294.1],[37.324242,-3.084195,4298.5],[37.324184,-3.083982,4304.9],[37.324127,-3.083769,4311.8],[37.323979,-3.083554,4323.2],[37.32381,-3.083378,4335.0],[37.323608,-3.083212,4348.7],[37.323506,-3.083128,4354.4],[37.32345,-3.083045,4358.1],[37.323415,-3.082948,4361.0],[37.32338,-3.082803,4364.4],[37.323345,-3.082659,4368.3],[37.323262,-3.082422,4374.9],[37.323195,-3.082314,4378.4],[37.323117,-3.082234,4381.2],[37.323036,-3.082141,4383.1],[37.32303,-3.082096,4383.5],[37.323034,-3.082044,4384.1],[37.323054,-3.081946,4385.6],[37.32307,-3.081856,4386.3],[37.32307,-3.081809,4386.7],[37.323061,-3.081756,4387.1],[37.323044,-3.08169,4387.4],[37.323035,-3.081631,4387.6],[37.323041,-3.081536,4388.1],[37.323051,-3.081424,4388.9],[37.323044,-3.081347,4389.4],[37.323038,-3.081304,4389.7],[37.32304,-3.081273,4390.1],[37.323051,-3.081249,4390.6],[37.323071,-3.081207,4391.4],[37.323077,-3.081165,4391.9],[37.323071,-3.081123,4392.3],[37.323056,-3.081057,4392.7],[37.323055,-3.080952,4393.6],[37.323039,-3.080772,4394.7],[37.323032,-3.080597,4395.6],[37.322994,-3.080408,4396.1],[37.322947,-3.080221,4395.9]]}},
{"type":"Feature","properties":{"trail":null,"hero":false,"class":"path","length_m":302.5},"geometry":{"type":"LineString","coordinates":[[37.325735,-3.086639,4206.4],[37.325697,-3.086468,4207.6],[37.325651,-3.086309,4209.7],[37.325624,-3.086171,4211.3],[37.325556,-3.086061,4213.3],[37.325559,-3.08591,4215.7],[37.325582,-3.085783,4218.2],[37.325544,-3.08569,4220.8],[37.325567,-3.085622,4222.4],[37.325623,-3.085488,4225.5],[37.325646,-3.085288,4230.4],[37.325652,-3.085061,4236.7],[37.325647,-3.08487,4243.3],[37.325658,-3.084754,4247.5],[37.325653,-3.084573,4255.1],[37.325619,-3.084458,4260.5],[37.325579,-3.084339,4266.4],[37.325539,-3.084228,4271.8],[37.325498,-3.084076,4279.0],[37.325437,-3.084012,4282.2]]}},
{"type":"Feature","properties":{"trail":null,"hero":false,"class":"path","length_m":115.6},"geometry":{"type":"LineString","coordinates":[[37.32924,-3.093266,4002.4],[37.329259,-3.093373,4000.6],[37.329277,-3.093473,3998.9],[37.329326,-3.093572,3997.0],[37.329328,-3.093654,3995.8],[37.329332,-3.093709,3995.1],[37.329356,-3.093765,3994.2],[37.329387,-3.093809,3993.5],[37.32941,-3.093862,3992.7],[37.329419,-3.093923,3992.0],[37.329427,-3.093998,3991.1],[37.329425,-3.09415,3989.4],[37.329432,-3.094276,3987.6]]}},
{"type":"Feature","properties":{"trail":null,"hero":false,"class":"path","length_m":253.2},"geometry":{"type":"LineString","coordinates":[[37.32924,-3.093266,4002.4],[37.329177,-3.093373,4001.0],[37.329131,-3.093475,3999.3],[37.329092,-3.093576,3997.4],[37.329079,-3.093674,3995.7],[37.32908,-3.093806,3993.7],[37.329079,-3.09399,3990.5],[37.329087,-3.094143,3987.8],[37.329094,-3.094295,3985.1],[37.329099,-3.094476,3981.8],[37.329054,-3.094682,3978.4],[37.329042,-3.09492,3974.9],[37.32903,-3.095157,3971.5],[37.329052,-3.095335,3969.2],[37.329074,-3.095512,3966.8]]}},
{"type":"Feature","properties":{"trail":null,"hero":false,"class":"path","length_m":723.2},"geometry":{"type":"LineString","coordinates":[[37.357373,-3.104392,4130.9],[37.357322,-3.104143,4137.7],[37.35729,-3.103972,4144.5],[37.357346,-3.103899,4150.2],[37.357421,-3.103873,4155.0],[37.35756,-3.103962,4155.7],[37.3577,-3.104052,4156.5],[37.357872,-3.104132,4158.2],[37.358067,-3.104155,4162.8],[37.358263,-3.104178,4165.8],[37.358432,-3.104266,4165.8],[37.358547,-3.10429,4167.5],[37.358754,-3.104223,4176.2],[37.358861,-3.104194,4181.0],[37.358918,-3.104301,4179.1],[37.359068,-3.104408,4183.4],[37.359241,-3.104455,4191.4],[37.359414,-3.104502,4198.6],[37.359581,-3.104581,4203.6],[37.359748,-3.104659,4208.6],[37.359915,-3.104738,4213.0],[37.360126,-3.104829,4217.1],[37.360336,-3.104921,4219.9],[37.360547,-3.105013,4223.1],[37.360758,-3.105105,4228.5],[37.360901,-3.105202,4231.4],[37.361045,-3.1053,4234.2],[37.361236,-3.105403,4239.3],[37.361428,-3.105506,4244.1],[37.361628,-3.105557,4248.7],[37.361828,-3.105608,4254.8],[37.36197,-3.105762,4262.5],[37.362112,-3.105916,4268.7],[37.362219,-3.106053,4272.5],[37.362351,-3.10616,4275.9],[37.362484,-3.106267,4279.6],[37.362524,-3.106357,4281.8]]}},
{"type":"Feature","properties":{"trail":null,"hero":false,"class":"path","length_m":996.5},"geometry":{"type":"LineString","coordinates":[[37.357373,-3.104392,4130.9],[37.357201,-3.104242,4128.4],[37.357142,-3.104108,4130.1],[37.356966,-3.104094,4120.7],[37.356734,-3.104076,4112.8],[37.356471,-3.104124,4099.5],[37.356289,-3.104191,4090.1],[37.356107,-3.104258,4083.6],[37.35593,-3.104371,4077.9],[37.355747,-3.104435,4072.2],[37.355565,-3.104558,4065.5],[37.35542,-3.10474,4057.5],[37.355345,-3.104842,4053.9],[37.355248,-3.104923,4050.7],[37.355168,-3.105083,4046.2],[37.355093,-3.105198,4042.7],[37.355018,-3.105313,4039.5],[37.354969,-3.105458,4036.5],[37.354851,-3.10564,4032.7],[37.354798,-3.105742,4030.5],[37.354706,-3.105892,4027.5],[37.354653,-3.106031,4024.8],[37.354503,-3.106187,4021.1],[37.354411,-3.106299,4018.4],[37.354315,-3.106497,4014.6],[37.354208,-3.106669,4011.2],[37.354175,-3.106792,4009.5],[37.354078,-3.106939,4007.6],[37.353981,-3.107087,4006.7],[37.353858,-3.107218,4005.2],[37.353736,-3.107348,4006.0],[37.35368,-3.10743,4005.8],[37.353647,-3.107522,4004.8],[37.353592,-3.107682,4002.8],[37.353511,-3.107871,4001.8],[37.353501,-3.107969,3999.9],[37.353511,-3.10805,3997.7],[37.353524,-3.108114,3995.1],[37.353566,-3.108319,3986.6],[37.353635,-3.108581,3975.4],[37.353647,-3.108831,3968.3],[37.353655,-3.109019,3965.0],[37.353675,-3.109135,3963.5],[37.353692,-3.10917,3963.0],[37.353721,-3.109193,3962.7],[37.353764,-3.109207,3962.5],[37.353798,-3.109222,3962.3],[37.35381,-3.109233,3962.1],[37.353816,-3.109248,3962.0],[37.353819,-3.109287,3961.6],[37.35382,-3.109374,3960.7],[37.353825,-3.109465,3959.6],[37.35383,-3.109515,3958.7],[37.353843,-3.109553,3958.1],[37.353865,-3.109583,3957.7],[37.353919,-3.109635,3958.2],[37.353986,-3.109702,3960.0],[37.354026,-3.109774,3960.8],[37.354079,-3.109869,3962.4],[37.354127,-3.109978,3963.9],[37.354155,-3.110093,3966.4],[37.354174,-3.110192,3969.2],[37.354198,-3.11027,3972.9],[37.354239,-3.110376,3980.2],[37.35426,-3.110459,3984.9],[37.354265,-3.110519,3987.3],[37.354252,-3.110576,3987.4],[37.354222,-3.110644,3986.1]]}},
{"type":"Feature","properties":{"trail":null,"hero":false,"class":"path","length_m":26.6},"geometry":{"type":"LineString","coordinates":[[37.357373,-3.104392,4130.9],[37.357523,-3.10458,4130.2]]}},
{"type":"Feature","properties":{"trail":null,"hero":false,"class":"path","length_m":667.8},"geometry":{"type":"LineString","coordinates":[[37.362524,-3.106357,4281.8],[37.362421,-3.106395,4279.9],[37.362319,-3.106369,4277.1],[37.362168,-3.106331,4273.8],[37.361975,-3.106331,4270.6],[37.36175,-3.106347,4265.9],[37.361621,-3.10623,4262.5],[37.361541,-3.106229,4260.2],[37.361487,-3.106144,4258.3],[37.361433,-3.106069,4255.6],[37.361396,-3.105881,4250.1],[37.361235,-3.10579,4244.6],[37.36109,-3.105763,4240.6],[37.36094,-3.105715,4234.7],[37.360774,-3.10564,4228.0],[37.360613,-3.105581,4221.8],[37.360516,-3.105651,4218.8],[37.360371,-3.105597,4212.8],[37.360194,-3.105614,4206.2],[37.36006,-3.105646,4201.2],[37.359953,-3.105737,4197.3],[37.359856,-3.105726,4194.3],[37.359685,-3.105694,4189.0],[37.359492,-3.105747,4182.6],[37.359347,-3.105747,4177.8],[37.359277,-3.105801,4175.4],[37.359127,-3.105812,4170.4],[37.359014,-3.105774,4166.2],[37.358928,-3.105726,4162.4],[37.358821,-3.105731,4158.5],[37.358751,-3.105683,4155.0],[37.358746,-3.105576,4152.5],[37.358698,-3.105544,4149.9],[37.358628,-3.105442,4146.3],[37.358478,-3.105287,4140.0],[37.358344,-3.105105,4137.3],[37.358226,-3.104933,4137.0],[37.358097,-3.104826,4136.5],[37.357925,-3.104805,4133.1],[37.357796,-3.104756,4132.0],[37.357668,-3.104708,4130.2],[37.357523,-3.10458,4130.2]]}},
{"type":"Feature","properties":{"trail":null,"hero":false,"class":"path","length_m":269.7},"geometry":{"type":"LineString","coordinates":[[37.362524,-3.106357,4281.8],[37.362624,-3.106465,4287.4],[37.362691,-3.106473,4289.3],[37.362724,-3.106521,4291.3],[37.362815,-3.106532,4293.8],[37.362895,-3.10657,4297.1],[37.362994,-3.106532,4299.3],[37.36315,-3.106532,4305.3],[37.363233,-3.106553,4309.3],[37.363292,-3.106521,4311.2],[37.363362,-3.106554,4314.9],[37.363394,-3.106588,4316.9],[37.363461,-3.106567,4319.6],[37.363512,-3.10662,4322.3],[37.363587,-3.106559,4325.1],[37.363665,-3.106553,4327.7],[37.363732,-3.106508,4329.7],[37.363805,-3.106521,4331.8],[37.363898,-3.106591,4334.0],[37.363955,-3.106645,4334.4],[37.364067,-3.106658,4335.9],[37.364148,-3.106671,4336.8],[37.364218,-3.10669,4336.8],[37.364336,-3.106637,4339.4],[37.364432,-3.106642,4340.2],[37.364537,-3.106645,4340.3],[37.364704,-3.106664,4339.9]]}},
{"type":"Feature","properties":{"trail":null,"hero":false,"class":"path","length_m":169.9},"geometry":{"type":"LineString","coordinates":[[37.354222,-3.110644,3986.1],[37.354139,-3.110799,3983.8],[37.35406,-3.110942,3985.5],[37.354021,-3.111063,3988.1],[37.353983,-3.111164,3989.7],[37.353938,-3.111253,3990.2],[37.353849,-3.11145,3992.6],[37.353788,-3.111636,3996.6],[37.353741,-3.111769,3999.3],[37.353692,-3.111926,4003.1],[37.353629,-3.112055,4004.4]]}},
{"type":"Feature","properties":{"trail":null,"hero":false,"class":"path","length_m":208.2},"geometry":{"type":"LineString","coordinates":[[37.354222,-3.110644,3986.1],[37.354117,-3.110634,3976.0],[37.354079,-3.110626,3973.8],[37.354017,-3.110595,3969.6],[37.353966,-3.110544,3965.3],[37.353918,-3.110479,3961.4],[37.353904,-3.110439,3959.7],[37.353884,-3.110414,3958.1],[37.35385,-3.110407,3956.9],[37.35382,-3.110412,3956.1],[37.353782,-3.110427,3955.3],[37.353711,-3.110466,3953.8],[37.353601,-3.110503,3951.0],[37.353437,-3.11053,3946.2],[37.353225,-3.110568,3941.0],[37.353115,-3.110583,3938.8],[37.353037,-3.110583,3937.6],[37.352964,-3.110566,3937.7],[37.352955,-3.110564,3937.7],[37.352812,-3.110521,3939.6],[37.352664,-3.110505,3943.4],[37.352487,-3.110501,3948.4]]}},
{"type":"Feature","properties":{"trail":null,"hero":false,"class":"path","length_m":806.5},"geometry":{"type":"LineString","coordinates":[[37.357523,-3.10458,4130.2],[37.357555,-3.104805,4123.4],[37.357625,-3.104944,4120.1],[37.357673,-3.105142,4117.6],[37.357689,-3.105319,4116.8],[37.357641,-3.10541,4116.5],[37.357587,-3.10556,4116.8],[37.35756,-3.105753,4117.0],[37.357485,-3.105919,4116.0],[37.357394,-3.106128,4116.0],[37.357346,-3.106219,4115.7],[37.357335,-3.106363,4117.4],[37.357212,-3.106556,4115.6],[37.357153,-3.106642,4115.0],[37.357019,-3.106829,4113.5],[37.356852,-3.107016,4111.6],[37.356781,-3.107131,4111.3],[37.356744,-3.107182,4110.9],[37.35671,-3.107249,4110.7],[37.356671,-3.107334,4110.1],[37.356642,-3.107427,4109.6],[37.356615,-3.107518,4109.1],[37.356599,-3.107623,4110.0],[37.356585,-3.107671,4110.1],[37.356552,-3.107748,4109.5],[37.356522,-3.107833,4109.6],[37.356505,-3.107881,4109.8],[37.356497,-3.107928,4110.4],[37.356496,-3.107989,4111.8],[37.356489,-3.108048,4112.8],[37.35647,-3.108094,4112.7],[37.356422,-3.108166,4111.4],[37.356407,-3.1082,4111.3],[37.356399,-3.108237,4111.6],[37.356395,-3.108326,4113.1],[37.356388,-3.108397,4114.5],[37.356363,-3.108473,4114.8],[37.356302,-3.108596,4113.1],[37.356234,-3.108746,4111.0],[37.356165,-3.108889,4109.3],[37.356131,-3.108967,4108.1],[37.356108,-3.109061,4107.9],[37.356093,-3.109163,4108.5],[37.356073,-3.109243,4107.3],[37.356066,-3.109279,4106.9],[37.356066,-3.109313,4106.9],[37.356075,-3.109338,4107.4],[37.356076,-3.109359,4107.5],[37.356074,-3.109381,4107.4],[37.356057,-3.109446,4106.5],[37.356041,-3.109489,4105.5],[37.356028,-3.109554,4104.6],[37.356034,-3.109625,4104.7],[37.356036,-3.109685,4104.6],[37.356033,-3.10971,4104.3],[37.356026,-3.109729,4103.9],[37.356007,-3.109755,4103.0],[37.356003,-3.109774,4102.7],[37.356004,-3.109793,4102.6],[37.356013,-3.109823,4102.8],[37.356019,-3.109851,4102.9],[37.356023,-3.109884,4102.9],[37.356025,-3.109915,4102.8],[37.35602,-3.109989,4102.1],[37.355987,-3.110183,4099.3],[37.355966,-3.110348,4097.2],[37.355965,-3.110435,4096.6],[37.355964,-3.110493,4096.1],[37.355957,-3.110549,4095.5],[37.355935,-3.110646,4093.7],[37.355899,-3.110783,4090.9],[37.355881,-3.110885,4088.9],[37.35587,-3.110946,4087.6],[37.355856,-3.110982,4086.6],[37.355836,-3.111008,4085.7],[37.355802,-3.111049,4084.1],[37.355781,-3.111081,4083.1],[37.355764,-3.111109,4082.2],[37.355756,-3.111142,4081.3],[37.355756,-3.111176,4080.6],[37.355755,-3.111252,4079.1],[37.355755,-3.111383,4076.5]]}},
{"type":"Feature","properties":{"trail":null,"hero":false,"class":"path","length_m":1814.7},"geometry":{"type":"LineString","coordinates":[[37.364704,-3.106664,4339.9],[37.364887,-3.106594,4342.6],[37.36507,-3.106525,4345.3],[37.365219,-3.106452,4347.9],[37.365367,-3.106379,4350.6],[37.3655,-3.106311,4353.4],[37.365634,-3.106243,4356.5],[37.365748,-3.106164,4360.0],[37.365862,-3.106086,4363.6],[37.36596,-3.105982,4368.0],[37.366058,-3.105877,4371.7],[37.36616,-3.10578,4375.1],[37.366278,-3.105719,4377.8],[37.366481,-3.105635,4382.0],[37.366685,-3.105551,4386.8],[37.366889,-3.105467,4393.2],[37.367093,-3.105383,4398.6],[37.367338,-3.105374,4402.4],[37.367584,-3.105364,4406.6],[37.367817,-3.105279,4412.4],[37.368002,-3.105209,4416.9],[37.36814,-3.105185,4419.4],[37.368279,-3.105161,4421.6],[37.368509,-3.105067,4426.4],[37.368708,-3.104917,4429.6],[37.368908,-3.10481,4429.8],[37.369108,-3.104703,4427.3],[37.369309,-3.104596,4426.5],[37.369523,-3.104443,4425.8],[37.3697,-3.104416,4422.3],[37.36987,-3.10427,4424.0],[37.370041,-3.104124,4425.2],[37.370194,-3.103989,4427.4],[37.370348,-3.103855,4429.3],[37.370502,-3.10372,4431.9],[37.370654,-3.10363,4432.9],[37.370805,-3.103541,4433.9],[37.370958,-3.103488,4434.9],[37.371111,-3.103435,4435.8],[37.371336,-3.103433,4438.8],[37.371555,-3.103362,4442.0],[37.371774,-3.103291,4444.4],[37.371993,-3.103219,4446.4],[37.372243,-3.103222,4446.2],[37.372449,-3.103107,4449.0],[37.372656,-3.102991,4453.0],[37.372903,-3.102975,4454.2],[37.373157,-3.102919,4456.0],[37.373412,-3.102863,4456.3],[37.373608,-3.102843,4455.7],[37.373804,-3.102823,4456.6],[37.374032,-3.102788,4458.7],[37.37426,-3.102752,4460.9],[37.374488,-3.102717,4462.2],[37.374641,-3.102651,4464.2],[37.374794,-3.102584,4466.8],[37.375003,-3.102499,4471.0],[37.375156,-3.102485,4473.8],[37.375309,-3.102472,4476.4],[37.37547,-3.102354,4481.3],[37.375588,-3.102383,4483.3],[37.375752,-3.10243,4487.6],[37.375917,-3.102477,4491.9],[37.376105,-3.102501,4497.4],[37.376237,-3.102424,4503.3],[37.376387,-3.102458,4507.0],[37.376518,-3.102333,4514.2],[37.376722,-3.102381,4518.2],[37.376878,-3.102389,4521.7],[37.376961,-3.102322,4525.6],[37.377057,-3.102327,4529.8],[37.377119,-3.102239,4534.7],[37.377214,-3.102205,4539.6],[37.377224,-3.10226,4538.9],[37.37728,-3.10228,4542.2],[37.377271,-3.102328,4540.5],[37.377317,-3.102349,4543.0],[37.377316,-3.102383,4542.1],[37.377363,-3.102387,4545.0],[37.37738,-3.10249,4543.4],[37.377414,-3.102498,4545.3],[37.377426,-3.102473,4546.7],[37.37745,-3.102493,4547.6],[37.377529,-3.10249,4552.4],[37.377651,-3.10254,4557.8],[37.3777,-3.10258,4559.7],[37.377734,-3.102638,4560.3],[37.377777,-3.102643,4562.6],[37.377787,-3.102677,4562.2],[37.377803,-3.102705,4562.0],[37.37789,-3.102617,4566.1],[37.377947,-3.102619,4567.5],[37.378057,-3.10257,4571.7],[37.378059,-3.102495,4574.0],[37.378194,-3.102384,4579.4],[37.378202,-3.102289,4582.7],[37.378322,-3.102217,4587.0],[37.378286,-3.102108,4591.0],[37.378317,-3.102047,4594.0],[37.378331,-3.101985,4596.8],[37.378373,-3.101962,4598.2],[37.378379,-3.10191,4600.4],[37.378374,-3.101823,4604.3],[37.378371,-3.101748,4607.6],[37.378392,-3.101626,4612.8],[37.378431,-3.101602,4613.8],[37.378456,-3.101467,4619.0]]}},
{"type":"Feature","properties":{"trail":null,"hero":false,"class":"path","length_m":456.2},"geometry":{"type":"LineString","coordinates":[[37.364704,-3.106664,4339.9],[37.364565,-3.106711,4338.1],[37.364426,-3.106759,4336.1],[37.364275,-3.106812,4333.3],[37.364114,-3.106838,4331.4],[37.363996,-3.106877,4329.6],[37.363801,-3.106961,4326.1],[37.363606,-3.107044,4322.0],[37.363469,-3.107093,4319.1],[37.363332,-3.107142,4316.6],[37.36309,-3.107252,4311.5],[37.36296,-3.107315,4308.2],[37.362815,-3.107382,4305.0],[37.362675,-3.107428,4302.1],[37.362497,-3.10749,4299.3],[37.362294,-3.107545,4294.6],[37.362128,-3.107571,4291.4],[37.361956,-3.1076,4288.4],[37.361804,-3.107621,4285.7],[37.361648,-3.107661,4283.4],[37.361511,-3.107706,4281.7],[37.361428,-3.107747,4281.0],[37.361371,-3.107783,4280.5],[37.361302,-3.107825,4278.9],[37.361234,-3.107838,4277.9],[37.361193,-3.107833,4277.5],[37.361165,-3.107836,4277.1],[37.361135,-3.107844,4276.6],[37.36107,-3.107868,4275.3],[37.360936,-3.107907,4272.7],[37.360829,-3.107944,4270.5]]}},
{"type":"Feature","properties":{"trail":null,"hero":false,"class":"path","length_m":11.1},"geometry":{"type":"LineString","coordinates":[[37.354736,-3.112069,4041.7],[37.354804,-3.112143,4041.8]]}},
{"type":"Feature","properties":{"trail":null,"hero":false,"class":"path","length_m":88.1},"geometry":{"type":"LineString","coordinates":[[37.354736,-3.112069,4041.7],[37.354577,-3.112181,4037.3],[37.354447,-3.112277,4033.7],[37.354318,-3.112373,4030.1],[37.354206,-3.112455,4027.3],[37.354095,-3.112537,4024.4]]}},
{"type":"Feature","properties":{"trail":null,"hero":false,"class":"path","length_m":139.0},"geometry":{"type":"LineString","coordinates":[[37.354736,-3.112069,4041.7],[37.354852,-3.111955,4045.9],[37.354912,-3.111876,4048.3],[37.354953,-3.111834,4049.8],[37.354994,-3.111805,4051.2],[37.355069,-3.111765,4053.5],[37.355205,-3.11172,4057.4],[37.355358,-3.111673,4061.8],[37.355502,-3.111593,4066.5],[37.35562,-3.111506,4070.9],[37.355755,-3.111383,4076.5]]}},
{"type":"Feature","properties":{"trail":null,"hero":false,"class":"path","length_m":4.5},"geometry":{"type":"LineString","coordinates":[[37.354804,-3.112143,4041.8],[37.354837,-3.112119,4042.8]]}},
{"type":"Feature","properties":{"trail":null,"hero":false,"class":"path","length_m":2047.6},"geometry":{"type":"LineString","coordinates":[[37.354095,-3.112537,4024.4],[37.354238,-3.112714,4022.1],[37.354381,-3.112892,4019.4],[37.35451,-3.113012,4018.0],[37.354639,-3.113133,4016.7],[37.354823,-3.113285,4015.4],[37.355035,-3.113412,4014.3],[37.355158,-3.113474,4013.5],[37.355281,-3.113536,4012.5],[37.355419,-3.113603,4011.7],[37.355534,-3.113692,4009.9],[37.355558,-3.113705,4009.7],[37.355587,-3.11371,4009.7],[37.355614,-3.113713,4009.9],[37.355633,-3.113718,4009.8],[37.355646,-3.113731,4009.4],[37.355684,-3.113816,4006.1],[37.355737,-3.113892,4002.9],[37.35577,-3.113952,4000.2],[37.355792,-3.113972,3999.3],[37.35582,-3.113984,3998.8],[37.355895,-3.114,3998.8],[37.355978,-3.114003,3999.7],[37.356059,-3.11401,4000.4],[37.356147,-3.114043,4000.4],[37.356247,-3.114081,4000.8],[37.356356,-3.114144,4001.1],[37.356445,-3.114205,4002.2],[37.356516,-3.114302,4003.0],[37.356569,-3.114396,4003.4],[37.356582,-3.114464,4003.5],[37.356592,-3.114519,4004.3],[37.35661,-3.114569,4005.2],[37.356637,-3.114623,4006.4],[37.356668,-3.114663,4007.3],[37.356694,-3.114694,4008.1],[37.356707,-3.114719,4008.6],[37.356707,-3.114752,4008.5],[37.356704,-3.114794,4008.3],[37.356705,-3.114829,4008.2],[37.356715,-3.114866,4008.3],[37.356736,-3.114923,4008.5],[37.356773,-3.114995,4008.8],[37.356802,-3.115052,4008.1],[37.356834,-3.115099,4007.5],[37.356867,-3.115139,4007.0],[37.356896,-3.115168,4006.7],[37.356911,-3.115193,4006.3],[37.356925,-3.115226,4005.7],[37.356955,-3.115262,4005.3],[37.35699,-3.115293,4005.4],[37.357043,-3.115341,4005.7],[37.357099,-3.115415,4005.9],[37.357137,-3.115474,4005.9],[37.357161,-3.115527,4005.8],[37.357176,-3.115571,4005.9],[37.357177,-3.115616,4006.3],[37.357182,-3.115634,4006.5],[37.357191,-3.115649,4006.9],[37.357225,-3.115683,4008.2],[37.357248,-3.115706,4009.8],[37.357265,-3.115742,4011.1],[37.357264,-3.115794,4011.6],[37.35727,-3.115881,4013.7],[37.357286,-3.115932,4016.0],[37.35731,-3.115981,4018.6],[37.357343,-3.116026,4021.3],[37.357401,-3.116057,4024.7],[37.357471,-3.11606,4027.8],[37.357526,-3.116056,4029.6],[37.357556,-3.116056,4030.2],[37.357577,-3.116068,4030.7],[37.357613,-3.116126,4031.8],[37.357661,-3.11622,4032.6],[37.357717,-3.11633,4033.0],[37.357787,-3.116428,4033.1],[37.357865,-3.116568,4032.8],[37.357943,-3.116703,4032.4],[37.358023,-3.116816,4032.2],[37.358114,-3.116908,4032.0],[37.358241,-3.117017,4030.3],[37.358258,-3.117024,4030.2],[37.358272,-3.117022,4030.4],[37.358282,-3.117016,4030.7],[37.358298,-3.117004,4031.2],[37.358314,-3.117,4031.4],[37.358332,-3.117003,4031.4],[37.358359,-3.117019,4031.1],[37.358431,-3.117071,4029.9],[37.358482,-3.117105,4029.2],[37.358539,-3.117129,4028.8],[37.358601,-3.117136,4029.1],[37.358671,-3.117132,4029.7],[37.358697,-3.117133,4029.8],[37.358721,-3.11714,4029.8],[37.358771,-3.11716,4029.5],[37.358903,-3.117222,4028.4],[37.35903,-3.117271,4028.9],[37.359136,-3.117315,4029.6],[37.359204,-3.117345,4030.4],[37.359249,-3.11736,4031.2],[37.359279,-3.117374,4031.7],[37.359301,-3.117399,4032.0],[37.359317,-3.117434,4032.0],[37.359328,-3.117451,4032.2],[37.359346,-3.117458,4032.6],[37.359423,-3.11747,4034.6],[37.359474,-3.11748,4035.8],[37.359519,-3.117495,4036.6],[37.359619,-3.11753,4038.0],[37.359677,-3.11756,4038.4],[37.359724,-3.11758,4038.8],[37.35977,-3.117588,4038.0],[37.359848,-3.117584,4037.0],[37.359946,-3.117569,4036.0],[37.360049,-3.117533,4035.4],[37.360152,-3.117505,4034.6],[37.360292,-3.117472,4033.8],[37.36042,-3.117454,4033.4],[37.360503,-3.117449,4032.8],[37.360575,-3.117416,4033.1],[37.36065,-3.11736,4034.3],[37.360695,-3.117337,4034.8],[37.360749,-3.117328,4035.2],[37.360817,-3.117336,4035.2],[37.360881,-3.117371,4035.4],[37.360913,-3.117383,4035.7],[37.360947,-3.11739,4036.1],[37.360986,-3.117386,4036.7],[37.361009,-3.117389,4037.0],[37.361028,-3.117401,4037.2],[37.361047,-3.117425,4037.2],[37.361063,-3.117465,4037.2],[37.361077,-3.117516,4036.9],[37.361105,-3.117571,4036.8],[37.361136,-3.117613,4037.1],[37.361177,-3.117646,4037.8],[37.361243,-3.11768,4039.1],[37.361325,-3.117714,4040.8],[37.36138,-3.117741,4041.8],[37.361399,-3.117755,4042.2],[37.361412,-3.117777,4042.3],[37.361419,-3.117784,4042.5],[37.361435,-3.117789,4043.0],[37.361458,-3.117781,4043.7],[37.361469,-3.117778,4044.0],[37.361486,-3.117781,4044.5],[37.361529,-3.117808,4045.7],[37.361581,-3.117839,4046.9],[37.361659,-3.117862,4048.6],[37.361738,-3.117877,4049.5],[37.361796,-3.117882,4050.0],[37.361837,-3.117889,4050.4],[37.361857,-3.117897,4050.4],[37.361872,-3.117911,4050.3],[37.361893,-3.117943,4049.7],[37.36191,-3.11798,4048.9],[37.361937,-3.118016,4048.2],[37.36196,-3.118046,4047.7],[37.361994,-3.118094,4047.2],[37.362035,-3.118146,4047.0],[37.362083,-3.118186,4047.2],[37.362118,-3.118227,4047.2],[37.362143,-3.118276,4046.9],[37.362158,-3.118319,4046.5],[37.362176,-3.118361,4046.3],[37.362196,-3.118393,4046.4],[37.362218,-3.118424,4046.5],[37.362242,-3.11847,4046.9],[37.362281,-3.118543,4047.8],[37.36232,-3.118602,4048.9],[37.362349,-3.118637,4049.9],[37.362361,-3.118656,4050.3],[37.362366,-3.118677,4050.3],[37.362374,-3.11871,4050.3],[37.362385,-3.118766,4050.2],[37.3624,-3.118813,4050.3],[37.362412,-3.118846,4050.4],[37.362431,-3.118876,4050.9],[37.362444,-3.118903,4051.2],[37.362451,-3.118932,4051.2],[37.362456,-3.118965,4051.1],[37.362463,-3.118999,4051.2],[37.362477,-3.119029,4051.4],[37.362496,-3.119078,4051.5],[37.362515,-3.119148,4051.4],[37.362545,-3.119196,4052.1],[37.362593,-3.119252,4053.7],[37.36261,-3.119276,4054.2],[37.362622,-3.1193,4054.6],[37.36263,-3.119331,4054.9],[37.362637,-3.11936,4055.2],[37.362657,-3.119386,4055.9],[37.362716,-3.119431,4057.9],[37.362768,-3.119469,4059.8],[37.362876,-3.11954,4063.7],[37.362932,-3.119578,4065.7],[37.362962,-3.119595,4066.8],[37.362976,-3.11961,4067.3],[37.363,-3.11963,4068.2],[37.363048,-3.11966,4070.0],[37.363094,-3.119689,4071.6],[37.363131,-3.119721,4073.0],[37.363174,-3.119751,4074.6],[37.363192,-3.119765,4075.3],[37.363206,-3.119783,4075.9],[37.363238,-3.119826,4077.3],[37.36327,-3.119871,4078.7],[37.36331,-3.119911,4080.4],[37.363369,-3.119961,4083.0],[37.363413,-3.120025,4085.1],[37.363434,-3.120064,4086.0],[37.363449,-3.120111,4086.7],[37.36348,-3.120168,4087.9],[37.363509,-3.120226,4088.9],[37.36353,-3.12027,4089.7],[37.363559,-3.120313,4090.1],[37.363603,-3.120351,4090.9],[37.363662,-3.120391,4091.5],[37.363714,-3.120431,4091.7],[37.36377,-3.120471,4092.0],[37.363823,-3.120505,4092.2],[37.363893,-3.120549,4092.4],[37.363992,-3.120616,4091.8],[37.364089,-3.12068,4091.1],[37.36414,-3.120713,4090.7],[37.364227,-3.120758,4090.3],[37.364328,-3.120789,4090.4],[37.364432,-3.120826,4090.4],[37.364539,-3.12086,4090.3],[37.364643,-3.120891,4090.2],[37.364737,-3.120921,4090.0],[37.364818,-3.120955,4089.7],[37.364911,-3.120989,4089.5],[37.365007,-3.121013,4089.6],[37.365069,-3.121032,4089.6],[37.36513,-3.121055,4089.4],[37.365206,-3.121079,4089.3],[37.365265,-3.121092,4089.4],[37.365316,-3.121109,4089.3],[37.365372,-3.121133,4088.8],[37.365486,-3.121173,4088.2],[37.365657,-3.121218,4087.7],[37.365838,-3.12124,4088.1],[37.365901,-3.121246,4088.1],[37.365949,-3.121245,4088.3],[37.365989,-3.121242,4088.6],[37.366022,-3.121246,4088.6],[37.366059,-3.12126,4088.3],[37.36611,-3.12128,4087.8],[37.366164,-3.121299,4087.5],[37.366226,-3.121314,4087.3],[37.36628,-3.121344,4086.7],[37.366337,-3.121361,4086.4],[37.366399,-3.121374,4086.3],[37.366471,-3.121386,4086.3],[37.366543,-3.121403,4086.2],[37.366648,-3.121438,4085.8],[37.366742,-3.121477,4085.2],[37.366812,-3.121493,4085.1],[37.366901,-3.121506,4085.1],[37.366976,-3.12153,4084.9],[37.367041,-3.121556,4084.7],[37.367121,-3.121589,4084.5],[37.367251,-3.12165,4084.1],[37.367384,-3.121696,4084.2],[37.367439,-3.121719,4084.2],[37.367474,-3.121726,4084.4],[37.367507,-3.121734,4084.5],[37.367545,-3.121751,4084.3],[37.367578,-3.121774,4083.9],[37.367618,-3.121785,4083.8],[37.367659,-3.121789,4083.9],[37.367799,-3.121797,4084.2],[37.367841,-3.121796,4083.9],[37.367878,-3.121802,4083.6],[37.367919,-3.121815,4083.0],[37.367946,-3.121821,4082.6],[37.367974,-3.121821,4082.4],[37.368004,-3.1218,4082.8],[37.368047,-3.121781,4082.9],[37.368078,-3.121774,4082.5],[37.368107,-3.121774,4081.7]]}},
{"type":"Feature","properties":{"trail":null,"hero":false,"class":"path","length_m":74.5},"geometry":{"type":"LineString","coordinates":[[37.354095,-3.112537,4024.4],[37.353999,-3.112423,4024.7],[37.353903,-3.112309,4023.3],[37.353769,-3.112175,4016.3],[37.353629,-3.112055,4004.4]]}},
{"type":"Feature","properties":{"trail":null,"hero":false,"class":"path","length_m":113.1},"geometry":{"type":"LineString","coordinates":[[37.355755,-3.111383,4076.5],[37.355953,-3.111224,4084.1],[37.356118,-3.111117,4089.8],[37.356209,-3.111068,4092.9],[37.356263,-3.111043,4094.7],[37.356291,-3.111021,4095.7],[37.356308,-3.11099,4096.8],[37.356326,-3.110946,4098.1],[37.356357,-3.110864,4100.5],[37.356384,-3.110825,4101.9],[37.356416,-3.110799,4103.1],[37.3565,-3.110726,4106.3]]}},
{"type":"Feature","properties":{"trail":null,"hero":false,"class":"path","length_m":3890.7},"geometry":{"type":"LineString","coordinates":[[37.362743,-3.078043,5740.7],[37.362533,-3.078069,5742.2],[37.362323,-3.078095,5741.1],[37.362114,-3.078121,5739.5],[37.361904,-3.078147,5737.8],[37.361679,-3.078115,5734.8],[37.361486,-3.078125,5730.4],[37.361349,-3.07815,5728.0],[37.361088,-3.078089,5719.6],[37.360827,-3.078028,5715.0],[37.360565,-3.077967,5712.7],[37.360304,-3.077907,5711.9],[37.360043,-3.077846,5711.9],[37.359782,-3.077785,5711.9],[37.359686,-3.077592,5713.8],[37.359589,-3.0774,5713.8],[37.359367,-3.07735,5713.5],[37.359146,-3.0773,5714.2],[37.358924,-3.07725,5715.6],[37.358752,-3.077041,5714.8],[37.358581,-3.076832,5713.8],[37.358409,-3.076623,5713.1],[37.358237,-3.076414,5713.3],[37.358048,-3.07629,5713.8],[37.35786,-3.076165,5714.1],[37.357671,-3.076041,5714.5],[37.357482,-3.075917,5714.7],[37.357293,-3.075793,5715.2],[37.357071,-3.075656,5716.0],[37.356848,-3.07552,5716.4],[37.356626,-3.075384,5717.0],[37.356404,-3.075247,5717.0],[37.356181,-3.075111,5717.8],[37.355959,-3.074975,5718.8],[37.355737,-3.074838,5720.0],[37.355514,-3.074702,5721.0],[37.355292,-3.074565,5722.3],[37.355069,-3.074429,5722.6],[37.354847,-3.074293,5723.6],[37.354649,-3.074215,5724.2],[37.354452,-3.074138,5724.5],[37.354268,-3.074043,5725.0],[37.354085,-3.073949,5724.7],[37.353902,-3.073854,5724.6],[37.353683,-3.073776,5724.9],[37.353465,-3.073697,5725.2],[37.353246,-3.073619,5724.4],[37.353028,-3.073541,5723.9],[37.352817,-3.073437,5723.3],[37.352607,-3.073333,5723.4],[37.352397,-3.073229,5723.7],[37.352187,-3.073125,5723.6],[37.352014,-3.073057,5723.0],[37.351841,-3.072989,5723.3],[37.351693,-3.072817,5723.3],[37.351545,-3.072644,5722.9],[37.351397,-3.072472,5722.7],[37.351182,-3.072314,5721.8],[37.350968,-3.072156,5721.0],[37.350844,-3.071974,5720.8],[37.350721,-3.071792,5720.6],[37.350635,-3.07165,5720.3],[37.350549,-3.071508,5720.5],[37.350402,-3.071344,5719.4],[37.350254,-3.071181,5719.7],[37.350085,-3.071023,5720.2],[37.349916,-3.070865,5720.6],[37.349793,-3.070766,5720.4],[37.349669,-3.070667,5719.3],[37.34953,-3.070501,5718.8],[37.349449,-3.070337,5719.8],[37.349369,-3.070174,5720.1],[37.349302,-3.070029,5720.2],[37.349235,-3.069885,5719.8],[37.349208,-3.069697,5720.3],[37.349179,-3.06955,5720.7],[37.349149,-3.069403,5721.2],[37.349047,-3.069204,5721.4],[37.348956,-3.06899,5722.2],[37.348918,-3.068921,5722.2],[37.348682,-3.068792,5709.8],[37.348596,-3.068696,5707.3],[37.348495,-3.068728,5697.4],[37.348444,-3.068787,5691.4],[37.348339,-3.068744,5683.7],[37.348291,-3.06883,5678.4],[37.348232,-3.068787,5675.6],[37.348146,-3.068797,5669.9],[37.348108,-3.068888,5666.0],[37.34806,-3.068937,5660.9],[37.348039,-3.069012,5656.0],[37.347993,-3.069068,5650.5],[37.347937,-3.068982,5650.5],[37.347883,-3.068902,5650.3],[37.347835,-3.06888,5647.5],[37.347813,-3.068966,5642.8],[37.347768,-3.069052,5636.1],[37.34766,-3.068958,5630.2],[37.347558,-3.069097,5617.1],[37.347381,-3.069004,5604.5],[37.347349,-3.069119,5598.9],[37.347242,-3.069121,5589.7],[37.347159,-3.069146,5582.9],[37.347089,-3.0691,5578.4],[37.347019,-3.069178,5572.6],[37.346874,-3.069255,5560.8],[37.346805,-3.069325,5554.4],[37.3466,-3.06934,5538.6],[37.346396,-3.069356,5520.2],[37.346191,-3.069371,5502.8],[37.345987,-3.069387,5487.0],[37.345912,-3.06937,5481.2],[37.345866,-3.069196,5474.8],[37.345684,-3.069187,5462.8],[37.345501,-3.069177,5451.4],[37.345319,-3.069167,5439.1],[37.345225,-3.069253,5431.1],[37.345152,-3.069167,5426.8],[37.345045,-3.069204,5417.9],[37.344965,-3.06906,5413.8],[37.344745,-3.069092,5399.6],[37.344503,-3.069164,5379.5],[37.344262,-3.069237,5362.0],[37.344021,-3.069309,5343.3],[37.343806,-3.069298,5328.1],[37.343699,-3.069269,5320.8],[37.343626,-3.069196,5316.5],[37.343559,-3.069084,5315.3],[37.343444,-3.069081,5308.3],[37.343307,-3.069022,5302.2],[37.343192,-3.069017,5295.9],[37.343122,-3.069017,5291.9],[37.343125,-3.069052,5290.6],[37.343066,-3.069052,5287.2],[37.34306,-3.069105,5284.7],[37.342915,-3.069111,5276.8],[37.342878,-3.069269,5268.5],[37.342814,-3.069277,5264.6],[37.3428,-3.069333,5261.5],[37.342731,-3.069325,5257.9],[37.342731,-3.069362,5256.3],[37.342687,-3.069357,5254.1],[37.342687,-3.069432,5251.1],[37.342626,-3.069435,5247.6],[37.342497,-3.069443,5240.4],[37.34236,-3.069456,5231.7],[37.342331,-3.06959,5226.5],[37.34228,-3.069596,5222.9],[37.342277,-3.069649,5221.3],[37.342148,-3.069657,5212.6],[37.34213,-3.069748,5208.5],[37.342098,-3.069759,5206.1],[37.342071,-3.069823,5202.3],[37.342095,-3.06992,5200.5],[37.342092,-3.069968,5198.8],[37.341961,-3.070037,5189.1],[37.341829,-3.070091,5179.4],[37.34165,-3.070078,5169.9],[37.341486,-3.07007,5160.7],[37.341293,-3.070128,5149.2],[37.341183,-3.070284,5142.4],[37.341253,-3.070458,5132.1],[37.341234,-3.070557,5124.3],[37.341137,-3.070702,5111.4],[37.341046,-3.070849,5097.8],[37.340861,-3.070937,5084.2],[37.340713,-3.070935,5077.2],[37.340679,-3.070865,5079.2],[37.340705,-3.070758,5085.5],[37.340593,-3.070715,5080.6],[37.340477,-3.070627,5075.7],[37.340384,-3.070589,5070.1],[37.340373,-3.070624,5068.6],[37.340244,-3.070616,5060.2],[37.340241,-3.07068,5058.9],[37.340158,-3.070672,5054.1],[37.340145,-3.070766,5051.8],[37.340075,-3.070766,5047.7],[37.339987,-3.070785,5042.4],[37.339917,-3.070833,5038.1],[37.339842,-3.070913,5032.6],[37.339751,-3.070945,5027.3],[37.339638,-3.070844,5023.1],[37.339608,-3.070924,5019.9],[37.33956,-3.070994,5016.1],[37.339474,-3.071012,5011.1],[37.339453,-3.071095,5008.7],[37.339399,-3.071074,5006.4],[37.339383,-3.07112,5004.7],[37.339287,-3.071063,5000.8],[37.339257,-3.071114,4998.8],[37.339187,-3.071093,4995.7],[37.33915,-3.071162,4991.8],[37.339177,-3.071232,4990.5],[37.339067,-3.071243,4985.1],[37.33897,-3.071224,4981.2],[37.3389,-3.071213,4978.2],[37.338841,-3.071251,4974.8],[37.338742,-3.071203,4971.0],[37.338645,-3.07116,4967.1],[37.338565,-3.071168,4963.4],[37.338474,-3.071208,4959.2],[37.338396,-3.071192,4956.2],[37.338366,-3.071253,4954.2],[37.338369,-3.071366,4952.9],[37.338294,-3.071425,4949.1],[37.338181,-3.071454,4944.3],[37.338093,-3.071473,4940.4],[37.338037,-3.071521,4937.2],[37.338012,-3.071607,4934.2],[37.338039,-3.071666,4933.7],[37.338015,-3.071711,4931.4],[37.337969,-3.071711,4929.5],[37.337897,-3.071738,4925.8],[37.337838,-3.071784,4922.0],[37.337744,-3.07176,4919.4],[37.337632,-3.071813,4914.6],[37.337438,-3.071893,4905.9],[37.337277,-3.072001,4897.7],[37.337154,-3.072027,4894.2],[37.337009,-3.072119,4887.9],[37.336859,-3.072145,4883.5],[37.33672,-3.072135,4881.1],[37.336585,-3.07221,4875.6],[37.336349,-3.072306,4871.3],[37.336173,-3.072343,4870.2],[37.336017,-3.072526,4864.8],[37.33584,-3.072654,4862.1]]}},
{"type":"Feature","properties":{"trail":null,"hero":false,"class":"path","length_m":1000.4},"geometry":{"type":"LineString","coordinates":[[37.33584,-3.072654,4862.1],[37.335668,-3.072686,4859.3],[37.335432,-3.072729,4851.6],[37.335298,-3.072713,4846.7],[37.335228,-3.072649,4844.9],[37.33518,-3.072601,4843.3],[37.335075,-3.072448,4838.3],[37.334971,-3.07244,4832.1],[37.334901,-3.072344,4826.2],[37.334735,-3.072268,4815.9],[37.334692,-3.072054,4811.5],[37.334593,-3.07199,4805.6],[37.334515,-3.071875,4800.6],[37.334515,-3.071776,4800.0],[37.334563,-3.071693,4801.4],[37.334563,-3.071626,4801.6],[37.334536,-3.071567,4801.3],[37.334485,-3.0715,4800.4],[37.334504,-3.071438,4801.8],[37.334475,-3.071371,4802.4],[37.334389,-3.07132,4803.1],[37.334289,-3.071299,4802.4],[37.334196,-3.071245,4803.7],[37.334118,-3.071248,4802.1],[37.334019,-3.071264,4799.3],[37.333911,-3.071205,4800.3],[37.333828,-3.071184,4799.0],[37.333724,-3.071085,4798.1],[37.333643,-3.07101,4794.9],[37.333598,-3.070943,4792.9],[37.333552,-3.070873,4790.9],[37.333522,-3.07079,4789.7],[37.333421,-3.07072,4785.5],[37.333364,-3.07067,4783.2],[37.3333,-3.070686,4780.5],[37.333246,-3.070696,4778.3],[37.33316,-3.07067,4774.7],[37.333134,-3.070643,4773.7],[37.333099,-3.070608,4772.3],[37.333048,-3.070611,4770.2],[37.332978,-3.070656,4767.2],[37.332948,-3.070637,4766.0],[37.332873,-3.070664,4762.7],[37.33283,-3.070627,4761.2],[37.332721,-3.070557,4757.4],[37.33267,-3.070536,4755.6],[37.332568,-3.070477,4752.1],[37.332436,-3.070511,4747.3],[37.332401,-3.070474,4746.3],[37.332318,-3.070487,4743.3],[37.332232,-3.070469,4740.4],[37.332125,-3.070463,4736.7],[37.332074,-3.070501,4734.9],[37.332015,-3.070469,4732.9],[37.331945,-3.070469,4730.5],[37.331873,-3.070418,4727.6],[37.331731,-3.070313,4721.2],[37.331725,-3.070254,4720.2],[37.331669,-3.070204,4716.9],[37.331613,-3.070131,4713.2],[37.331575,-3.070059,4710.3],[37.331476,-3.070051,4706.0],[37.331463,-3.069992,4704.3],[37.331412,-3.069971,4701.6],[37.331406,-3.069879,4699.2],[37.33132,-3.069847,4695.0],[37.331277,-3.069828,4692.8],[37.331208,-3.069847,4690.5],[37.331154,-3.069818,4687.7],[37.331122,-3.069711,4683.9],[37.331044,-3.069644,4679.2],[37.330958,-3.069646,4675.9],[37.330907,-3.069638,4673.8],[37.330711,-3.069554,4663.6],[37.33066,-3.069522,4660.6],[37.330638,-3.069453,4657.8],[37.330606,-3.069311,4653.1],[37.330573,-3.069168,4648.5],[37.330542,-3.069077,4647.8],[37.33051,-3.068972,4647.3],[37.330481,-3.068873,4647.1],[37.33042,-3.068783,4647.6],[37.330387,-3.068746,4647.7],[37.330349,-3.068727,4647.2],[37.330246,-3.068729,4644.1],[37.330183,-3.068729,4642.2],[37.330134,-3.068721,4641.0],[37.330089,-3.068705,4640.3],[37.330013,-3.068663,4639.6],[37.329896,-3.068613,4637.6],[37.329789,-3.06857,4635.7],[37.32969,-3.068513,4635.0],[37.329582,-3.06843,4635.9],[37.329494,-3.068389,4635.1],[37.329434,-3.068366,4634.5],[37.32938,-3.068347,4634.9]]}},
{"type":"Feature","properties":{"trail":null,"hero":false,"class":"path","length_m":1868.5},"geometry":{"type":"LineString","coordinates":[[37.33584,-3.072654,4862.1],[37.335766,-3.072914,4854.9],[37.335692,-3.073174,4848.3],[37.335617,-3.073361,4843.7],[37.335542,-3.073548,4838.6],[37.335435,-3.073755,4832.3],[37.335304,-3.073916,4823.6],[37.335108,-3.074026,4820.9],[37.335023,-3.074095,4817.0],[37.334936,-3.074208,4810.7],[37.334838,-3.074347,4803.6],[37.33474,-3.074486,4795.3],[37.334614,-3.074631,4786.7],[37.334469,-3.074747,4779.3],[37.334353,-3.074836,4774.3],[37.334237,-3.074925,4770.1],[37.334046,-3.075066,4761.4],[37.333855,-3.075207,4753.1],[37.333727,-3.075282,4747.2],[37.333599,-3.075358,4741.0],[37.333444,-3.075415,4733.6],[37.333289,-3.075472,4726.6],[37.333047,-3.075523,4714.1],[37.332805,-3.075574,4703.3],[37.332564,-3.075626,4693.6],[37.332322,-3.075677,4683.0],[37.33208,-3.075728,4671.4],[37.331838,-3.07578,4659.5],[37.331575,-3.075826,4647.3],[37.331312,-3.075872,4636.0],[37.331049,-3.075918,4625.2],[37.330787,-3.075964,4614.3],[37.330524,-3.07601,4605.9],[37.330382,-3.07604,4602.8],[37.330241,-3.076069,4599.4],[37.330016,-3.076148,4590.5],[37.329861,-3.076241,4580.3],[37.329728,-3.076326,4571.7],[37.329572,-3.076433,4563.3],[37.329472,-3.076535,4557.5],[37.329361,-3.076634,4551.8],[37.32925,-3.076733,4545.8],[37.329132,-3.076819,4540.1],[37.329015,-3.076905,4534.9],[37.328844,-3.077053,4527.3],[37.328759,-3.07715,4522.9],[37.328635,-3.0773,4516.3],[37.328528,-3.077452,4510.3],[37.328377,-3.077647,4501.8],[37.328244,-3.077779,4494.7],[37.328074,-3.077899,4488.1],[37.327923,-3.077987,4482.3],[37.327771,-3.078081,4475.9],[37.32757,-3.078176,4469.6],[37.327495,-3.078233,4466.9],[37.327424,-3.078317,4463.9],[37.327396,-3.078428,4460.0],[37.327368,-3.078575,4454.9],[37.327359,-3.078742,4449.4],[37.327343,-3.078954,4442.7],[37.327313,-3.079189,4435.8],[37.327259,-3.079367,4430.2],[37.327206,-3.079545,4424.1],[37.327156,-3.079686,4419.4],[37.327107,-3.079827,4414.4],[37.327042,-3.08003,4406.9],[37.326966,-3.080183,4401.0],[37.326889,-3.080336,4395.7],[37.326841,-3.080473,4391.4],[37.326793,-3.08061,4386.8],[37.326704,-3.080837,4378.3],[37.326618,-3.081043,4372.2],[37.326482,-3.081221,4366.9],[37.32638,-3.081323,4363.3],[37.326278,-3.081426,4360.6],[37.326148,-3.081586,4355.9],[37.32606,-3.081803,4350.4],[37.325975,-3.082007,4345.8],[37.325886,-3.082252,4340.0],[37.325834,-3.082391,4336.5],[37.325783,-3.08253,4333.0],[37.325731,-3.082678,4329.4],[37.32568,-3.082827,4325.5],[37.325629,-3.083008,4320.3],[37.325578,-3.083189,4314.2],[37.325542,-3.083395,4308.0],[37.325507,-3.083601,4302.5],[37.325472,-3.083806,4291.8],[37.325437,-3.084012,4282.2]]}},
{"type":"Feature","properties":{"trail":null,"hero":false,"class":"path","length_m":87.7},"geometry":{"type":"LineString","coordinates":[[37.353629,-3.112055,4004.4],[37.353512,-3.111958,3993.5],[37.353396,-3.111861,3983.1],[37.353218,-3.111716,3968.9],[37.353069,-3.1116,3958.1],[37.35301,-3.111563,3954.7]]}},
{"type":"Feature","properties":{"trail":null,"hero":false,"class":"path","length_m":131.8},"geometry":{"type":"LineString","coordinates":[[37.35301,-3.111563,3954.7],[37.352975,-3.111447,3949.7],[37.352934,-3.111325,3945.2],[37.352881,-3.111196,3941.0],[37.352799,-3.11105,3936.1],[37.352751,-3.11093,3934.6],[37.352674,-3.110808,3935.2],[37.352605,-3.110679,3939.3],[37.352487,-3.110501,3948.4]]}},
{"type":"Feature","properties":{"trail":null,"hero":false,"class":"path","length_m":500.5},"geometry":{"type":"LineString","coordinates":[[37.35301,-3.111563,3954.7],[37.352902,-3.111533,3949.8],[37.352747,-3.111504,3943.4],[37.352503,-3.111449,3934.4],[37.352298,-3.111402,3928.0],[37.352157,-3.111346,3925.6],[37.35207,-3.111296,3925.8],[37.352029,-3.111273,3926.1],[37.351958,-3.111229,3926.9],[37.351894,-3.111212,3927.3],[37.351787,-3.111198,3927.7],[37.351658,-3.11116,3928.7],[37.351576,-3.111118,3930.1],[37.351491,-3.111032,3933.7],[37.351346,-3.110895,3940.1],[37.35124,-3.110808,3944.9],[37.351093,-3.110729,3950.2],[37.35093,-3.110666,3956.0],[37.350832,-3.110625,3959.7],[37.35076,-3.110583,3965.4],[37.350737,-3.110566,3967.5],[37.350723,-3.110538,3969.7],[37.350723,-3.110492,3971.9],[37.350759,-3.110292,3979.5],[37.350763,-3.110245,3981.6],[37.350748,-3.110199,3984.8],[37.350706,-3.110148,3989.4],[37.350522,-3.109963,4006.3],[37.350502,-3.109952,4007.7],[37.35048,-3.109947,4008.8],[37.350453,-3.109951,4009.9],[37.350371,-3.110004,4011.5],[37.350343,-3.110008,4012.6],[37.350322,-3.110003,4013.7],[37.350304,-3.109991,4015.0],[37.350228,-3.109916,4020.5],[37.350058,-3.109761,4031.8],[37.349887,-3.109605,4042.5],[37.349765,-3.10951,4049.3],[37.349697,-3.109479,4052.1],[37.349615,-3.109463,4054.3],[37.349463,-3.109455,4057.6]]}},
{"type":"Feature","properties":{"trail":null,"hero":false,"class":"path","length_m":420.9},"geometry":{"type":"LineString","coordinates":[[37.352487,-3.110501,3948.4],[37.352402,-3.110488,3951.5],[37.352367,-3.110485,3952.6],[37.352301,-3.110479,3954.8],[37.352148,-3.110478,3958.1],[37.352042,-3.110455,3960.9],[37.351957,-3.110422,3964.0],[37.351885,-3.110367,3967.9],[37.351818,-3.110275,3974.4],[37.351719,-3.110035,3989.5],[37.35168,-3.109958,3994.2],[37.351637,-3.109925,3996.6],[37.351611,-3.109923,3997.0],[37.351585,-3.109927,3997.0],[37.351509,-3.10995,3996.4],[37.351463,-3.109956,3996.5],[37.351418,-3.109942,3997.9],[37.351316,-3.109886,4001.0],[37.351261,-3.109859,4002.2],[37.351246,-3.109852,4002.6],[37.351183,-3.109796,4006.0],[37.351162,-3.10966,4014.4],[37.35105,-3.10944,4026.7],[37.351014,-3.109353,4031.5],[37.350953,-3.10931,4034.3],[37.350883,-3.109288,4036.1],[37.350806,-3.109281,4037.3],[37.350744,-3.10928,4038.0],[37.350696,-3.109291,4037.9],[37.350669,-3.109299,4037.7],[37.350639,-3.109312,4037.3],[37.350613,-3.109312,4037.5],[37.350573,-3.109293,4038.9],[37.350543,-3.109288,4039.6],[37.350521,-3.109283,4040.2],[37.350502,-3.109275,4040.9],[37.350467,-3.109209,4044.8],[37.350453,-3.1092,4045.4],[37.350434,-3.1092,4045.6],[37.350359,-3.109223,4045.6],[37.350177,-3.109273,4047.4],[37.35008,-3.109299,4049.0],[37.349971,-3.109331,4050.8],[37.34988,-3.109354,4052.3],[37.349789,-3.109367,4054.2],[37.349637,-3.109375,4057.3],[37.349582,-3.109384,4058.0],[37.349526,-3.109407,4058.2],[37.349463,-3.109455,4057.6]]}},
{"type":"Feature","properties":{"trail":null,"hero":false,"class":"path","length_m":429.0},"geometry":{"type":"LineString","coordinates":[[37.349463,-3.109455,4057.6],[37.349337,-3.109458,4058.7],[37.349231,-3.109465,4059.2],[37.349149,-3.109459,4059.9],[37.349092,-3.109439,4060.3],[37.349031,-3.1094,4061.2],[37.348979,-3.109343,4062.8],[37.348855,-3.109186,4066.9],[37.348753,-3.109055,4069.6],[37.348656,-3.108935,4072.1],[37.348556,-3.108845,4074.2],[37.348434,-3.108766,4076.1],[37.3483,-3.108685,4077.3],[37.348166,-3.108588,4077.7],[37.348069,-3.108483,4077.8],[37.347957,-3.10832,4078.0],[37.347874,-3.1082,4078.9],[37.347791,-3.10808,4080.0],[37.3477,-3.107964,4081.4],[37.347609,-3.107848,4083.1],[37.34743,-3.107652,4086.9],[37.347316,-3.107566,4089.0],[37.347202,-3.10748,4091.3],[37.347005,-3.107344,4095.5],[37.346868,-3.10724,4097.0],[37.346756,-3.107101,4097.1],[37.346686,-3.106964,4097.2]]}},
{"type":"Feature","properties":{"trail":null,"hero":false,"class":"path","length_m":576.8},"geometry":{"type":"LineString","coordinates":[[37.3565,-3.110726,4106.3],[37.356566,-3.110666,4109.0],[37.356631,-3.110628,4111.3],[37.356777,-3.110557,4116.1],[37.356923,-3.110467,4121.6],[37.357096,-3.110357,4127.9],[37.357294,-3.110237,4134.8],[37.357421,-3.110168,4139.2],[37.357548,-3.110099,4143.7],[37.357737,-3.109983,4150.3],[37.357914,-3.109864,4157.3],[37.358106,-3.109739,4165.1],[37.358351,-3.109638,4173.3],[37.358478,-3.10958,4177.7],[37.358605,-3.109522,4182.0],[37.358751,-3.109445,4187.1],[37.358896,-3.109368,4192.3],[37.359092,-3.109271,4199.5],[37.359288,-3.109175,4206.5],[37.359485,-3.109079,4213.4],[37.359681,-3.108983,4220.3],[37.35984,-3.108874,4226.5],[37.36,-3.108765,4232.8],[37.36016,-3.108656,4239.1],[37.360308,-3.108521,4246.0],[37.360456,-3.108386,4253.0],[37.36055,-3.108272,4258.1],[37.360644,-3.108157,4262.7],[37.360737,-3.108025,4267.7],[37.360829,-3.107944,4270.5]]}},
{"type":"Feature","properties":{"trail":null,"hero":false,"class":"path","length_m":920.5},"geometry":{"type":"LineString","coordinates":[[37.326634,-3.097436,3958.0],[37.326489,-3.097403,3961.6],[37.326343,-3.097369,3965.4],[37.326215,-3.097319,3969.3],[37.326087,-3.097268,3973.5],[37.325926,-3.097163,3980.9],[37.325765,-3.097058,3988.4],[37.325543,-3.096915,3999.4],[37.325321,-3.096773,4012.1],[37.32518,-3.096668,4020.9],[37.325142,-3.096652,4023.0],[37.325099,-3.096648,4025.0],[37.325017,-3.096658,4028.4],[37.324909,-3.096642,4032.8],[37.32481,-3.096593,4037.7],[37.324753,-3.096554,4040.7],[37.324707,-3.096465,4044.5],[37.324649,-3.096329,4049.3],[37.324591,-3.096194,4054.3],[37.324523,-3.096055,4059.6],[37.324454,-3.095916,4065.1],[37.324378,-3.095803,4069.0],[37.324302,-3.095691,4072.7],[37.324223,-3.095576,4076.7],[37.324144,-3.095461,4080.4],[37.324039,-3.095266,4085.4],[37.324014,-3.095106,4088.8],[37.324003,-3.094899,4093.5],[37.324007,-3.094741,4097.4],[37.324011,-3.094582,4101.4],[37.324016,-3.094372,4107.1],[37.32402,-3.094162,4114.0],[37.324029,-3.093969,4121.0],[37.324038,-3.093776,4128.3],[37.324023,-3.093552,4136.8],[37.324007,-3.093328,4145.1],[37.323991,-3.093103,4153.0],[37.323978,-3.092944,4157.7],[37.323964,-3.092786,4162.2],[37.323941,-3.092635,4165.4],[37.323918,-3.092484,4168.7],[37.32384,-3.092265,4172.1],[37.323771,-3.092018,4174.3],[37.323759,-3.091927,4175.4],[37.323752,-3.09183,4177.3],[37.323767,-3.091729,4179.5],[37.323797,-3.091561,4183.0],[37.323817,-3.091422,4185.7],[37.323832,-3.091366,4187.0],[37.323851,-3.091336,4187.8],[37.323914,-3.091263,4189.8],[37.323955,-3.0912,4191.4],[37.323971,-3.091153,4192.5],[37.323977,-3.090981,4196.5],[37.323981,-3.090869,4199.2],[37.323989,-3.090796,4201.2],[37.323969,-3.090719,4203.5],[37.32392,-3.090652,4205.3]]}},
{"type":"Feature","properties":{"trail":null,"hero":false,"class":"path","length_m":11622.6},"geometry":{"type":"LineString","coordinates":[[37.326634,-3.097436,3958.0],[37.326461,-3.097581,3959.0],[37.326357,-3.097671,3959.3],[37.326273,-3.097761,3959.0],[37.32618,-3.09784,3959.1],[37.32612,-3.097895,3958.9],[37.326049,-3.097955,3959.5],[37.326017,-3.097993,3959.6],[37.325998,-3.09802,3959.5],[37.325992,-3.098042,3959.2],[37.325992,-3.098068,3958.6],[37.325988,-3.098086,3958.3],[37.325976,-3.098104,3958.3],[37.325915,-3.098174,3958.6],[37.325813,-3.098293,3959.5],[37.325731,-3.098403,3960.7],[37.325675,-3.098492,3961.4],[37.325596,-3.098672,3961.6],[37.325496,-3.098888,3962.7],[37.325439,-3.099091,3962.6],[37.325419,-3.09915,3962.7],[37.325415,-3.099178,3962.5],[37.325417,-3.099203,3962.2],[37.325422,-3.099235,3961.6],[37.325418,-3.099262,3961.5],[37.325356,-3.099479,3961.8],[37.325306,-3.099663,3961.9],[37.325288,-3.099869,3959.9],[37.325264,-3.09996,3959.4],[37.325232,-3.100057,3958.5],[37.325179,-3.100216,3956.4],[37.325109,-3.100329,3955.8],[37.325052,-3.100404,3955.9],[37.325015,-3.100472,3955.6],[37.325003,-3.100537,3954.6],[37.324996,-3.100564,3954.3],[37.324983,-3.100585,3954.2],[37.324938,-3.100624,3954.8],[37.324893,-3.100729,3953.9],[37.324869,-3.100978,3949.4],[37.324803,-3.101044,3950.0],[37.324635,-3.101252,3950.5],[37.324614,-3.101347,3949.1],[37.32453,-3.101434,3948.9],[37.324461,-3.101558,3946.5],[37.324541,-3.101627,3943.0],[37.324544,-3.101726,3939.9],[37.324595,-3.10177,3938.0],[37.324614,-3.10185,3935.4],[37.32457,-3.101992,3931.3],[37.324661,-3.102029,3929.7],[37.324614,-3.102178,3924.8],[37.324548,-3.102244,3922.6],[37.324541,-3.102475,3914.9],[37.324534,-3.102706,3906.4],[37.324528,-3.102937,3897.6],[37.324404,-3.103173,3887.9],[37.324281,-3.103409,3876.7],[37.324157,-3.103645,3867.8],[37.324034,-3.103881,3857.9],[37.324103,-3.103961,3856.6],[37.324063,-3.104067,3853.2],[37.324079,-3.10422,3848.7],[37.324096,-3.104374,3843.9],[37.324121,-3.10441,3842.2],[37.324063,-3.104527,3840.6],[37.32407,-3.104611,3838.6],[37.324027,-3.104764,3836.5],[37.323986,-3.104764,3837.9],[37.323972,-3.104811,3837.2],[37.323975,-3.104917,3834.2],[37.323932,-3.105066,3831.4],[37.323819,-3.105176,3829.0],[37.323742,-3.105209,3828.1],[37.323691,-3.105424,3822.0],[37.323556,-3.105537,3818.0],[37.32345,-3.105657,3811.7],[37.323406,-3.10573,3809.8],[37.323334,-3.105789,3809.0],[37.32322,-3.105854,3801.8],[37.323257,-3.106,3801.1],[37.323242,-3.10611,3798.4],[37.323282,-3.106292,3794.3],[37.323235,-3.106463,3788.2],[37.323151,-3.106558,3785.1],[37.323144,-3.106605,3784.1],[37.3231,-3.106649,3783.2],[37.323115,-3.106715,3781.9],[37.323122,-3.106828,3779.5],[37.323082,-3.106894,3778.6],[37.323013,-3.106923,3776.5],[37.32298,-3.107004,3773.3],[37.322993,-3.107051,3772.5],[37.322966,-3.107212,3767.7],[37.322918,-3.107297,3764.1],[37.322899,-3.107362,3761.8],[37.322894,-3.107381,3761.1],[37.322891,-3.107394,3760.7],[37.322891,-3.107406,3760.4],[37.322893,-3.107418,3760.0],[37.322897,-3.107435,3759.5],[37.3229,-3.107448,3759.1],[37.3229,-3.107458,3758.9],[37.322897,-3.107475,3758.3],[37.322895,-3.107484,3758.0],[37.322892,-3.107491,3757.8],[37.322885,-3.107501,3757.5],[37.322879,-3.107508,3757.2],[37.322866,-3.107518,3756.8],[37.322854,-3.107526,3756.5],[37.322842,-3.107532,3756.3],[37.322831,-3.107535,3756.1],[37.322813,-3.107539,3756.0],[37.322786,-3.107542,3755.8],[37.322772,-3.107543,3755.5],[37.322762,-3.107545,3755.0],[37.32275,-3.10755,3754.2],[37.322739,-3.107556,3753.6],[37.322727,-3.107564,3752.8],[37.32271,-3.107579,3751.7],[37.322704,-3.107586,3751.3],[37.322698,-3.107596,3750.8],[37.322691,-3.107612,3750.2],[37.322689,-3.107622,3749.9],[37.322688,-3.107633,3749.6],[37.322688,-3.107694,3748.3],[37.322686,-3.107719,3747.7],[37.322683,-3.107746,3747.0],[37.322678,-3.107767,3746.5],[37.322646,-3.107886,3742.2],[37.32264,-3.107901,3741.7],[37.322637,-3.107906,3741.4],[37.322633,-3.107909,3741.3],[37.322629,-3.107912,3741.2],[37.322583,-3.107927,3740.2],[37.32257,-3.107933,3739.9],[37.322566,-3.107935,3739.8],[37.322564,-3.107937,3739.7],[37.32256,-3.107941,3739.6],[37.322556,-3.107948,3739.4],[37.322552,-3.107957,3739.1],[37.322549,-3.107966,3738.9],[37.322529,-3.108056,3736.9],[37.32252,-3.108088,3735.8],[37.322514,-3.108107,3735.1],[37.322507,-3.108126,3734.5],[37.322498,-3.108141,3733.9],[37.322496,-3.108143,3733.8],[37.322494,-3.108145,3733.6],[37.322491,-3.108147,3733.4],[37.322488,-3.108148,3733.2],[37.322484,-3.108149,3733.1],[37.322481,-3.108149,3732.9],[37.322477,-3.108149,3732.8],[37.322473,-3.108148,3732.6],[37.322471,-3.108149,3732.4],[37.322468,-3.10815,3732.3],[37.322461,-3.108152,3731.9],[37.322458,-3.108155,3731.7],[37.322455,-3.108157,3731.5],[37.322452,-3.108162,3731.2],[37.322449,-3.108166,3730.9],[37.322447,-3.10817,3730.7],[37.322445,-3.108174,3730.5],[37.322421,-3.108277,3726.4],[37.322413,-3.108304,3725.3],[37.3224,-3.108334,3724.0],[37.322382,-3.108374,3722.2],[37.322333,-3.108461,3718.3],[37.322299,-3.108511,3716.2],[37.322226,-3.108607,3712.8],[37.322126,-3.108717,3706.1],[37.322093,-3.108748,3704.1],[37.32206,-3.108787,3702.0],[37.322035,-3.108824,3700.3],[37.321973,-3.108937,3695.7],[37.32195,-3.108975,3694.2],[37.321936,-3.108993,3693.4],[37.321927,-3.109002,3692.9],[37.321921,-3.109005,3692.5],[37.321912,-3.10901,3692.1],[37.321903,-3.109013,3691.7],[37.321894,-3.109016,3691.3],[37.321879,-3.109018,3690.7],[37.321857,-3.109021,3689.8],[37.321837,-3.109021,3689.0],[37.321811,-3.109018,3688.0],[37.32179,-3.109016,3687.3],[37.321769,-3.109013,3686.5],[37.321694,-3.108992,3683.9],[37.321676,-3.108988,3683.2],[37.321664,-3.108986,3682.8],[37.321623,-3.108982,3681.5],[37.3216,-3.108983,3680.7],[37.321567,-3.108988,3679.5],[37.321549,-3.108995,3678.8],[37.321536,-3.109004,3678.2],[37.321525,-3.109015,3677.7],[37.321491,-3.10905,3675.8],[37.321434,-3.109121,3672.3],[37.321373,-3.109187,3668.7],[37.32132,-3.109237,3666.4],[37.321174,-3.109349,3660.5],[37.321078,-3.109436,3655.8],[37.321044,-3.109471,3653.8],[37.321023,-3.109505,3652.4],[37.321009,-3.109539,3651.3],[37.320985,-3.109581,3649.8],[37.320953,-3.109634,3648.1],[37.320923,-3.109684,3646.6],[37.320878,-3.10975,3644.7],[37.320845,-3.109803,3643.3],[37.320809,-3.10989,3641.0],[37.320744,-3.110055,3637.1],[37.320676,-3.110227,3633.9],[37.320608,-3.110398,3629.7],[37.320578,-3.11052,3625.7],[37.320525,-3.110751,3617.1],[37.320471,-3.110982,3607.2],[37.320436,-3.111145,3600.9],[37.320422,-3.111177,3599.7],[37.320409,-3.111198,3598.9],[37.32039,-3.111221,3598.0],[37.320362,-3.111247,3596.8],[37.320335,-3.111267,3596.0],[37.320309,-3.111283,3595.3],[37.320272,-3.111299,3594.3],[37.320265,-3.1113,3593.9],[37.320259,-3.1113,3593.6],[37.32025,-3.111298,3593.1],[37.320239,-3.111293,3592.6],[37.320215,-3.111277,3591.4],[37.320159,-3.111235,3588.9],[37.320114,-3.111205,3586.9],[37.320095,-3.111197,3585.9],[37.320078,-3.111193,3585.1],[37.320065,-3.111191,3584.5],[37.320054,-3.11119,3583.9],[37.320041,-3.111191,3583.2],[37.320022,-3.111196,3582.2],[37.320003,-3.111202,3581.2],[37.319991,-3.111205,3580.5],[37.319979,-3.111206,3579.8],[37.319963,-3.111206,3579.0],[37.319938,-3.111204,3577.7],[37.319916,-3.111205,3576.5],[37.319894,-3.111205,3575.4],[37.319875,-3.111207,3574.3],[37.319863,-3.11121,3573.6],[37.319852,-3.111216,3573.0],[37.319838,-3.111223,3572.1],[37.319818,-3.111237,3570.8],[37.319792,-3.111258,3569.0],[37.319715,-3.111329,3563.5],[37.319673,-3.111371,3560.7],[37.319642,-3.111419,3558.5],[37.319596,-3.111489,3555.3],[37.319572,-3.111536,3553.4],[37.319536,-3.111627,3550.1],[37.31951,-3.111725,3547.9],[37.319477,-3.111863,3545.5],[37.319407,-3.112112,3539.6],[37.319388,-3.112173,3538.0],[37.319354,-3.112245,3535.4],[37.319326,-3.112304,3532.8],[37.319314,-3.112329,3531.8],[37.319306,-3.112337,3531.3],[37.319293,-3.112347,3530.5],[37.319283,-3.112352,3530.0],[37.31927,-3.112355,3529.5],[37.319126,-3.112367,3524.5],[37.319069,-3.112379,3523.2],[37.319013,-3.112408,3521.6],[37.31894,-3.112463,3519.7],[37.318838,-3.112574,3516.2],[37.318694,-3.112671,3512.5],[37.318587,-3.112711,3509.8],[37.318501,-3.112753,3506.1],[37.318456,-3.112789,3504.3],[37.318432,-3.112848,3503.0],[37.318413,-3.112939,3501.9],[37.318396,-3.113033,3501.4],[37.318379,-3.11307,3500.9],[37.318345,-3.113093,3500.4],[37.318204,-3.113144,3497.7],[37.318063,-3.113196,3496.5],[37.317889,-3.113261,3492.0],[37.317716,-3.113326,3488.2],[37.317565,-3.113375,3481.9],[37.317414,-3.113425,3474.6],[37.317201,-3.113502,3463.9],[37.317034,-3.113557,3457.0],[37.316879,-3.113626,3450.5],[37.316752,-3.11368,3444.6],[37.316663,-3.113769,3440.8],[37.316595,-3.113906,3437.3],[37.316538,-3.114037,3432.0],[37.316482,-3.114167,3427.3],[37.316403,-3.114318,3421.3],[37.316325,-3.11447,3417.3],[37.316242,-3.114633,3414.2],[37.316213,-3.114764,3411.9],[37.316222,-3.115006,3406.6],[37.316209,-3.115115,3400.6],[37.316149,-3.115211,3394.9],[37.315961,-3.115375,3385.7],[37.315773,-3.115539,3379.0],[37.315585,-3.115703,3369.0],[37.315397,-3.115867,3356.4],[37.315257,-3.116009,3346.0],[37.315117,-3.116151,3339.9],[37.314977,-3.116293,3333.0],[37.314863,-3.11643,3321.6],[37.31475,-3.116567,3308.8],[37.314634,-3.116747,3294.8],[37.314518,-3.116927,3286.0],[37.314439,-3.117107,3280.3],[37.31436,-3.117287,3269.0],[37.314292,-3.117475,3252.5],[37.314224,-3.117664,3223.5],[37.314198,-3.117848,3194.1],[37.314172,-3.118032,3167.7],[37.314146,-3.118216,3149.2],[37.314138,-3.118317,3139.6],[37.314133,-3.118422,3132.0],[37.314144,-3.11848,3127.2],[37.314259,-3.118614,3111.2],[37.314334,-3.118683,3102.4],[37.314401,-3.118748,3094.0],[37.314467,-3.118859,3082.2],[37.314504,-3.119006,3070.0],[37.314497,-3.119242,3054.6],[37.314484,-3.119483,3040.3],[37.314472,-3.119725,3026.6],[37.314435,-3.119939,3016.8],[37.314398,-3.120153,3008.0],[37.31436,-3.120327,3001.8],[37.314321,-3.120501,2995.8],[37.314279,-3.120711,2988.2],[37.314237,-3.12092,2980.6],[37.31418,-3.121115,2974.4],[37.314123,-3.121311,2968.2],[37.314041,-3.121469,2965.5],[37.313958,-3.121627,2962.5],[37.31386,-3.12172,2963.9],[37.313761,-3.121814,2965.4],[37.313735,-3.121842,2965.7],[37.313723,-3.121857,2965.7],[37.313718,-3.121866,2965.6],[37.313714,-3.121873,2965.5],[37.313713,-3.121877,2965.5],[37.313712,-3.121883,2965.3],[37.313712,-3.121888,2965.1],[37.313712,-3.121896,2964.7],[37.313713,-3.12191,2964.1],[37.313718,-3.121924,2963.3],[37.313723,-3.12193,2962.8],[37.313732,-3.12194,2961.9],[37.313738,-3.121948,2961.4],[37.313751,-3.121957,2960.4],[37.313761,-3.121959,2959.9],[37.313773,-3.121961,2959.2],[37.313792,-3.12196,2958.2],[37.31381,-3.121961,2957.3],[37.313833,-3.121964,2956.0],[37.313855,-3.121967,2954.8],[37.313875,-3.121971,2953.7],[37.313887,-3.121976,2952.9],[37.313903,-3.121983,2951.8],[37.313985,-3.122031,2945.9],[37.314082,-3.122061,2939.6],[37.314217,-3.122077,2931.6],[37.314254,-3.122088,2929.1],[37.314277,-3.122098,2927.5],[37.314322,-3.122137,2923.7],[37.314358,-3.122185,2920.1],[37.314374,-3.122216,2918.2],[37.314379,-3.122235,2917.3],[37.31438,-3.122249,2916.8],[37.314379,-3.122263,2916.5],[37.314359,-3.12231,2916.2],[37.314319,-3.122372,2916.7],[37.314213,-3.122501,2919.0],[37.314113,-3.122606,2922.0],[37.314015,-3.122708,2925.0],[37.313916,-3.12281,2928.3],[37.313839,-3.122911,2930.4],[37.313753,-3.123035,2932.8],[37.313625,-3.123143,2938.3],[37.313556,-3.123201,2941.2],[37.313528,-3.12324,2942.2],[37.313502,-3.123282,2943.0],[37.313469,-3.123309,2944.6],[37.313438,-3.12333,2946.2],[37.313393,-3.123353,2948.7],[37.313345,-3.123373,2951.5],[37.313313,-3.123394,2953.2],[37.313275,-3.123419,2955.2],[37.31323,-3.123457,2957.7],[37.313186,-3.123489,2960.3],[37.313171,-3.12352,2961.2],[37.313165,-3.123571,2961.3],[37.313162,-3.123616,2961.3],[37.313144,-3.123654,2962.3],[37.313102,-3.123702,2965.2],[37.312986,-3.123842,2973.4],[37.31287,-3.123981,2982.5],[37.312774,-3.124155,2991.5],[37.312715,-3.124296,2996.0],[37.312642,-3.124409,3001.8],[37.312536,-3.124494,3010.4],[37.312449,-3.124558,3015.2],[37.312363,-3.124643,3019.0],[37.312284,-3.124735,3023.0],[37.312244,-3.124835,3025.8],[37.312232,-3.124905,3027.3],[37.31219,-3.124971,3028.3],[37.31213,-3.125074,3028.7],[37.312104,-3.12521,3029.5],[37.312096,-3.125351,3029.8],[37.312098,-3.125443,3029.5],[37.312089,-3.125511,3029.3],[37.312074,-3.125583,3028.9],[37.312067,-3.125673,3027.8],[37.31204,-3.125751,3027.0],[37.311993,-3.125799,3026.7],[37.311951,-3.125845,3026.4],[37.31192,-3.12593,3024.5],[37.311858,-3.125977,3023.0],[37.311784,-3.125994,3022.1],[37.311694,-3.126003,3021.2],[37.311638,-3.126037,3019.7],[37.3116,-3.126119,3017.7],[37.311548,-3.126215,3015.2],[37.311509,-3.126314,3013.3],[37.311456,-3.126421,3011.1],[37.311377,-3.126533,3008.3],[37.311268,-3.126629,3005.0],[37.31121,-3.126748,3001.9],[37.311191,-3.126866,2999.0],[37.311164,-3.126971,2995.8],[37.311117,-3.127117,2987.7],[37.311067,-3.127235,2981.3],[37.311065,-3.12733,2976.5],[37.311086,-3.127365,2974.8],[37.311104,-3.12739,2973.6],[37.311139,-3.127427,2971.9],[37.311184,-3.127464,2970.2],[37.311247,-3.127507,2968.6],[37.311277,-3.127574,2966.4],[37.311279,-3.127636,2964.2],[37.311273,-3.127714,2961.3],[37.311253,-3.127805,2957.9],[37.31123,-3.127888,2955.1],[37.311215,-3.127988,2952.0],[37.311189,-3.128155,2947.0],[37.311142,-3.128338,2942.3],[37.311099,-3.128516,2935.2],[37.311093,-3.128655,2929.5],[37.311087,-3.128795,2923.3],[37.311062,-3.128899,2918.3],[37.311023,-3.128998,2914.5],[37.310967,-3.129102,2911.4],[37.310899,-3.129177,2910.1],[37.310873,-3.129219,2910.2],[37.310865,-3.129291,2910.3],[37.310889,-3.129377,2909.4],[37.310889,-3.129464,2908.6],[37.31085,-3.129537,2908.0],[37.3107,-3.129703,2902.6],[37.310654,-3.129822,2898.3],[37.310597,-3.129979,2893.5],[37.310553,-3.130104,2889.2],[37.310465,-3.130209,2883.2],[37.310357,-3.130271,2878.5],[37.310291,-3.130331,2875.1],[37.310249,-3.130434,2871.3],[37.31024,-3.130565,2866.7],[37.310195,-3.130658,2862.3],[37.310111,-3.130724,2859.8],[37.309961,-3.130835,2856.2],[37.309844,-3.13095,2851.0],[37.309807,-3.131071,2847.6],[37.309799,-3.131189,2841.1],[37.309779,-3.131315,2832.5],[37.309716,-3.131444,2826.1],[37.309601,-3.131574,2819.8],[37.30954,-3.131647,2818.2],[37.309489,-3.131751,2816.5],[37.309493,-3.131849,2813.7],[37.309545,-3.131907,2808.9],[37.309562,-3.131967,2804.8],[37.309539,-3.13203,2802.2],[37.309427,-3.132115,2804.1],[37.309399,-3.13221,2799.1],[37.309319,-3.132311,2795.0],[37.309171,-3.132425,2795.5],[37.309061,-3.132522,2791.5],[37.308967,-3.132593,2789.8],[37.308907,-3.132664,2789.3],[37.308857,-3.132783,2787.6],[37.308825,-3.132917,2783.4],[37.30881,-3.133004,2781.0],[37.308765,-3.133092,2777.2],[37.308687,-3.133182,2772.8],[37.308576,-3.13328,2769.3],[37.308457,-3.133391,2762.3],[37.308343,-3.133476,2759.4],[37.308194,-3.133613,2753.1],[37.308099,-3.133734,2748.1],[37.308061,-3.133825,2746.0],[37.308024,-3.13397,2740.5],[37.307943,-3.134109,2734.0],[37.307841,-3.134251,2729.3],[37.307771,-3.134388,2726.6],[37.307735,-3.13457,2722.7],[37.307714,-3.134718,2719.9],[37.307706,-3.134955,2714.8],[37.307663,-3.13507,2711.5],[37.307581,-3.1352,2709.1],[37.307552,-3.13524,2709.0],[37.307494,-3.135269,2709.9],[37.307434,-3.135282,2708.5],[37.307397,-3.135304,2707.1],[37.307362,-3.135334,2705.6],[37.307345,-3.135372,2704.2],[37.307352,-3.135418,2702.9],[37.307374,-3.135461,2701.6],[37.307383,-3.135532,2699.2],[37.307358,-3.135606,2696.2],[37.307315,-3.135733,2691.1],[37.307205,-3.135899,2687.5],[37.307143,-3.136029,2683.5],[37.30708,-3.136159,2681.7],[37.307047,-3.13627,2682.4],[37.306973,-3.136352,2687.7],[37.306906,-3.136388,2690.4],[37.306869,-3.136435,2688.4],[37.306858,-3.136477,2686.9],[37.30683,-3.13655,2684.9],[37.306794,-3.13663,2683.7],[37.306733,-3.136681,2684.6],[37.306651,-3.136688,2687.0],[37.30657,-3.13669,2686.6],[37.30647,-3.136691,2686.1],[37.30638,-3.136723,2684.9],[37.30626,-3.136809,2680.8],[37.306171,-3.136897,2677.7],[37.306102,-3.136998,2674.9],[37.306022,-3.137041,2672.7],[37.305932,-3.137041,2671.1],[37.305852,-3.137012,2670.2],[37.305745,-3.136922,2668.8],[37.30566,-3.136822,2666.8],[37.305561,-3.136687,2664.6],[37.30553,-3.136593,2662.8],[37.305467,-3.136506,2660.6],[37.305359,-3.136416,2657.7],[37.305251,-3.136343,2653.3],[37.305172,-3.136306,2649.0],[37.305064,-3.136298,2645.3],[37.304986,-3.136291,2642.4],[37.30489,-3.136251,2636.4],[37.304773,-3.136255,2632.1],[37.30467,-3.136285,2629.6],[37.304552,-3.136307,2626.0],[37.304405,-3.136306,2620.1],[37.304275,-3.136335,2615.4],[37.304161,-3.136419,2611.8],[37.304095,-3.136502,2608.3],[37.304042,-3.136642,2605.6],[37.303994,-3.13676,2599.2],[37.303894,-3.136873,2591.4],[37.303753,-3.136963,2583.2],[37.303628,-3.137072,2576.3],[37.303577,-3.137208,2571.6],[37.303563,-3.137334,2568.4],[37.303521,-3.137385,2566.0],[37.303441,-3.137404,2563.4],[37.303414,-3.137463,2562.0],[37.303305,-3.137587,2556.9],[37.303168,-3.137652,2550.4],[37.303091,-3.137736,2548.0],[37.302917,-3.137866,2538.7],[37.302859,-3.13798,2537.5],[37.302819,-3.138086,2537.3],[37.30281,-3.138189,2536.1],[37.302776,-3.138272,2534.4],[37.30269,-3.138288,2529.4],[37.302586,-3.138249,2522.4],[37.302554,-3.138155,2517.5],[37.302526,-3.1381,2513.4],[37.302454,-3.13809,2505.1],[37.30239,-3.138134,2499.4],[37.302358,-3.138276,2503.0],[37.302275,-3.138448,2500.9],[37.302202,-3.13859,2499.6],[37.302144,-3.138738,2494.9],[37.302065,-3.138937,2491.3],[37.301899,-3.139141,2495.3],[37.30174,-3.139317,2501.3],[37.301651,-3.139484,2506.5],[37.301578,-3.139647,2507.3],[37.301452,-3.139846,2505.9],[37.301375,-3.139971,2503.9],[37.301298,-3.140096,2500.0],[37.30123,-3.140196,2497.5],[37.301167,-3.140395,2493.2],[37.301139,-3.140553,2489.1],[37.301082,-3.140737,2484.9],[37.301001,-3.14092,2479.9],[37.300935,-3.141017,2477.0],[37.30084,-3.141082,2474.8],[37.300727,-3.141205,2469.8],[37.300642,-3.141262,2467.1],[37.300553,-3.141299,2465.0],[37.300455,-3.141417,2461.5],[37.300383,-3.141554,2459.3],[37.300356,-3.141664,2458.3],[37.300343,-3.141754,2457.1],[37.300278,-3.14184,2456.1],[37.30013,-3.141968,2452.6],[37.30001,-3.142056,2450.4],[37.299886,-3.142139,2447.1],[37.299745,-3.142285,2443.3],[37.299599,-3.142458,2438.0],[37.299476,-3.142558,2433.9],[37.299353,-3.142658,2430.2],[37.299239,-3.142733,2427.1],[37.299125,-3.142809,2424.4],[37.298989,-3.142896,2421.9],[37.298875,-3.143,2420.8],[37.298762,-3.143104,2417.8],[37.298613,-3.143216,2412.0],[37.298555,-3.143228,2409.4],[37.298505,-3.143209,2407.8],[37.298424,-3.143185,2404.8],[37.298367,-3.143198,2402.3],[37.298267,-3.143266,2397.4],[37.298217,-3.143335,2394.6],[37.298185,-3.143417,2390.8],[37.298131,-3.143581,2384.4],[37.298051,-3.143693,2379.9],[37.298008,-3.143733,2378.2],[37.297927,-3.143769,2376.2],[37.297699,-3.143773,2373.2],[37.297513,-3.143771,2370.7],[37.297326,-3.143768,2369.6],[37.297138,-3.143765,2368.1],[37.297008,-3.143792,2366.6],[37.296942,-3.143833,2365.7],[37.296926,-3.143917,2364.7],[37.296946,-3.144017,2362.9],[37.296937,-3.144138,2360.2],[37.296907,-3.14429,2354.7],[37.296882,-3.144405,2350.1],[37.296878,-3.144553,2344.6],[37.296862,-3.144628,2342.0],[37.29682,-3.144684,2340.5],[37.296752,-3.144714,2340.5],[37.296677,-3.144707,2341.7],[37.29663,-3.144657,2342.7],[37.296615,-3.144595,2343.6],[37.296569,-3.144541,2344.3],[37.296463,-3.144477,2344.6],[37.296359,-3.144427,2345.2],[37.296281,-3.144405,2346.3],[37.296233,-3.144382,2347.1],[37.296174,-3.144359,2347.9],[37.29612,-3.144355,2348.1],[37.29606,-3.144356,2347.9],[37.296002,-3.144369,2347.4],[37.295937,-3.144397,2347.0],[37.295808,-3.144473,2346.8],[37.295706,-3.144546,2347.4],[37.295603,-3.144622,2348.7],[37.295457,-3.144696,2350.5],[37.295274,-3.144711,2352.0],[37.29504,-3.144807,2352.6],[37.294897,-3.144868,2352.5],[37.294755,-3.144929,2352.8],[37.294556,-3.145019,2352.5],[37.294358,-3.145109,2350.0],[37.294132,-3.145257,2345.7],[37.294013,-3.145349,2343.3],[37.293894,-3.145441,2341.4],[37.293777,-3.145591,2338.1],[37.293652,-3.145782,2333.4],[37.293518,-3.145974,2329.5],[37.293359,-3.146124,2324.8],[37.293265,-3.146265,2322.5],[37.29317,-3.146486,2318.5],[37.293116,-3.146643,2314.5],[37.293063,-3.146801,2312.3],[37.29299,-3.147038,2310.3],[37.292918,-3.147209,2309.9],[37.292763,-3.147369,2307.5],[37.292678,-3.147474,2305.2],[37.292552,-3.147559,2303.1],[37.292373,-3.147628,2300.1],[37.292278,-3.147726,2298.0],[37.292209,-3.147816,2296.2],[37.292135,-3.147959,2292.2],[37.292014,-3.148034,2288.8],[37.291893,-3.148109,2286.2],[37.291764,-3.148163,2285.2],[37.291635,-3.148217,2284.7],[37.291394,-3.148296,2283.1],[37.291176,-3.148398,2279.2],[37.290977,-3.148536,2274.8],[37.290792,-3.148704,2268.4],[37.290678,-3.148815,2262.3],[37.29053,-3.148852,2259.4],[37.290397,-3.148879,2258.5],[37.290291,-3.148895,2257.8],[37.290179,-3.148963,2255.0],[37.290124,-3.149065,2251.7],[37.29007,-3.149219,2248.8],[37.29001,-3.14942,2249.3],[37.28991,-3.14966,2247.6],[37.289818,-3.149827,2243.7],[37.289739,-3.149981,2239.6],[37.289693,-3.15014,2239.4],[37.289646,-3.150299,2239.7],[37.289544,-3.150532,2242.2],[37.289496,-3.150682,2241.8],[37.289448,-3.150832,2241.3],[37.28947,-3.151102,2236.0],[37.289535,-3.151363,2230.8],[37.289576,-3.151572,2229.7],[37.289617,-3.151781,2226.8],[37.289608,-3.152017,2221.7],[37.289599,-3.152253,2218.3],[37.289598,-3.152422,2215.5],[37.289597,-3.15259,2212.1],[37.289621,-3.152737,2208.4],[37.289644,-3.152884,2202.7],[37.289706,-3.153105,2195.2],[37.289755,-3.153239,2195.0],[37.289805,-3.153372,2193.4],[37.289809,-3.153523,2188.4],[37.289789,-3.153687,2185.4],[37.289742,-3.153871,2186.4],[37.289747,-3.154005,2185.0],[37.289801,-3.154202,2181.3],[37.289858,-3.15444,2174.9],[37.289922,-3.154699,2169.8],[37.290012,-3.154876,2167.5],[37.290046,-3.155015,2164.6],[37.29004,-3.155196,2161.8],[37.290028,-3.155412,2158.3],[37.290067,-3.155677,2154.0],[37.290113,-3.15586,2151.0],[37.290153,-3.156027,2148.6],[37.290167,-3.156163,2145.9],[37.29018,-3.156299,2141.9],[37.2902,-3.156492,2135.7],[37.290219,-3.156685,2128.5],[37.290226,-3.156908,2115.4],[37.290223,-3.157054,2108.4],[37.29021,-3.157131,2105.7],[37.290192,-3.157201,2103.8],[37.290173,-3.157256,2103.9],[37.290113,-3.157297,2107.5],[37.289983,-3.157295,2115.3],[37.289765,-3.157275,2121.1],[37.289702,-3.157287,2121.9],[37.289631,-3.157297,2121.3],[37.289595,-3.157315,2120.9],[37.289559,-3.157351,2120.3],[37.289528,-3.157397,2119.6],[37.289503,-3.157458,2118.9],[37.28947,-3.157625,2117.1],[37.289425,-3.157763,2115.3],[37.289354,-3.157904,2112.9],[37.289243,-3.15806,2110.9],[37.289133,-3.158188,2109.0],[37.289075,-3.158311,2107.7],[37.289036,-3.158403,2107.0],[37.289005,-3.158518,2106.7],[37.288968,-3.158701,2104.7],[37.28894,-3.158812,2102.4],[37.288912,-3.15888,2100.9],[37.288853,-3.158956,2099.3],[37.288799,-3.158991,2098.1],[37.28867,-3.159031,2095.7],[37.288519,-3.159073,2092.5],[37.288325,-3.15915,2087.6],[37.288136,-3.159195,2083.2],[37.287943,-3.159175,2078.7],[37.287774,-3.159147,2073.9],[37.287657,-3.159145,2074.1],[37.287573,-3.159131,2074.4],[37.287466,-3.15915,2074.3],[37.287344,-3.159228,2074.0],[37.287224,-3.159324,2073.5],[37.287143,-3.159409,2072.6],[37.287087,-3.159496,2071.8],[37.287023,-3.159644,2070.3],[37.286977,-3.159753,2068.9],[37.286892,-3.159868,2066.6],[37.286751,-3.159963,2064.2],[37.286611,-3.160026,2061.7],[37.286453,-3.160076,2058.7],[37.286215,-3.160172,2055.4],[37.286057,-3.160294,2053.4],[37.285958,-3.160405,2049.7],[37.285886,-3.160492,2047.2],[37.285792,-3.160642,2043.9],[37.285719,-3.160807,2041.3],[37.285688,-3.160986,2038.4],[37.28574,-3.161158,2037.1],[37.285848,-3.161283,2036.6],[37.286018,-3.161421,2035.2],[37.286164,-3.161509,2034.4],[37.286315,-3.161607,2033.0],[37.286432,-3.161723,2030.5],[37.286448,-3.161811,2028.3],[37.286424,-3.161905,2025.7],[37.286358,-3.162011,2022.4],[37.28625,-3.162093,2019.7],[37.286061,-3.162119,2018.4],[37.285829,-3.162112,2017.2],[37.28558,-3.162071,2013.1],[37.285337,-3.162017,2009.9],[37.285096,-3.161976,2006.1],[37.284913,-3.161943,2002.8],[37.28477,-3.161956,1999.1],[37.284593,-3.162044,1995.7],[37.284404,-3.162151,1992.4],[37.284275,-3.162237,1988.0],[37.284147,-3.162323,1983.9],[37.284012,-3.162446,1980.2],[37.283898,-3.162588,1974.7],[37.28383,-3.162689,1970.9],[37.283786,-3.162767,1968.2],[37.283757,-3.162843,1965.5],[37.283727,-3.162985,1961.1],[37.283707,-3.163135,1956.9],[37.283684,-3.163338,1951.0],[37.283688,-3.163539,1944.4],[37.283745,-3.163687,1940.2],[37.283852,-3.163871,1934.1],[37.283895,-3.163993,1931.4],[37.283906,-3.164093,1930.0],[37.283891,-3.164144,1929.6],[37.283851,-3.164202,1927.7],[37.283762,-3.164273,1924.3],[37.283625,-3.164378,1919.0],[37.283494,-3.164507,1914.4],[37.283409,-3.164642,1911.3],[37.283322,-3.164799,1911.4],[37.283237,-3.164999,1911.2],[37.283149,-3.165211,1910.1],[37.283125,-3.16541,1903.7],[37.283122,-3.165559,1897.0],[37.283119,-3.165707,1894.0],[37.283112,-3.165882,1892.7],[37.283105,-3.166056,1898.0],[37.283063,-3.166267,1900.9],[37.283068,-3.166432,1901.9],[37.283094,-3.166548,1901.4],[37.283161,-3.166688,1900.8],[37.283283,-3.166838,1899.3],[37.283366,-3.166983,1897.3],[37.283396,-3.167104,1896.6],[37.283397,-3.167212,1896.0],[37.28337,-3.16733,1893.8],[37.283321,-3.167512,1890.2],[37.28328,-3.167646,1887.1],[37.283216,-3.16778,1884.6],[37.283161,-3.167967,1881.7],[37.283125,-3.168106,1878.2],[37.283089,-3.168211,1874.2],[37.283017,-3.168398,1865.1],[37.282946,-3.168488,1859.4],[37.282877,-3.168537,1857.2],[37.282796,-3.168606,1854.5],[37.282766,-3.168684,1852.7],[37.282757,-3.168896,1846.5],[37.282748,-3.169108,1843.8],[37.282758,-3.169284,1844.9],[37.282767,-3.16946,1847.7],[37.282773,-3.169622,1849.4],[37.282779,-3.169785,1848.8],[37.282791,-3.169956,1844.0],[37.282803,-3.170127,1841.2],[37.282804,-3.170287,1839.0],[37.282804,-3.170447,1834.8],[37.282785,-3.170686,1837.4],[37.28274,-3.170898,1843.5],[37.282698,-3.171048,1843.8],[37.282656,-3.171198,1842.5],[37.282596,-3.171408,1838.8],[37.282536,-3.171619,1837.3],[37.282462,-3.171861,1836.5],[37.282388,-3.172103,1834.3],[37.282331,-3.172336,1830.4],[37.282274,-3.172569,1826.5],[37.282217,-3.172803,1823.4],[37.282168,-3.172963,1817.3],[37.28212,-3.173123,1813.6],[37.282073,-3.173333,1813.7],[37.282076,-3.173522,1809.6],[37.282107,-3.173739,1805.6],[37.282184,-3.173979,1802.6],[37.282232,-3.174121,1801.7],[37.282281,-3.174263,1800.3]]}},
{"type":"Feature","properties":{"trail":null,"hero":false,"class":"path","length_m":384.5},"geometry":{"type":"LineString","coordinates":[[37.326634,-3.097436,3958.0],[37.326685,-3.097396,3956.7],[37.326733,-3.097362,3954.7],[37.326756,-3.097349,3953.7],[37.326767,-3.097332,3953.3],[37.326767,-3.097303,3953.5],[37.326766,-3.097271,3953.8],[37.326774,-3.097247,3953.5],[37.326793,-3.09723,3952.7],[37.326871,-3.097176,3949.0],[37.326948,-3.097106,3945.4],[37.327067,-3.097018,3943.4],[37.327174,-3.096959,3942.8],[37.32731,-3.096916,3943.3],[37.327346,-3.096893,3943.9],[37.327365,-3.096862,3944.8],[37.327369,-3.096813,3946.4],[37.327368,-3.096727,3949.1],[37.327404,-3.09659,3952.2],[37.32744,-3.096479,3953.7],[37.327487,-3.096374,3954.6],[37.327516,-3.096285,3955.6],[37.327545,-3.096164,3957.2],[37.32759,-3.096082,3957.7],[37.327656,-3.09602,3957.4],[37.327744,-3.095969,3956.3],[37.32783,-3.095905,3956.6],[37.327959,-3.095776,3957.9],[37.328055,-3.095689,3958.0],[37.328139,-3.095641,3956.9],[37.328202,-3.095592,3956.4],[37.328228,-3.095577,3956.2],[37.328252,-3.095573,3955.8],[37.328312,-3.095584,3954.5],[37.328353,-3.095585,3954.4],[37.328399,-3.095576,3955.3],[37.328439,-3.095561,3956.2],[37.328477,-3.095555,3956.9],[37.328566,-3.095558,3958.2],[37.328718,-3.095554,3961.4],[37.32887,-3.095543,3965.0],[37.329074,-3.095512,3966.8]]}},
{"type":"Feature","properties":{"trail":null,"hero":false,"class":"path","length_m":22.7},"geometry":{"type":"LineString","coordinates":[[37.329074,-3.095512,3966.8],[37.329276,-3.095482,3967.8]]}},
{"type":"Feature","properties":{"trail":null,"hero":false,"class":"path","length_m":147.5},"geometry":{"type":"LineString","coordinates":[[37.329432,-3.094276,3987.6],[37.329476,-3.094334,3986.4],[37.329531,-3.094389,3984.9],[37.329596,-3.094468,3983.2],[37.32969,-3.094555,3981.6],[37.32977,-3.094666,3980.1],[37.329865,-3.094767,3978.7],[37.329956,-3.094827,3977.9],[37.330086,-3.094869,3976.7],[37.33019,-3.09492,3975.4],[37.330273,-3.094939,3974.4],[37.330321,-3.094931,3974.0],[37.330355,-3.094915,3973.8],[37.330397,-3.094897,3973.6],[37.330433,-3.094888,3973.4],[37.330489,-3.094899,3973.0]]}},
{"type":"Feature","properties":{"trail":null,"hero":false,"class":"path","length_m":130.2},"geometry":{"type":"LineString","coordinates":[[37.329432,-3.094276,3987.6],[37.329452,-3.094461,3984.7],[37.329471,-3.094646,3981.4],[37.329502,-3.094787,3979.0],[37.329532,-3.094929,3977.1],[37.329611,-3.095174,3973.7],[37.32969,-3.095419,3969.5]]}},
{"type":"Feature","properties":{"trail":null,"hero":false,"class":"path","length_m":46.5},"geometry":{"type":"LineString","coordinates":[[37.32969,-3.095419,3969.5],[37.329483,-3.09545,3968.4],[37.329276,-3.095482,3967.8]]}},
{"type":"Feature","properties":{"trail":null,"hero":false,"class":"path","length_m":27.2},"geometry":{"type":"LineString","coordinates":[[37.329276,-3.095482,3967.8],[37.329358,-3.095714,3964.0]]}},
{"type":"Feature","properties":{"trail":null,"hero":false,"class":"path","length_m":1109.3},"geometry":{"type":"LineString","coordinates":[[37.325437,-3.084012,4282.2],[37.325307,-3.08401,4282.8],[37.325238,-3.083967,4285.4],[37.325161,-3.083879,4290.2],[37.325142,-3.083768,4294.4],[37.325153,-3.083623,4299.5],[37.325171,-3.083438,4305.0],[37.325183,-3.083213,4311.4],[37.325206,-3.082957,4318.1],[37.325217,-3.082798,4322.5],[37.325227,-3.082653,4326.5],[37.325276,-3.082548,4329.7],[37.32533,-3.082468,4332.1],[37.325355,-3.082416,4333.7],[37.325358,-3.08233,4336.1],[37.325368,-3.082125,4341.8],[37.325411,-3.082014,4345.0],[37.325448,-3.081923,4347.5],[37.325441,-3.081767,4351.8],[37.325408,-3.08162,4355.9],[37.325388,-3.081442,4360.7],[37.32541,-3.081284,4364.9],[37.325457,-3.081195,4367.2],[37.325508,-3.081104,4369.6],[37.325512,-3.080957,4374.1],[37.325553,-3.080783,4379.8],[37.325564,-3.080684,4382.8],[37.325569,-3.080434,4389.1],[37.325562,-3.080342,4390.9],[37.325537,-3.080267,4391.9],[37.325522,-3.080173,4393.6],[37.325522,-3.080045,4396.3],[37.325493,-3.079947,4397.8],[37.325485,-3.07983,4400.2],[37.325503,-3.079721,4402.9],[37.325516,-3.079584,4406.2],[37.325532,-3.079404,4410.2],[37.325542,-3.079244,4412.9],[37.325552,-3.079124,4415.1],[37.325563,-3.078964,4418.9],[37.325567,-3.078809,4422.1],[37.32557,-3.078643,4425.4],[37.325585,-3.078588,4426.9],[37.325615,-3.078533,4428.9],[37.325627,-3.07848,4430.3],[37.325621,-3.078287,4433.9],[37.325623,-3.078188,4435.9],[37.325637,-3.078127,4437.3],[37.325664,-3.078051,4439.2],[37.325671,-3.077986,4440.7],[37.325686,-3.0779,4442.8],[37.325688,-3.077783,4445.3],[37.325679,-3.077734,4446.3],[37.325645,-3.077687,4447.1],[37.325601,-3.077627,4448.0],[37.325522,-3.077539,4449.6],[37.325474,-3.077475,4450.6],[37.32547,-3.07742,4451.5],[37.325478,-3.077356,4452.6],[37.325508,-3.077307,4453.6],[37.32556,-3.077246,4455.1],[37.325623,-3.077185,4456.6],[37.325692,-3.077135,4457.7],[37.325795,-3.077073,4459.4],[37.325856,-3.07702,4460.4],[37.325907,-3.076959,4461.3],[37.325946,-3.076911,4462.1],[37.32599,-3.076859,4463.0],[37.326011,-3.076804,4463.7],[37.326047,-3.076736,4464.6],[37.326085,-3.076702,4465.3],[37.326146,-3.076661,4466.4],[37.326208,-3.076604,4467.5],[37.326269,-3.076543,4468.7],[37.326346,-3.076454,4470.4],[37.326396,-3.076412,4471.5],[37.326444,-3.076381,4472.5],[37.32649,-3.076347,4473.5],[37.326512,-3.076309,4474.2],[37.326524,-3.076262,4474.7],[37.326549,-3.076216,4475.5],[37.326578,-3.076168,4476.5],[37.326613,-3.076112,4477.6],[37.326666,-3.076058,4479.1],[37.326702,-3.076005,4480.3],[37.326771,-3.075935,4482.5],[37.326836,-3.075873,4484.7],[37.326882,-3.075818,4486.3],[37.326911,-3.075762,4487.0],[37.326946,-3.075711,4487.9],[37.326996,-3.075652,4489.5],[37.32705,-3.075587,4491.3],[37.327079,-3.075526,4492.4],[37.327101,-3.075449,4493.5],[37.327103,-3.075393,4493.8],[37.327031,-3.075368,4492.3],[37.32698,-3.075333,4491.7],[37.326989,-3.075188,4495.3],[37.327048,-3.075124,4497.8]]}},
{"type":"Feature","properties":{"trail":null,"hero":false,"class":"track","length_m":198.7},"geometry":{"type":"LineString","coordinates":[[37.322947,-3.080221,4395.9],[37.322929,-3.080136,4395.6],[37.322911,-3.080053,4395.3],[37.322901,-3.079878,4394.5],[37.322875,-3.07976,4393.0],[37.322877,-3.079722,4392.9],[37.322885,-3.079685,4392.5],[37.322912,-3.079598,4391.8],[37.32294,-3.079447,4389.9],[37.322962,-3.079295,4387.0],[37.322983,-3.079039,4382.2],[37.322982,-3.078929,4380.0],[37.322975,-3.078825,4378.4],[37.322953,-3.078672,4376.3],[37.322943,-3.078633,4375.7],[37.322924,-3.078597,4374.9],[37.322902,-3.078571,4374.3],[37.322883,-3.078526,4373.7],[37.322873,-3.078462,4373.3]]}},
{"type":"Feature","properties":{"trail":null,"hero":false,"class":"path","length_m":973.0},"geometry":{"type":"LineString","coordinates":[[37.322873,-3.078462,4373.3],[37.322861,-3.078367,4372.9],[37.322848,-3.078299,4372.8],[37.32283,-3.078267,4372.6],[37.322809,-3.07824,4372.3],[37.322761,-3.078191,4371.7],[37.322705,-3.078119,4371.5],[37.322604,-3.077999,4371.1],[37.322503,-3.07788,4370.6],[37.322344,-3.077722,4368.2],[37.322246,-3.077613,4367.0],[37.322169,-3.077524,4366.5],[37.322133,-3.077439,4367.6],[37.322105,-3.077343,4369.5],[37.322067,-3.077222,4371.9],[37.322029,-3.077149,4373.3],[37.321986,-3.077086,4374.5],[37.321919,-3.076952,4377.2],[37.32187,-3.076813,4379.0],[37.321842,-3.07673,4379.9],[37.321806,-3.076661,4380.2],[37.3218,-3.076625,4380.6],[37.321786,-3.076601,4380.6],[37.321762,-3.076567,4380.5],[37.321735,-3.076473,4381.3],[37.321694,-3.076268,4384.3],[37.321636,-3.076015,4386.7],[37.321607,-3.075938,4385.8],[37.321602,-3.075852,4385.6],[37.321607,-3.075718,4382.9],[37.321622,-3.075618,4381.2],[37.321634,-3.075572,4380.7],[37.321655,-3.075536,4381.2],[37.321708,-3.075454,4382.7],[37.32172,-3.07541,4382.7],[37.321725,-3.075367,4382.4],[37.321734,-3.075283,4381.7],[37.321764,-3.075158,4381.5],[37.321769,-3.075061,4380.4],[37.321779,-3.07496,4379.7],[37.321781,-3.074882,4379.1],[37.321796,-3.074799,4379.0],[37.321826,-3.074721,4379.5],[37.321837,-3.07466,4379.7],[37.321836,-3.0746,4379.4],[37.321834,-3.074506,4378.8],[37.321833,-3.074337,4378.5],[37.321808,-3.074132,4377.8],[37.321784,-3.073981,4378.3],[37.321751,-3.073883,4378.0],[37.321692,-3.073791,4377.0],[37.321621,-3.073699,4375.7],[37.321538,-3.073624,4373.9],[37.321483,-3.073582,4372.5],[37.321449,-3.073553,4371.6],[37.321432,-3.073519,4371.4],[37.321399,-3.073444,4371.0],[37.321351,-3.073356,4371.0],[37.321304,-3.073259,4371.7],[37.321241,-3.07318,4372.0],[37.321157,-3.073099,4372.2],[37.321074,-3.072982,4373.9],[37.321016,-3.072839,4376.8],[37.320952,-3.072615,4380.2],[37.320913,-3.072526,4381.6],[37.320844,-3.072421,4383.4],[37.32076,-3.072294,4386.2],[37.320694,-3.072216,4388.2],[37.3206,-3.07214,4390.6],[37.320429,-3.072026,4394.7],[37.320308,-3.071934,4397.7],[37.320186,-3.071843,4401.8],[37.32008,-3.071713,4405.7],[37.319973,-3.071584,4409.9],[37.319845,-3.071396,4416.9],[37.319787,-3.071234,4421.2],[37.319753,-3.071109,4423.8],[37.319738,-3.07097,4428.1],[37.319742,-3.070814,4432.1]]}},
{"type":"Feature","properties":{"trail":null,"hero":false,"class":"path","length_m":10.8},"geometry":{"type":"LineString","coordinates":[[37.327031,-3.075027,4500.5],[37.327048,-3.075124,4497.8]]}},
{"type":"Feature","properties":{"trail":null,"hero":false,"class":"path","length_m":549.7},"geometry":{"type":"LineString","coordinates":[[37.327031,-3.075027,4500.5],[37.327013,-3.074976,4502.1],[37.327121,-3.074803,4508.6],[37.327147,-3.07469,4512.7],[37.327045,-3.074615,4514.8],[37.326895,-3.07441,4521.2],[37.326802,-3.07429,4525.2],[37.326819,-3.074178,4529.6],[37.326761,-3.074134,4530.5],[37.326773,-3.073962,4534.7],[37.326812,-3.073816,4538.9],[37.326769,-3.073628,4542.1],[37.326796,-3.07345,4546.5],[37.326792,-3.073238,4550.3],[37.326789,-3.073026,4553.4],[37.326799,-3.072888,4556.1],[37.32681,-3.072749,4558.8],[37.326873,-3.072506,4564.8],[37.326963,-3.072263,4572.0],[37.327053,-3.072019,4575.6],[37.327139,-3.071855,4577.2],[37.327225,-3.071691,4578.6],[37.327264,-3.071564,4578.4],[37.327308,-3.071472,4578.6],[37.327401,-3.071334,4579.2],[37.327464,-3.071188,4577.7],[37.327494,-3.071087,4576.3],[37.327508,-3.070985,4574.1],[37.327562,-3.070823,4571.8],[37.327597,-3.070693,4569.7],[37.327675,-3.070444,4566.1]]}},
{"type":"Feature","properties":{"trail":"Barranco Wall","hero":true,"from_mile":0.0,"to_mile":0.068,"length_m":108.7},"geometry":{"type":"LineString","coordinates":[[37.32969,-3.095419,3969.5],[37.329931,-3.095349,3971.5],[37.330122,-3.095224,3973.9],[37.330314,-3.095099,3973.6],[37.330438,-3.094924,3973.1],[37.330489,-3.094899,3973.0]]}},
{"type":"Feature","properties":{"trail":"Barranco Wall","hero":true,"from_mile":0.068,"to_mile":0.173,"length_m":169.2},"geometry":{"type":"LineString","coordinates":[[37.330489,-3.094899,3973.0],[37.33063,-3.094828,3972.4],[37.330771,-3.094758,3971.8],[37.330935,-3.094564,3972.8],[37.331099,-3.09437,3974.2],[37.331242,-3.094268,3973.5],[37.331385,-3.094165,3973.9],[37.331549,-3.094104,3970.6],[37.331712,-3.094042,3968.6]]}},
{"type":"Feature","properties":{"trail":"Barranco Wall","hero":true,"from_mile":0.173,"to_mile":1.978,"length_m":2906.0},"geometry":{"type":"LineString","coordinates":[[37.331712,-3.094042,3968.6],[37.331799,-3.09401,3969.1],[37.331956,-3.09403,3968.5],[37.332146,-3.094204,3968.5],[37.332336,-3.094377,3978.0],[37.332473,-3.094416,3990.0],[37.33261,-3.094455,4002.1],[37.332718,-3.09459,4017.4],[37.332717,-3.094754,4025.2],[37.332716,-3.094918,4028.9],[37.332617,-3.095067,4025.7],[37.332517,-3.095216,4021.1],[37.332591,-3.095361,4024.2],[37.332665,-3.095506,4027.2],[37.332706,-3.095412,4030.2],[37.332782,-3.095519,4034.4],[37.332976,-3.095438,4049.7],[37.333169,-3.095357,4061.8],[37.333362,-3.095277,4071.3],[37.333556,-3.095196,4079.5],[37.333709,-3.095246,4088.9],[37.333842,-3.095463,4101.4],[37.333975,-3.09568,4112.4],[37.334115,-3.095751,4119.9],[37.334255,-3.095822,4127.2],[37.334404,-3.096019,4133.4],[37.334554,-3.096215,4140.2],[37.334587,-3.096349,4141.8],[37.334619,-3.096482,4142.9],[37.334768,-3.096521,4150.3],[37.334817,-3.096703,4152.3],[37.334865,-3.096885,4154.6],[37.334827,-3.096993,4152.9],[37.334941,-3.097004,4158.9],[37.335069,-3.09718,4164.5],[37.335196,-3.097355,4168.1],[37.335302,-3.097592,4172.8],[37.335407,-3.097829,4178.2],[37.335513,-3.098066,4178.9],[37.335619,-3.098303,4180.2],[37.335703,-3.0983,4185.4],[37.335722,-3.098444,4185.2],[37.335793,-3.098531,4189.3],[37.335968,-3.098558,4194.0],[37.336144,-3.098585,4196.9],[37.336322,-3.098761,4198.4],[37.336501,-3.098936,4200.5],[37.336541,-3.098865,4205.0],[37.33664,-3.098944,4207.6],[37.336654,-3.098781,4213.3],[37.336853,-3.098926,4214.2],[37.337052,-3.099072,4209.8],[37.337153,-3.099188,4206.8],[37.337255,-3.099305,4203.8],[37.337231,-3.099455,4200.8],[37.337378,-3.099595,4194.9],[37.337432,-3.099791,4191.1],[37.337486,-3.099986,4188.2],[37.337598,-3.100023,4186.5],[37.337817,-3.099958,4182.4],[37.338,-3.100112,4174.8],[37.338183,-3.100267,4167.7],[37.338366,-3.100422,4159.5],[37.338549,-3.100577,4150.8],[37.338779,-3.100698,4140.5],[37.339008,-3.100818,4129.5],[37.339238,-3.100939,4121.8],[37.339467,-3.101059,4116.9],[37.339727,-3.101122,4114.5],[37.339986,-3.101185,4112.3],[37.340245,-3.101247,4107.0],[37.340504,-3.10131,4104.1],[37.340724,-3.101241,4104.5],[37.340944,-3.101172,4104.4],[37.341164,-3.101103,4104.2],[37.341421,-3.10115,4102.8],[37.341677,-3.101196,4101.1],[37.341934,-3.101242,4098.2],[37.34219,-3.101289,4091.4],[37.342294,-3.101445,4086.6],[37.342291,-3.101586,4083.6],[37.342289,-3.101727,4080.0],[37.342201,-3.101959,4072.3],[37.342112,-3.102191,4066.0],[37.342024,-3.102424,4058.8],[37.342128,-3.102524,4056.8],[37.342232,-3.102625,4054.6],[37.342395,-3.102623,4053.4],[37.342558,-3.102622,4051.8],[37.3428,-3.102547,4050.0],[37.343041,-3.102473,4048.2],[37.343283,-3.102398,4048.5],[37.343524,-3.102324,4051.7],[37.343765,-3.102249,4056.2],[37.344007,-3.102175,4062.4],[37.344261,-3.102233,4067.7],[37.344516,-3.102291,4073.3],[37.344757,-3.102181,4079.6],[37.344855,-3.102083,4083.7],[37.344952,-3.101984,4087.0],[37.345114,-3.102063,4091.2],[37.345276,-3.102142,4095.5],[37.34542,-3.102163,4098.1],[37.345563,-3.102184,4100.4],[37.34572,-3.102275,4102.2],[37.345878,-3.102365,4105.2],[37.345986,-3.102591,4110.7],[37.346172,-3.102765,4118.4],[37.346359,-3.10294,4116.6],[37.346545,-3.103114,4112.1],[37.346732,-3.103288,4110.6],[37.346918,-3.103462,4109.8],[37.347105,-3.103637,4111.5],[37.347091,-3.10385,4111.2],[37.347077,-3.104062,4108.0],[37.347132,-3.104299,4104.8],[37.347187,-3.104535,4101.9],[37.347243,-3.104771,4101.4],[37.347193,-3.104999,4099.7],[37.347144,-3.105227,4102.7],[37.347058,-3.105369,4102.2],[37.346971,-3.105512,4100.9],[37.346924,-3.105754,4101.0],[37.346876,-3.105996,4101.0],[37.346829,-3.106238,4101.7],[37.346781,-3.10648,4101.6],[37.346733,-3.106722,4099.8],[37.346686,-3.106964,4097.2]]}}
]}
