{
  "type": "FeatureCollection",
  "attribution": "© OpenStreetMap contributors",
  "license": "ODbL-1.0",
  "source": "https://www.openstreetmap.org/copyright",
  "features": [
    {
      "type": "Feature",
      "properties": {
        "mountain_slug": "turtle-mountain",
        "name": "Turtle Mountain Trail",
        "length_km": 3.69,
        "elevation_gain_m": null,
        "source": "© OpenStreetMap contributors"
      },
      "geometry": {
        "type": "LineString",
        "coordinates": [
          [
            -114.42596,
            49.60348
          ],
          [
            -114.4254,
            49.6034
          ],
          [
            -114.42527,
            49.60323
          ],
          [
            -114.42501,
            49.60284
          ],
          [
            -114.42462,
            49.60271
          ],
          [
            -114.42428,
            49.6028
          ],
          [
            -114.42407,
            49.60232
          ],
          [
            -114.4239,
            49.60211
          ],
          [
            -114.42372,
            49.60181
          ],
          [
            -114.42356,
            49.60151
          ],
          [
            -114.42321,
            49.60155
          ],
          [
            -114.42304,
            49.60151
          ],
          [
            -114.42248,
            49.60121
          ],
          [
            -114.42201,
            49.60095
          ],
          [
            -114.42189,
            49.60083
          ],
          [
            -114.42166,
            49.60065
          ],
          [
            -114.42111,
            49.60039
          ],
          [
            -114.42102,
            49.60031
          ],
          [
            -114.42094,
            49.60022
          ],
          [
            -114.42073,
            49.59988
          ],
          [
            -114.42047,
            49.59967
          ],
          [
            -114.42042,
            49.59945
          ],
          [
            -114.42042,
            49.59915
          ],
          [
            -114.42029,
            49.59907
          ],
          [
            -114.42008,
            49.59877
          ],
          [
            -114.41999,
            49.59838
          ],
          [
            -114.41944,
            49.59804
          ],
          [
            -114.41913,
            49.59748
          ],
          [
            -114.41931,
            49.59709
          ],
          [
            -114.41926,
            49.59696
          ],
          [
            -114.41913,
            49.59658
          ],
          [
            -114.41896,
            49.59632
          ],
          [
            -114.41883,
            49.59614
          ],
          [
            -114.4187,
            49.59589
          ],
          [
            -114.41844,
            49.59563
          ],
          [
            -114.41832,
            49.59546
          ],
          [
            -114.41806,
            49.59516
          ],
          [
            -114.41759,
            49.59495
          ],
          [
            -114.41728,
            49.5946
          ],
          [
            -114.41712,
            49.59447
          ],
          [
            -114.41669,
            49.59404
          ],
          [
            -114.41661,
            49.59374
          ],
          [
            -114.41635,
            49.59327
          ],
          [
            -114.41604,
            49.59254
          ],
          [
            -114.41571,
            49.59198
          ],
          [
            -114.41558,
            49.59147
          ],
          [
            -114.41545,
            49.59112
          ],
          [
            -114.41548,
            49.59061
          ],
          [
            -114.41535,
            49.5904
          ],
          [
            -114.41535,
            49.59027
          ],
          [
            -114.41548,
            49.59018
          ],
          [
            -114.41545,
            49.58988
          ],
          [
            -114.41545,
            49.58958
          ],
          [
            -114.4154,
            49.58941
          ],
          [
            -114.41519,
            49.58924
          ],
          [
            -114.4151,
            49.58902
          ],
          [
            -114.41535,
            49.58868
          ],
          [
            -114.41571,
            49.58847
          ],
          [
            -114.41574,
            49.58838
          ],
          [
            -114.41574,
            49.58782
          ],
          [
            -114.41545,
            49.58709
          ],
          [
            -114.41532,
            49.58679
          ],
          [
            -114.4151,
            49.58645
          ],
          [
            -114.41501,
            49.58619
          ],
          [
            -114.41489,
            49.58606
          ],
          [
            -114.41489,
            49.5858
          ],
          [
            -114.41489,
            49.58568
          ],
          [
            -114.41481,
            49.5855
          ],
          [
            -114.41471,
            49.58538
          ],
          [
            -114.41489,
            49.58516
          ],
          [
            -114.4151,
            49.58494
          ],
          [
            -114.41522,
            49.58477
          ],
          [
            -114.41522,
            49.58469
          ],
          [
            -114.41522,
            49.58452
          ],
          [
            -114.41519,
            49.5843
          ],
          [
            -114.41522,
            49.584
          ],
          [
            -114.41522,
            49.58374
          ],
          [
            -114.41548,
            49.58366
          ],
          [
            -114.41532,
            49.58344
          ],
          [
            -114.4154,
            49.58332
          ],
          [
            -114.41527,
            49.58314
          ],
          [
            -114.41506,
            49.58284
          ],
          [
            -114.41501,
            49.58271
          ],
          [
            -114.41501,
            49.58267
          ],
          [
            -114.41493,
            49.5825
          ],
          [
            -114.41468,
            49.58233
          ],
          [
            -114.41455,
            49.5822
          ],
          [
            -114.41445,
            49.58168
          ],
          [
            -114.41455,
            49.58147
          ],
          [
            -114.4145,
            49.58134
          ],
          [
            -114.41429,
            49.58095
          ],
          [
            -114.41407,
            49.58087
          ],
          [
            -114.41394,
            49.58082
          ],
          [
            -114.41355,
            49.58018
          ],
          [
            -114.41347,
            49.58005
          ],
          [
            -114.41329,
            49.57988
          ],
          [
            -114.41313,
            49.57966
          ],
          [
            -114.41321,
            49.57924
          ],
          [
            -114.41295,
            49.57915
          ],
          [
            -114.41275,
            49.57894
          ],
          [
            -114.41236,
            49.57902
          ],
          [
            -114.41226,
            49.57872
          ],
          [
            -114.41239,
            49.57834
          ],
          [
            -114.41252,
            49.57786
          ],
          [
            -114.41262,
            49.57731
          ],
          [
            -114.41265,
            49.57705
          ],
          [
            -114.41275,
            49.57696
          ]
        ]
      }
    }
  ]
}
