{
  "type": "FeatureCollection",
  "attribution": "© OpenStreetMap contributors",
  "license": "ODbL-1.0",
  "source": "https://www.openstreetmap.org/copyright",
  "features": [
    {
      "type": "Feature",
      "properties": {
        "mountain_slug": "mount-adams-cincinnati",
        "name": "The Friends Bracelet Paths: Path of Nature",
        "length_km": 0.46,
        "elevation_gain_m": null,
        "source": "© OpenStreetMap contributors"
      },
      "geometry": {
        "type": "LineString",
        "coordinates": [
          [
            -84.49236,
            39.10666
          ],
          [
            -84.49233,
            39.10672
          ],
          [
            -84.49224,
            39.10689
          ],
          [
            -84.49218,
            39.10702
          ],
          [
            -84.49214,
            39.10708
          ],
          [
            -84.49209,
            39.10713
          ],
          [
            -84.49202,
            39.10719
          ],
          [
            -84.49197,
            39.10723
          ],
          [
            -84.49189,
            39.1073
          ],
          [
            -84.49186,
            39.10734
          ],
          [
            -84.49184,
            39.10737
          ],
          [
            -84.4918,
            39.10746
          ],
          [
            -84.49179,
            39.10756
          ],
          [
            -84.49181,
            39.10761
          ],
          [
            -84.49181,
            39.10768
          ],
          [
            -84.49181,
            39.10772
          ],
          [
            -84.4918,
            39.10777
          ],
          [
            -84.49178,
            39.10782
          ],
          [
            -84.49175,
            39.10788
          ],
          [
            -84.49169,
            39.10795
          ],
          [
            -84.49166,
            39.10798
          ],
          [
            -84.49162,
            39.108
          ],
          [
            -84.49157,
            39.10803
          ],
          [
            -84.49153,
            39.10807
          ],
          [
            -84.49148,
            39.10812
          ],
          [
            -84.49145,
            39.10817
          ],
          [
            -84.49143,
            39.10821
          ],
          [
            -84.49139,
            39.1083
          ],
          [
            -84.49138,
            39.10834
          ],
          [
            -84.49138,
            39.10835
          ],
          [
            -84.49136,
            39.10841
          ],
          [
            -84.4913,
            39.10848
          ],
          [
            -84.49121,
            39.10856
          ],
          [
            -84.49111,
            39.10862
          ],
          [
            -84.49104,
            39.10865
          ],
          [
            -84.491,
            39.10867
          ],
          [
            -84.49094,
            39.1087
          ],
          [
            -84.49088,
            39.10873
          ],
          [
            -84.49084,
            39.10877
          ],
          [
            -84.49081,
            39.10881
          ],
          [
            -84.49079,
            39.10886
          ],
          [
            -84.49074,
            39.109
          ],
          [
            -84.49074,
            39.1091
          ],
          [
            -84.49073,
            39.10915
          ],
          [
            -84.49071,
            39.10919
          ],
          [
            -84.49068,
            39.10924
          ],
          [
            -84.49065,
            39.10928
          ],
          [
            -84.49061,
            39.10932
          ],
          [
            -84.49054,
            39.10937
          ],
          [
            -84.49044,
            39.10942
          ],
          [
            -84.4903,
            39.10952
          ],
          [
            -84.4902,
            39.1096
          ],
          [
            -84.49009,
            39.10972
          ],
          [
            -84.49005,
            39.10976
          ],
          [
            -84.49002,
            39.10981
          ],
          [
            -84.48995,
            39.10995
          ],
          [
            -84.4899,
            39.11008
          ],
          [
            -84.48988,
            39.11015
          ]
        ]
      }
    },
    {
      "type": "Feature",
      "properties": {
        "mountain_slug": "mount-adams-cincinnati",
        "name": "The Friends Bracelet Paths: Path of Man",
        "length_km": 0.22,
        "elevation_gain_m": null,
        "source": "© OpenStreetMap contributors"
      },
      "geometry": {
        "type": "LineString",
        "coordinates": [
          [
            -84.4879,
            39.11233
          ],
          [
            -84.48792,
            39.11228
          ],
          [
            -84.48793,
            39.11224
          ],
          [
            -84.48797,
            39.11221
          ],
          [
            -84.48802,
            39.11217
          ],
          [
            -84.48808,
            39.11213
          ],
          [
            -84.48816,
            39.1121
          ],
          [
            -84.48824,
            39.11206
          ],
          [
            -84.48831,
            39.11201
          ],
          [
            -84.48836,
            39.11197
          ],
          [
            -84.4884,
            39.11192
          ],
          [
            -84.48845,
            39.11185
          ],
          [
            -84.48848,
            39.11181
          ],
          [
            -84.48853,
            39.11175
          ],
          [
            -84.48862,
            39.11168
          ],
          [
            -84.48872,
            39.11162
          ],
          [
            -84.48879,
            39.11159
          ],
          [
            -84.48885,
            39.11156
          ],
          [
            -84.48893,
            39.11151
          ],
          [
            -84.48898,
            39.11143
          ],
          [
            -84.48901,
            39.11139
          ],
          [
            -84.48903,
            39.11131
          ],
          [
            -84.48904,
            39.11125
          ],
          [
            -84.48904,
            39.11117
          ],
          [
            -84.48903,
            39.11111
          ],
          [
            -84.48904,
            39.11103
          ],
          [
            -84.48906,
            39.11096
          ],
          [
            -84.4891,
            39.11089
          ],
          [
            -84.48914,
            39.11083
          ],
          [
            -84.48921,
            39.11078
          ],
          [
            -84.48926,
            39.11075
          ]
        ]
      }
    },
    {
      "type": "Feature",
      "properties": {
        "mountain_slug": "mount-adams-cincinnati",
        "name": "Geologic Timeline",
        "length_km": 0.19,
        "elevation_gain_m": null,
        "source": "© OpenStreetMap contributors"
      },
      "geometry": {
        "type": "LineString",
        "coordinates": [
          [
            -84.49517,
            39.10304
          ],
          [
            -84.49524,
            39.10289
          ],
          [
            -84.49534,
            39.10271
          ],
          [
            -84.49556,
            39.10249
          ],
          [
            -84.49566,
            39.10238
          ],
          [
            -84.49571,
            39.10235
          ],
          [
            -84.49589,
            39.10214
          ],
          [
            -84.49598,
            39.10206
          ],
          [
            -84.49614,
            39.10197
          ],
          [
            -84.49635,
            39.10189
          ],
          [
            -84.49658,
            39.10183
          ]
        ]
      }
    }
  ]
}
