{"type": "FeatureCollection", "attribution": "© OpenStreetMap contributors (ODbL 1.0), via Overture Maps Foundation release 2026-09-23.0", "license": "ODbL-1.0", "source": "https://overturemaps-us-west-2.s3.amazonaws.com/release/2026-09-23.0/theme=transportation/type=segment/", "features": [
{"type":"Feature","properties":{"mountain_slug":"mount-rainier","trail":"Skyline Trail","seq":0,"start_mile":0.0,"end_mile":0.1},"geometry":{"type":"LineString","coordinates":[[-121.736518,46.786502],[-121.736337,46.786974],[-121.736161,46.787926]]}},
{"type":"Feature","properties":{"mountain_slug":"mount-rainier","trail":"Skyline Trail","seq":1,"start_mile":0.1,"end_mile":0.2},"geometry":{"type":"LineString","coordinates":[[-121.736161,46.787926],[-121.736096,46.788277],[-121.737151,46.78896],[-121.737286,46.788993]]}},
{"type":"Feature","properties":{"mountain_slug":"mount-rainier","trail":"Skyline Trail","seq":2,"start_mile":0.2,"end_mile":0.3},"geometry":{"type":"LineString","coordinates":[[-121.737286,46.788993],[-121.737355,46.78901],[-121.737607,46.789261],[-121.737616,46.78951],[-121.737347,46.789831],[-121.737307,46.790102],[-121.737448,46.790278]]}},
{"type":"Feature","properties":{"mountain_slug":"mount-rainier","trail":"Skyline Trail","seq":3,"start_mile":0.3,"end_mile":0.4},"geometry":{"type":"LineString","coordinates":[[-121.737448,46.790278],[-121.737953,46.790908],[-121.737989,46.791336],[-121.737869,46.791625]]}},
{"type":"Feature","properties":{"mountain_slug":"mount-rainier","trail":"Skyline Trail","seq":4,"start_mile":0.4,"end_mile":0.5},"geometry":{"type":"LineString","coordinates":[[-121.737869,46.791625],[-121.737818,46.791748],[-121.737759,46.792298],[-121.737215,46.79297]]}},
{"type":"Feature","properties":{"mountain_slug":"mount-rainier","trail":"Skyline Trail","seq":5,"start_mile":0.5,"end_mile":0.6},"geometry":{"type":"LineString","coordinates":[[-121.737215,46.79297],[-121.736309,46.794089],[-121.736116,46.794138],[-121.736103,46.794162]]}},
{"type":"Feature","properties":{"mountain_slug":"mount-rainier","trail":"Skyline Trail","seq":6,"start_mile":0.6,"end_mile":0.7},"geometry":{"type":"LineString","coordinates":[[-121.736103,46.794162],[-121.735595,46.795097],[-121.735583,46.795341],[-121.735739,46.795517]]}},
{"type":"Feature","properties":{"mountain_slug":"mount-rainier","trail":"Skyline Trail","seq":7,"start_mile":0.7,"end_mile":0.8},"geometry":{"type":"LineString","coordinates":[[-121.735739,46.795517],[-121.735878,46.795674],[-121.735751,46.795958],[-121.735903,46.796426],[-121.735903,46.796914]]}},
{"type":"Feature","properties":{"mountain_slug":"mount-rainier","trail":"Skyline Trail","seq":8,"start_mile":0.8,"end_mile":0.9},"geometry":{"type":"LineString","coordinates":[[-121.735903,46.796914],[-121.735904,46.797416],[-121.735289,46.798262]]}},
{"type":"Feature","properties":{"mountain_slug":"mount-rainier","trail":"Skyline Trail","seq":9,"start_mile":0.9,"end_mile":1.0},"geometry":{"type":"LineString","coordinates":[[-121.735289,46.798262],[-121.735196,46.79839],[-121.734966,46.798446],[-121.734732,46.798372],[-121.734449,46.798617],[-121.734633,46.798636],[-121.734388,46.798873],[-121.734362,46.799103]]}},
{"type":"Feature","properties":{"mountain_slug":"mount-rainier","trail":"Skyline Trail","seq":10,"start_mile":1.0,"end_mile":1.1},"geometry":{"type":"LineString","coordinates":[[-121.734362,46.799103],[-121.734306,46.799597],[-121.73484,46.799974],[-121.734556,46.800138],[-121.734488,46.800303]]}},
{"type":"Feature","properties":{"mountain_slug":"mount-rainier","trail":"Skyline Trail","seq":11,"start_mile":1.1,"end_mile":1.2},"geometry":{"type":"LineString","coordinates":[[-121.734488,46.800303],[-121.734488,46.800305],[-121.734565,46.800717],[-121.734915,46.801024],[-121.734893,46.801329],[-121.734663,46.801625]]}},
{"type":"Feature","properties":{"mountain_slug":"mount-rainier","trail":"Skyline Trail","seq":12,"start_mile":1.2,"end_mile":1.3},"geometry":{"type":"LineString","coordinates":[[-121.734663,46.801625],[-121.734374,46.801998],[-121.734311,46.802303],[-121.734286,46.802447],[-121.734612,46.802974]]}},
{"type":"Feature","properties":{"mountain_slug":"mount-rainier","trail":"Skyline Trail","seq":13,"start_mile":1.3,"end_mile":1.4},"geometry":{"type":"LineString","coordinates":[[-121.734612,46.802974],[-121.734628,46.803001],[-121.73449,46.803332],[-121.734027,46.80376],[-121.733748,46.803811],[-121.733797,46.803923],[-121.733722,46.804144]]}},
{"type":"Feature","properties":{"mountain_slug":"mount-rainier","trail":"Skyline Trail","seq":14,"start_mile":1.4,"end_mile":1.5},"geometry":{"type":"LineString","coordinates":[[-121.733722,46.804144],[-121.733676,46.80428],[-121.733257,46.804626],[-121.733119,46.804888],[-121.732786,46.804356]]}},
{"type":"Feature","properties":{"mountain_slug":"mount-rainier","trail":"Skyline Trail","seq":15,"start_mile":1.5,"end_mile":1.6},"geometry":{"type":"LineString","coordinates":[[-121.732786,46.804356],[-121.732408,46.803752],[-121.732192,46.803126],[-121.732075,46.803003]]}},
{"type":"Feature","properties":{"mountain_slug":"mount-rainier","trail":"Skyline Trail","seq":16,"start_mile":1.6,"end_mile":1.7},"geometry":{"type":"LineString","coordinates":[[-121.732075,46.803003],[-121.731899,46.802818],[-121.731689,46.802712],[-121.731333,46.802702],[-121.730708,46.802318],[-121.730391,46.80225]]}},
{"type":"Feature","properties":{"mountain_slug":"mount-rainier","trail":"Skyline Trail","seq":17,"start_mile":1.7,"end_mile":1.8},"geometry":{"type":"LineString","coordinates":[[-121.730391,46.80225],[-121.730314,46.802233],[-121.730244,46.801947],[-121.729743,46.801897],[-121.729596,46.801957],[-121.729748,46.8021],[-121.729362,46.802357],[-121.729239,46.802391]]}},
{"type":"Feature","properties":{"mountain_slug":"mount-rainier","trail":"Skyline Trail","seq":18,"start_mile":1.8,"end_mile":1.9},"geometry":{"type":"LineString","coordinates":[[-121.729239,46.802391],[-121.728968,46.802466],[-121.729768,46.802961],[-121.729402,46.803343],[-121.729474,46.803338]]}},
{"type":"Feature","properties":{"mountain_slug":"mount-rainier","trail":"Skyline Trail","seq":19,"start_mile":1.9,"end_mile":2.0},"geometry":{"type":"LineString","coordinates":[[-121.729474,46.803338],[-121.729831,46.803309],[-121.729571,46.803482],[-121.729144,46.804204],[-121.728983,46.804338]]}},
{"type":"Feature","properties":{"mountain_slug":"mount-rainier","trail":"Skyline Trail","seq":20,"start_mile":2.0,"end_mile":2.1},"geometry":{"type":"LineString","coordinates":[[-121.728983,46.804338],[-121.728917,46.804393],[-121.729138,46.804519],[-121.72913,46.804847],[-121.729275,46.805029],[-121.729257,46.805186],[-121.728612,46.805387]]}},
{"type":"Feature","properties":{"mountain_slug":"mount-rainier","trail":"Skyline Trail","seq":21,"start_mile":2.1,"end_mile":2.2},"geometry":{"type":"LineString","coordinates":[[-121.728612,46.805387],[-121.728373,46.805461],[-121.727361,46.805534],[-121.726664,46.805842]]}},
{"type":"Feature","properties":{"mountain_slug":"mount-rainier","trail":"Skyline Trail","seq":22,"start_mile":2.2,"end_mile":2.3},"geometry":{"type":"LineString","coordinates":[[-121.726664,46.805842],[-121.726577,46.805881],[-121.725183,46.806221],[-121.725308,46.806016],[-121.725133,46.806086]]}},
{"type":"Feature","properties":{"mountain_slug":"mount-rainier","trail":"Skyline Trail","seq":23,"start_mile":2.3,"end_mile":2.4},"geometry":{"type":"LineString","coordinates":[[-121.725133,46.806086],[-121.724845,46.806203],[-121.723833,46.806013],[-121.723164,46.805984],[-121.723187,46.80595]]}},
{"type":"Feature","properties":{"mountain_slug":"mount-rainier","trail":"Skyline Trail","seq":24,"start_mile":2.4,"end_mile":2.5},"geometry":{"type":"LineString","coordinates":[[-121.723187,46.80595],[-121.723413,46.805608],[-121.723886,46.805366],[-121.723824,46.805074],[-121.723543,46.805008],[-121.723738,46.804907]]}},
{"type":"Feature","properties":{"mountain_slug":"mount-rainier","trail":"Skyline Trail","seq":25,"start_mile":2.5,"end_mile":2.6},"geometry":{"type":"LineString","coordinates":[[-121.723738,46.804907],[-121.723768,46.804891],[-121.723533,46.804851],[-121.72378,46.804497],[-121.723271,46.804153],[-121.723218,46.803879],[-121.723137,46.803801]]}},
{"type":"Feature","properties":{"mountain_slug":"mount-rainier","trail":"Skyline Trail","seq":26,"start_mile":2.6,"end_mile":2.7},"geometry":{"type":"LineString","coordinates":[[-121.723137,46.803801],[-121.722768,46.803442],[-121.72215,46.803412],[-121.721748,46.8032],[-121.72157,46.802998]]}},
{"type":"Feature","properties":{"mountain_slug":"mount-rainier","trail":"Skyline Trail","seq":27,"start_mile":2.7,"end_mile":2.8},"geometry":{"type":"LineString","coordinates":[[-121.72157,46.802998],[-121.721566,46.802993],[-121.721551,46.802752],[-121.721373,46.802435],[-121.721194,46.802286],[-121.721311,46.802151],[-121.722044,46.802065]]}},
{"type":"Feature","properties":{"mountain_slug":"mount-rainier","trail":"Skyline Trail","seq":28,"start_mile":2.8,"end_mile":2.9},"geometry":{"type":"LineString","coordinates":[[-121.722044,46.802065],[-121.722186,46.802048],[-121.722296,46.801811],[-121.722167,46.801368],[-121.722293,46.801248],[-121.722491,46.801202],[-121.722677,46.801286],[-121.722848,46.801118]]}},
{"type":"Feature","properties":{"mountain_slug":"mount-rainier","trail":"Skyline Trail","seq":29,"start_mile":2.9,"end_mile":3.0},"geometry":{"type":"LineString","coordinates":[[-121.722848,46.801118],[-121.722985,46.800984],[-121.723859,46.800684],[-121.723822,46.800528],[-121.724024,46.800468],[-121.723809,46.80033],[-121.723838,46.800231]]}},
{"type":"Feature","properties":{"mountain_slug":"mount-rainier","trail":"Skyline Trail","seq":30,"start_mile":3.0,"end_mile":3.1},"geometry":{"type":"LineString","coordinates":[[-121.723838,46.800231],[-121.723902,46.800014],[-121.723706,46.799841],[-121.723215,46.799619],[-121.722721,46.79918],[-121.722717,46.799131]]}},
{"type":"Feature","properties":{"mountain_slug":"mount-rainier","trail":"Skyline Trail","seq":31,"start_mile":3.1,"end_mile":3.2},"geometry":{"type":"LineString","coordinates":[[-121.722717,46.799131],[-121.722667,46.798402],[-121.722087,46.797805]]}},
{"type":"Feature","properties":{"mountain_slug":"mount-rainier","trail":"Skyline Trail","seq":32,"start_mile":3.2,"end_mile":3.3},"geometry":{"type":"LineString","coordinates":[[-121.722087,46.797805],[-121.721995,46.797711],[-121.721968,46.797477],[-121.721634,46.797366],[-121.721294,46.796872],[-121.72103,46.796751],[-121.720912,46.796746]]}},
{"type":"Feature","properties":{"mountain_slug":"mount-rainier","trail":"Skyline Trail","seq":33,"start_mile":3.3,"end_mile":3.4},"geometry":{"type":"LineString","coordinates":[[-121.720912,46.796746],[-121.720488,46.79673],[-121.719949,46.79644],[-121.719351,46.79589]]}},
{"type":"Feature","properties":{"mountain_slug":"mount-rainier","trail":"Skyline Trail","seq":34,"start_mile":3.4,"end_mile":3.5},"geometry":{"type":"LineString","coordinates":[[-121.719351,46.79589],[-121.71934,46.79588],[-121.719106,46.795107],[-121.718355,46.794719]]}},
{"type":"Feature","properties":{"mountain_slug":"mount-rainier","trail":"Skyline Trail","seq":35,"start_mile":3.5,"end_mile":3.6},"geometry":{"type":"LineString","coordinates":[[-121.718355,46.794719],[-121.717685,46.794373],[-121.71739,46.794542],[-121.717304,46.794825],[-121.717066,46.795099]]}},
{"type":"Feature","properties":{"mountain_slug":"mount-rainier","trail":"Skyline Trail","seq":36,"start_mile":3.6,"end_mile":3.7},"geometry":{"type":"LineString","coordinates":[[-121.717066,46.795099],[-121.716872,46.795322],[-121.71614,46.795228],[-121.715731,46.794941],[-121.71576,46.794667]]}},
{"type":"Feature","properties":{"mountain_slug":"mount-rainier","trail":"Skyline Trail","seq":37,"start_mile":3.7,"end_mile":3.8},"geometry":{"type":"LineString","coordinates":[[-121.71576,46.794667],[-121.71576,46.794666],[-121.716357,46.793619],[-121.716361,46.793316],[-121.716381,46.793302]]}},
{"type":"Feature","properties":{"mountain_slug":"mount-rainier","trail":"Skyline Trail","seq":38,"start_mile":3.8,"end_mile":3.9},"geometry":{"type":"LineString","coordinates":[[-121.716381,46.793302],[-121.716951,46.792902],[-121.717063,46.792019],[-121.717061,46.792017]]}},
{"type":"Feature","properties":{"mountain_slug":"mount-rainier","trail":"Skyline Trail","seq":39,"start_mile":3.9,"end_mile":4.0},"geometry":{"type":"LineString","coordinates":[[-121.717061,46.792017],[-121.71692,46.791932],[-121.716907,46.791677],[-121.717128,46.790624]]}},
{"type":"Feature","properties":{"mountain_slug":"mount-rainier","trail":"Skyline Trail","seq":40,"start_mile":4.0,"end_mile":4.1},"geometry":{"type":"LineString","coordinates":[[-121.717128,46.790624],[-121.717162,46.790465],[-121.717309,46.790191],[-121.717747,46.789861],[-121.718373,46.789847],[-121.71853,46.789896]]}},
{"type":"Feature","properties":{"mountain_slug":"mount-rainier","trail":"Skyline Trail","seq":41,"start_mile":4.1,"end_mile":4.2},"geometry":{"type":"LineString","coordinates":[[-121.71853,46.789896],[-121.71951,46.790203],[-121.719721,46.790466],[-121.720014,46.790292],[-121.720212,46.790249]]}},
{"type":"Feature","properties":{"mountain_slug":"mount-rainier","trail":"Skyline Trail","seq":42,"start_mile":4.2,"end_mile":4.3},"geometry":{"type":"LineString","coordinates":[[-121.720212,46.790249],[-121.720513,46.790185],[-121.7206,46.790491],[-121.72098,46.790377],[-121.721044,46.79067],[-121.721396,46.790546],[-121.721398,46.790613]]}},
{"type":"Feature","properties":{"mountain_slug":"mount-rainier","trail":"Skyline Trail","seq":43,"start_mile":4.3,"end_mile":4.4},"geometry":{"type":"LineString","coordinates":[[-121.721398,46.790613],[-121.721431,46.791419],[-121.72132,46.792056]]}},
{"type":"Feature","properties":{"mountain_slug":"mount-rainier","trail":"Skyline Trail","seq":44,"start_mile":4.4,"end_mile":4.5},"geometry":{"type":"LineString","coordinates":[[-121.72132,46.792056],[-121.721292,46.792215],[-121.721569,46.792266],[-121.721743,46.792182],[-121.722665,46.79205],[-121.723082,46.792133]]}},
{"type":"Feature","properties":{"mountain_slug":"mount-rainier","trail":"Skyline Trail","seq":45,"start_mile":4.5,"end_mile":4.6},"geometry":{"type":"LineString","coordinates":[[-121.723082,46.792133],[-121.723132,46.792143],[-121.723224,46.792262],[-121.723809,46.792461],[-121.724367,46.793118],[-121.724452,46.793154]]}},
{"type":"Feature","properties":{"mountain_slug":"mount-rainier","trail":"Skyline Trail","seq":46,"start_mile":4.6,"end_mile":4.7},"geometry":{"type":"LineString","coordinates":[[-121.724452,46.793154],[-121.724811,46.793304],[-121.726011,46.793437],[-121.726433,46.793383],[-121.726474,46.793372]]}},
{"type":"Feature","properties":{"mountain_slug":"mount-rainier","trail":"Skyline Trail","seq":47,"start_mile":4.7,"end_mile":4.8},"geometry":{"type":"LineString","coordinates":[[-121.726474,46.793372],[-121.727299,46.793158],[-121.728292,46.792716],[-121.728334,46.792709]]}},
{"type":"Feature","properties":{"mountain_slug":"mount-rainier","trail":"Skyline Trail","seq":48,"start_mile":4.8,"end_mile":4.9},"geometry":{"type":"LineString","coordinates":[[-121.728334,46.792709],[-121.728639,46.792655],[-121.729949,46.792729],[-121.730243,46.792691],[-121.730349,46.79279]]}},
{"type":"Feature","properties":{"mountain_slug":"mount-rainier","trail":"Skyline Trail","seq":49,"start_mile":4.9,"end_mile":5.0},"geometry":{"type":"LineString","coordinates":[[-121.730349,46.79279],[-121.730479,46.792912],[-121.731257,46.792402],[-121.731791,46.792292],[-121.732004,46.792195]]}},
{"type":"Feature","properties":{"mountain_slug":"mount-rainier","trail":"Skyline Trail","seq":50,"start_mile":5.0,"end_mile":5.1},"geometry":{"type":"LineString","coordinates":[[-121.732004,46.792195],[-121.732173,46.792119],[-121.732716,46.791474],[-121.732742,46.791164],[-121.732869,46.790925]]}},
{"type":"Feature","properties":{"mountain_slug":"mount-rainier","trail":"Skyline Trail","seq":51,"start_mile":5.1,"end_mile":5.2},"geometry":{"type":"LineString","coordinates":[[-121.732869,46.790925],[-121.732922,46.790824],[-121.732751,46.78977],[-121.732646,46.7895]]}},
{"type":"Feature","properties":{"mountain_slug":"mount-rainier","trail":"Skyline Trail","seq":52,"start_mile":5.2,"end_mile":5.3},"geometry":{"type":"LineString","coordinates":[[-121.732646,46.7895],[-121.732508,46.789146],[-121.732564,46.78846],[-121.73307,46.788423],[-121.733124,46.788396]]}},
{"type":"Feature","properties":{"mountain_slug":"mount-rainier","trail":"Skyline Trail","seq":53,"start_mile":5.3,"end_mile":5.4},"geometry":{"type":"LineString","coordinates":[[-121.733124,46.788396],[-121.733271,46.788322],[-121.733855,46.787703],[-121.734473,46.7873]]}},
{"type":"Feature","properties":{"mountain_slug":"mount-rainier","trail":"Skyline Trail","seq":54,"start_mile":5.4,"end_mile":5.51},"geometry":{"type":"LineString","coordinates":[[-121.734473,46.7873],[-121.734565,46.78724],[-121.736198,46.786558],[-121.736518,46.786502]]}}
]}
