{"type": "FeatureCollection", "attribution": "© OpenStreetMap contributors (ODbL 1.0), via Overture Maps Foundation release 2026-09-23.0", "license": "ODbL-1.0", "source": "https://overturemaps-us-west-2.s3.amazonaws.com/release/2026-09-23.0/theme=transportation/type=segment/", "features": [
{"type":"Feature","properties":{"mountain_slug":"mount-everest","name":"Everest Base Camp Trek","length_km":19.54,"elevation_gain_m":2054,"source":"© OpenStreetMap contributors (ODbL), via Overture Maps","note":"The hero trail, named by the pack. Mile 0 is the lower trailhead. Mile markers in trail_segments.geojson."},"geometry":{"type":"LineString","coordinates":[[86.741,27.829827],[86.741097,27.829975],[86.741357,27.830037],[86.741857,27.829779],[86.742262,27.829736],[86.742482,27.829834],[86.742448,27.829935],[86.74251,27.829923],[86.74257,27.83013],[86.742694,27.83024],[86.743004,27.830429],[86.743028,27.830349],[86.743069,27.830503],[86.743314,27.830616],[86.743364,27.830567],[86.743823,27.830703],[86.74393,27.830634],[86.744075,27.830819],[86.744139,27.830614],[86.744528,27.830887],[86.744517,27.83118],[86.744707,27.831387],[86.744739,27.831329],[86.744779,27.831425],[86.744893,27.831403],[86.744828,27.831626],[86.745045,27.831769],[86.745218,27.832074],[86.745312,27.832173],[86.745281,27.832296],[86.745197,27.83229],[86.745101,27.832211],[86.745811,27.831815],[86.746225,27.831669],[86.746571,27.831884],[86.746696,27.832183],[86.74662,27.832285],[86.746776,27.832449],[86.74724,27.832587],[86.747752,27.832574],[86.748077,27.832432],[86.748351,27.832453],[86.748614,27.832622],[86.748866,27.832678],[86.74913,27.832894],[86.750085,27.833069],[86.749993,27.833362],[86.75025,27.833321],[86.750848,27.833525],[86.750541,27.833778],[86.751417,27.834019],[86.752349,27.834054],[86.75228,27.834178],[86.752698,27.834286],[86.75258,27.834408],[86.752918,27.834404],[86.752801,27.834543],[86.753478,27.83461],[86.753234,27.834876],[86.75465,27.83491],[86.754224,27.835306],[86.754548,27.835303],[86.754402,27.835395],[86.755206,27.835437],[86.755944,27.835388],[86.756187,27.835283],[86.757229,27.835303],[86.757962,27.835208],[86.758412,27.835274],[86.758968,27.83512],[86.759373,27.835208],[86.759895,27.834987],[86.76046,27.835173],[86.760688,27.835174],[86.761066,27.834989],[86.761529,27.835125],[86.762005,27.835011],[86.762268,27.835001],[86.762421,27.835085],[86.762935,27.834961],[86.763304,27.835015],[86.763475,27.835209],[86.76392,27.835259],[86.76433,27.835169],[86.764298,27.835302],[86.764034,27.835591],[86.764415,27.835707],[86.764638,27.836043],[86.764773,27.83612],[86.765508,27.836355],[86.765656,27.836464],[86.765848,27.836886],[86.766069,27.836991],[86.766221,27.837361],[86.766706,27.837421],[86.766858,27.837488],[86.766841,27.837562],[86.767156,27.837524],[86.767403,27.837685],[86.768226,27.837567],[86.768416,27.837653],[86.768887,27.838625],[86.769101,27.838706],[86.769458,27.838671],[86.770338,27.839292],[86.771088,27.83951],[86.771989,27.84058],[86.773199,27.841569],[86.77365,27.841673],[86.774008,27.84215],[86.77432,27.842228],[86.774844,27.842888],[86.775091,27.843032],[86.775553,27.843156],[86.775924,27.843136],[86.776218,27.843205],[86.776544,27.843484],[86.776484,27.843514],[86.776772,27.843762],[86.777332,27.844496],[86.778486,27.846781],[86.778582,27.847143],[86.77856,27.847433],[86.778666,27.84754],[86.778828,27.848051],[86.779114,27.848248],[86.77939,27.848712],[86.779478,27.848984],[86.77941,27.84977],[86.779423,27.849822],[86.77966,27.849837],[86.779686,27.850371],[86.780605,27.850685],[86.780711,27.850811],[86.781137,27.85093],[86.781224,27.851021],[86.781493,27.85107],[86.782176,27.850985],[86.782678,27.851136],[86.782533,27.851215],[86.78256,27.851267],[86.783264,27.851368],[86.784008,27.85203],[86.784316,27.852169],[86.784403,27.85213],[86.785069,27.853064],[86.785381,27.853226],[86.785846,27.853032],[86.786371,27.85334],[86.786718,27.853292],[86.787306,27.853594],[86.787867,27.853768],[86.788346,27.853609],[86.788606,27.853606],[86.78949,27.854192],[86.790187,27.854414],[86.79042,27.854418],[86.790825,27.854879],[86.791176,27.854921],[86.790947,27.854983],[86.791212,27.85524],[86.791741,27.855539],[86.792126,27.856306],[86.792822,27.856052],[86.793171,27.856014],[86.793411,27.856299],[86.793293,27.856586],[86.793465,27.856627],[86.793624,27.857094],[86.794562,27.858394],[86.794763,27.859161],[86.795054,27.859568],[86.795002,27.859867],[86.795473,27.86055],[86.795725,27.860756],[86.796162,27.860883],[86.796552,27.861437],[86.797323,27.862021],[86.797676,27.861991],[86.797856,27.86219],[86.798073,27.862142],[86.798172,27.86229],[86.798658,27.862532],[86.798977,27.862865],[86.799291,27.862946],[86.799588,27.86338],[86.800646,27.86391],[86.800932,27.864368],[86.800921,27.864607],[86.80127,27.864695],[86.80168,27.864962],[86.802246,27.865696],[86.803328,27.866776],[86.8038,27.867064],[86.80425,27.867199],[86.804664,27.867583],[86.804757,27.867636],[86.804891,27.867598],[86.805204,27.867818],[86.805739,27.86774],[86.80592,27.867926],[86.806012,27.867954],[86.806053,27.86788],[86.806607,27.867992],[86.806735,27.868119],[86.807389,27.868067],[86.807922,27.86829],[86.808518,27.86837],[86.809662,27.868823],[86.810535,27.869395],[86.811458,27.870463],[86.811491,27.870658],[86.811811,27.871245],[86.812092,27.871678],[86.81264,27.872264],[86.812803,27.872619],[86.812859,27.873236],[86.8128,27.873544],[86.812849,27.874086],[86.812951,27.874255],[86.812953,27.874704],[86.813229,27.87528],[86.813451,27.87624],[86.813798,27.876674],[86.813832,27.876902],[86.814022,27.877012],[86.814256,27.877597],[86.814226,27.877903],[86.81386,27.878384],[86.813875,27.878557],[86.814068,27.878801],[86.814951,27.879584],[86.815211,27.879993],[86.815382,27.880091],[86.815867,27.880177],[86.8167,27.880528],[86.8172,27.88053],[86.817327,27.880779],[86.817426,27.880798],[86.817628,27.88047],[86.817792,27.88042],[86.820151,27.881579],[86.820545,27.8817],[86.82115,27.881657],[86.821526,27.881851],[86.821756,27.882011],[86.822015,27.882618],[86.822556,27.883541],[86.822937,27.883852],[86.823056,27.884122],[86.82364,27.884548],[86.824051,27.884682],[86.824357,27.884895],[86.825382,27.886361],[86.825644,27.886582],[86.825963,27.887329],[86.825902,27.887603],[86.82571,27.887844],[86.825785,27.888304],[86.826003,27.888838],[86.825931,27.889629],[86.826156,27.889718],[86.826244,27.889925],[86.826418,27.890071],[86.826306,27.890473],[86.826343,27.890637],[86.826217,27.890754],[86.826277,27.891146],[86.826077,27.89181],[86.826234,27.892078],[86.826647,27.892484],[86.826925,27.892938],[86.826837,27.892975],[86.826798,27.89315],[86.826957,27.893748],[86.826656,27.893981],[86.826538,27.894213],[86.826158,27.894595],[86.825836,27.895158],[86.824844,27.896303],[86.824704,27.8966],[86.824331,27.896887],[86.823583,27.897949],[86.823462,27.898229],[86.822493,27.899488],[86.822391,27.899933],[86.822102,27.900114],[86.821729,27.900624],[86.821431,27.900871],[86.820313,27.902543],[86.820248,27.902979],[86.820146,27.903144],[86.819773,27.903259],[86.81968,27.90347],[86.819391,27.903728],[86.819125,27.904155],[86.819062,27.904556],[86.818618,27.904929],[86.818468,27.905346],[86.818462,27.905625],[86.818176,27.905915],[86.817711,27.906679],[86.81731,27.906933],[86.816525,27.908085],[86.81637,27.908623],[86.815708,27.909708],[86.813663,27.91229],[86.811803,27.914054],[86.81101,27.915424],[86.810658,27.915661],[86.81011,27.916257],[86.809227,27.917658],[86.808381,27.918385],[86.80825,27.91877],[86.807764,27.922048],[86.807543,27.922484],[86.807202,27.923818],[86.80706,27.924003],[86.807084,27.924194],[86.806878,27.924551],[86.806725,27.924581],[86.806642,27.924127],[86.806399,27.923544],[86.806306,27.923489],[86.806002,27.923701],[86.805516,27.923803],[86.805126,27.92412],[86.805045,27.924295],[86.805067,27.924654],[86.804933,27.925687],[86.804415,27.927298],[86.804636,27.927604],[86.804597,27.927799],[86.804745,27.927919],[86.804686,27.928019],[86.804847,27.928104],[86.804654,27.928595],[86.804742,27.928729],[86.804671,27.928937],[86.804693,27.92926],[86.80477,27.929325],[86.80472,27.929417],[86.804847,27.929542],[86.80477,27.92974],[86.805,27.930138],[86.805234,27.930283],[86.80515,27.930379],[86.805282,27.930496],[86.805113,27.930855],[86.804738,27.931012],[86.804563,27.930996],[86.804235,27.931907],[86.804022,27.932192],[86.803918,27.933021],[86.804019,27.933387],[86.804575,27.933835],[86.804938,27.934458],[86.805518,27.93502],[86.806522,27.936415],[86.806592,27.936627],[86.806552,27.937318]]}},
{"type":"Feature","properties":{"mountain_slug":"mount-everest","name":"Everest South Col","length_km":13.86,"elevation_gain_m":3503,"source":"© OpenStreetMap contributors (ODbL), via Overture Maps"},"geometry":{"type":"LineString","coordinates":[[86.855732,28.002911],[86.855935,28.002631],[86.856345,28.002669],[86.856548,28.00239],[86.856604,28.002103],[86.856962,28.001719],[86.857589,28.00186],[86.857811,28.00179],[86.858255,28.001916],[86.858366,28.001801],[86.858929,28.001699],[86.85912,28.001481],[86.860168,28.001172],[86.860357,28.001191],[86.860751,28.001087],[86.861064,28.001111],[86.861792,28.001339],[86.862054,28.001378],[86.862313,28.001318],[86.862617,28.00142],[86.863053,28.001431],[86.863591,28.001099],[86.863682,28.000711],[86.864648,27.99951],[86.864417,27.999825],[86.864959,27.999332],[86.864921,27.999039],[86.865107,27.998806],[86.867317,27.998749],[86.867444,27.998472],[86.867612,27.998419],[86.867558,27.998302],[86.867788,27.998152],[86.86773,27.997822],[86.867958,27.997865],[86.868356,27.997689],[86.868499,27.997702],[86.868563,27.997517],[86.869466,27.997142],[86.869586,27.997268],[86.869654,27.997199],[86.869752,27.99726],[86.869811,27.997415],[86.870187,27.997542],[86.870326,27.99751],[86.871476,27.997764],[86.871612,27.997487],[86.871831,27.997359],[86.871904,27.99682],[86.872572,27.996754],[86.872828,27.996568],[86.873896,27.996132],[86.873852,27.995964],[86.874362,27.995485],[86.874775,27.995424],[86.874931,27.995311],[86.874964,27.995101],[86.875201,27.995154],[86.875187,27.994728],[86.875337,27.994641],[86.874909,27.99415],[86.87491,27.993948],[86.875111,27.993893],[86.875601,27.994175],[86.876573,27.994458],[86.876724,27.993077],[86.877019,27.992987],[86.876766,27.992721],[86.877087,27.992595],[86.877018,27.992409],[86.877116,27.992177],[86.877099,27.991886],[86.877452,27.991697],[86.878142,27.991614],[86.878285,27.991329],[86.878543,27.99131],[86.878725,27.991202],[86.878941,27.991045],[86.879002,27.990839],[86.879003,27.990635],[86.878304,27.989832],[86.878445,27.989594],[86.878655,27.989465],[86.878328,27.989042],[86.878362,27.98884],[86.877996,27.988336],[86.877795,27.988275],[86.877616,27.988031],[86.877891,27.987266],[86.877084,27.986777],[86.877523,27.986391],[86.876648,27.985599],[86.876861,27.985233],[86.876302,27.984921],[86.876705,27.984127],[86.877091,27.983842],[86.877528,27.983377],[86.878196,27.983052],[86.87869,27.983263],[86.879902,27.983036],[86.879598,27.982729],[86.879969,27.982709],[86.880602,27.982174],[86.88075,27.982155],[86.881435,27.982595],[86.881881,27.98271],[86.882332,27.98252],[86.882951,27.982685],[86.883872,27.982583],[86.884742,27.982747],[86.885639,27.982611],[86.886099,27.98261],[86.886461,27.982446],[86.887007,27.982495],[86.888626,27.982224],[86.889958,27.982319],[86.890375,27.982156],[86.891554,27.982196],[86.891868,27.982075],[86.892188,27.982111],[86.892493,27.981947],[86.894097,27.981914],[86.894382,27.9818],[86.895702,27.981746],[86.896676,27.981366],[86.897713,27.981103],[86.898288,27.981433],[86.898719,27.981511],[86.899949,27.981054],[86.901083,27.980351],[86.901585,27.980143],[86.901886,27.979872],[86.902062,27.979904],[86.902295,27.979725],[86.902507,27.979742],[86.902812,27.980159],[86.903526,27.980072],[86.904124,27.97987],[86.90443,27.97969],[86.905015,27.979584],[86.905058,27.979465],[86.90491,27.97923],[86.904998,27.978948],[86.906309,27.978488],[86.907204,27.977983],[86.907876,27.97737],[86.908294,27.97684],[86.908628,27.976738],[86.908987,27.976423],[86.908959,27.976064],[86.909806,27.974786],[86.91026,27.974242],[86.910166,27.973453],[86.910727,27.97301],[86.911155,27.972853],[86.911884,27.972712],[86.91297,27.972233],[86.91412,27.971459],[86.914609,27.971233],[86.914776,27.971031],[86.916076,27.970606],[86.916556,27.970072],[86.916866,27.969882],[86.917574,27.968996],[86.918003,27.968857],[86.91903,27.968798],[86.919574,27.968423],[86.920386,27.968265],[86.920598,27.968343],[86.920941,27.968128],[86.922213,27.967574],[86.923104,27.967427],[86.923624,27.9672],[86.925051,27.967868],[86.926328,27.968062],[86.926403,27.96818],[86.927216,27.968531],[86.927993,27.969205],[86.928025,27.969719],[86.927961,27.969943],[86.92761,27.970599],[86.927481,27.970672],[86.927441,27.971019],[86.928134,27.971765],[86.928547,27.972071],[86.929097,27.973059],[86.930069,27.973378],[86.930329,27.973787],[86.930324,27.974436],[86.930538,27.9757],[86.930512,27.975976],[86.930428,27.976088],[86.930332,27.9767],[86.930108,27.976923],[86.930139,27.977302],[86.92999,27.977561],[86.92994,27.977892],[86.929765,27.978381],[86.92966,27.97842],[86.929565,27.97884],[86.928932,27.98039],[86.928926,27.981669],[86.92914,27.982301],[86.929112,27.982513],[86.928935,27.982706],[86.928765,27.982703],[86.927593,27.983137],[86.926054,27.984416],[86.925481,27.985696],[86.925561,27.986451],[86.92529,27.987125],[86.92521,27.988061],[86.925056,27.988295],[86.926449,27.989757],[86.927257,27.990351],[86.927572,27.990408],[86.927732,27.990533],[86.928197,27.991154],[86.92889,27.991692],[86.929828,27.993229]]}},
{"type":"Feature","properties":{"mountain_slug":"mount-everest","name":"Island Peak Trek","length_km":9.49,"elevation_gain_m":1482,"source":"© OpenStreetMap contributors (ODbL), via Overture Maps"},"geometry":{"type":"LineString","coordinates":[[86.871739,27.904509],[86.871998,27.904116],[86.872238,27.904045],[86.872585,27.903723],[86.872744,27.903106],[86.872997,27.902743],[86.873283,27.902541],[86.873481,27.902257],[86.873632,27.9022],[86.873773,27.901907],[86.873982,27.901838],[86.874212,27.901615],[86.875167,27.901162],[86.876825,27.900717],[86.87721,27.900498],[86.877859,27.900313],[86.879282,27.900047],[86.88016,27.899983],[86.880797,27.900042],[86.881673,27.89999],[86.882299,27.900135],[86.883112,27.900228],[86.883269,27.90019],[86.883859,27.900349],[86.88666,27.900841],[86.88825,27.900664],[86.890372,27.901132],[86.890697,27.900914],[86.892129,27.900562],[86.893847,27.900365],[86.895511,27.900361],[86.896756,27.900705],[86.898056,27.900672],[86.898958,27.900397],[86.899889,27.900412],[86.901438,27.899893],[86.901748,27.899902],[86.902124,27.899796],[86.902462,27.899849],[86.902916,27.899558],[86.903457,27.899613],[86.90458,27.90013],[86.905081,27.900646],[86.905481,27.900782],[86.90602,27.901564],[86.906252,27.901477],[86.906417,27.901521],[86.906579,27.901697],[86.906816,27.902299],[86.907062,27.902673],[86.907584,27.90319],[86.908298,27.903653],[86.908645,27.904117],[86.908871,27.904612],[86.909051,27.904723],[86.909312,27.904754],[86.91154,27.904723],[86.913228,27.904489],[86.914108,27.904176],[86.915889,27.904148],[86.918152,27.903835],[86.919568,27.90375],[86.919837,27.903682],[86.92124,27.903004],[86.921994,27.903414],[86.922326,27.90319],[86.923834,27.903041],[86.924239,27.902905],[86.926263,27.902716],[86.92773,27.902675],[86.928093,27.902439],[86.928504,27.902309],[86.929351,27.902359],[86.93067,27.902559],[86.931374,27.902759],[86.931628,27.902925],[86.932214,27.90276],[86.93319,27.902874],[86.933344,27.90283],[86.933797,27.902997],[86.934206,27.902883],[86.93505,27.90301],[86.935361,27.903152],[86.936205,27.903358],[86.936429,27.903507],[86.936776,27.90403],[86.936693,27.904484],[86.936719,27.904564],[86.936862,27.904537],[86.936981,27.904657],[86.936903,27.904716],[86.93705,27.905325],[86.936816,27.905456],[86.936902,27.905759],[86.936707,27.906107],[86.936732,27.906218],[86.93661,27.906312],[86.936671,27.906495],[86.936488,27.906679],[86.936546,27.906849],[86.936453,27.907046],[86.936078,27.907324],[86.935735,27.907719],[86.935766,27.907774],[86.935655,27.907795],[86.935698,27.907855],[86.935398,27.908102],[86.935292,27.90846],[86.934584,27.909315],[86.934601,27.909693],[86.934508,27.909961],[86.934462,27.910613],[86.934353,27.910813],[86.934314,27.911165],[86.934061,27.911479],[86.934057,27.911676],[86.934137,27.911955],[86.934554,27.911898],[86.934677,27.911964],[86.934693,27.912296],[86.935148,27.912505],[86.935184,27.912727],[86.934895,27.913256],[86.934903,27.913506],[86.934534,27.913685],[86.934352,27.913661],[86.934125,27.914195],[86.93351,27.914907],[86.933044,27.915015],[86.932804,27.915321],[86.932817,27.915458],[86.932972,27.915569],[86.932457,27.915792],[86.9319,27.91592],[86.931889,27.915984],[86.932069,27.916118],[86.932163,27.916063],[86.932358,27.9161],[86.932627,27.916404],[86.93281,27.916425],[86.932804,27.916696],[86.933529,27.91736],[86.934226,27.918723],[86.934471,27.919985],[86.934646,27.920014]]}},
{"type":"Feature","properties":{"mountain_slug":"mount-everest","name":"Makalu base camp trek with Arun valley","length_km":1.27,"elevation_gain_m":77,"source":"© OpenStreetMap contributors (ODbL), via Overture Maps"},"geometry":{"type":"LineString","coordinates":[[87.076126,27.835638],[87.076985,27.835493],[87.077092,27.835106],[87.07759,27.834873],[87.078005,27.834465],[87.077909,27.833877],[87.077409,27.833138],[87.077316,27.832525],[87.077056,27.831874],[87.076542,27.831177],[87.076208,27.830539],[87.076024,27.829769],[87.075852,27.829583],[87.075065,27.828012],[87.074866,27.827442],[87.07489,27.827185],[87.074688,27.826685],[87.074645,27.826]]}},
{"type":"Feature","properties":{"mountain_slug":"mount-everest","name":"Mera Peak trek (via Zatrw La)","length_km":3.74,"elevation_gain_m":303,"source":"© OpenStreetMap contributors (ODbL), via Overture Maps"},"geometry":{"type":"LineString","coordinates":[[86.932553,27.826],[86.932564,27.82648],[86.932234,27.828683],[86.931666,27.830863],[86.931886,27.831406],[86.932445,27.832354],[86.932491,27.833667],[86.932188,27.834243],[86.93206,27.835572],[86.932628,27.837525],[86.932775,27.837743],[86.9336,27.839948],[86.933801,27.841147],[86.933765,27.841309],[86.933233,27.842055],[86.933158,27.842872],[86.933629,27.844815],[86.933538,27.845044],[86.933381,27.846584],[86.933619,27.847888],[86.932474,27.849875],[86.932501,27.849942],[86.931747,27.850828],[86.93139,27.851726],[86.931352,27.852102],[86.931075,27.852548],[86.930337,27.853253],[86.929832,27.853557],[86.929595,27.853837],[86.92872,27.854363],[86.928281,27.854953],[86.928165,27.854999],[86.927021,27.856225],[86.926639,27.856768]]}},
{"type":"Feature","properties":{"mountain_slug":"mount-everest","name":"Sherpani Amphu Laptsa","length_km":29.09,"elevation_gain_m":2383,"source":"© OpenStreetMap contributors (ODbL), via Overture Maps","note":"Longest of 2 OpenStreetMap pieces with this name that do not join into one line (29.1 of 29.2 km in the bbox)."},"geometry":{"type":"LineString","coordinates":[[87.076126,27.835638],[87.076041,27.835698],[87.075998,27.836086],[87.076191,27.837124],[87.077017,27.838047],[87.076966,27.83827],[87.077028,27.838647],[87.076969,27.838751],[87.077685,27.840243],[87.077916,27.841244],[87.077854,27.84169],[87.07795,27.842325],[87.077926,27.843279],[87.077725,27.844042],[87.077816,27.844526],[87.077578,27.844882],[87.077293,27.84584],[87.076918,27.846326],[87.07662,27.846426],[87.076001,27.846889],[87.075767,27.846983],[87.07581,27.847138],[87.075604,27.847292],[87.075121,27.847467],[87.074665,27.847424],[87.072798,27.848371],[87.071519,27.849647],[87.070003,27.850816],[87.069424,27.851129],[87.068185,27.852077],[87.067911,27.852381],[87.067699,27.852428],[87.067391,27.852831],[87.066766,27.85336],[87.066068,27.853524],[87.065478,27.853972],[87.064743,27.854069],[87.064389,27.854335],[87.06396,27.854484],[87.063796,27.854624],[87.063606,27.854641],[87.062801,27.854966],[87.062514,27.855122],[87.062536,27.855203],[87.061892,27.855518],[87.06112,27.855739],[87.0609,27.855765],[87.060661,27.855599],[87.059899,27.855774],[87.059553,27.855466],[87.059261,27.855488],[87.058888,27.855665],[87.058692,27.856085],[87.058529,27.85608],[87.058478,27.856168],[87.058215,27.85609],[87.058145,27.856135],[87.057864,27.855959],[87.056901,27.855874],[87.056337,27.856415],[87.055951,27.856564],[87.055431,27.856491],[87.054422,27.856612],[87.053768,27.856929],[87.053129,27.857508],[87.052145,27.857854],[87.051582,27.858205],[87.051332,27.858101],[87.050761,27.858046],[87.05031,27.858483],[87.049986,27.858587],[87.049565,27.859168],[87.049023,27.859519],[87.048653,27.859616],[87.048307,27.85996],[87.047843,27.860097],[87.047725,27.860252],[87.047419,27.860415],[87.046928,27.860456],[87.046604,27.86087],[87.046534,27.860849],[87.046435,27.861082],[87.046064,27.861364],[87.04582,27.861435],[87.045783,27.861366],[87.045611,27.861385],[87.045402,27.861506],[87.045407,27.861575],[87.045238,27.861575],[87.045131,27.861456],[87.045018,27.861525],[87.044699,27.861397],[87.044613,27.861425],[87.044603,27.861364],[87.044485,27.861395],[87.044364,27.861278],[87.043884,27.861238],[87.043608,27.861425],[87.043068,27.86161],[87.042741,27.86184],[87.04235,27.861876],[87.042186,27.861826],[87.041891,27.861933],[87.041499,27.861919],[87.041247,27.861987],[87.037562,27.863607],[87.037098,27.863659],[87.036784,27.863477],[87.036557,27.863506],[87.036057,27.863626],[87.036049,27.863819],[87.035853,27.863837],[87.035084,27.863353],[87.033852,27.862848],[87.033724,27.862869],[87.033563,27.862689],[87.033171,27.862462],[87.032895,27.862134],[87.03239,27.862096],[87.032337,27.86218],[87.032039,27.862168],[87.031779,27.862051],[87.031632,27.861852],[87.031336,27.861727],[87.031189,27.861577],[87.031055,27.861513],[87.031004,27.861596],[87.030891,27.861492],[87.030795,27.861499],[87.030508,27.861283],[87.030084,27.860652],[87.02959,27.860491],[87.029539,27.860332],[87.02929,27.860102],[87.028804,27.86015],[87.028815,27.860249],[87.027981,27.859977],[87.027015,27.859981],[87.026208,27.859829],[87.025648,27.860022],[87.0244,27.860214],[87.023963,27.860368],[87.023537,27.860366],[87.023437,27.86006],[87.023601,27.859958],[87.02351,27.859818],[87.023352,27.859784],[87.023389,27.859685],[87.023325,27.859616],[87.02318,27.859595],[87.023196,27.859415],[87.022963,27.859232],[87.022987,27.859154],[87.02282,27.858973],[87.022391,27.859059],[87.022209,27.858845],[87.022056,27.858796],[87.021482,27.858917],[87.020246,27.858834],[87.019996,27.858665],[87.019138,27.858433],[87.01876,27.858599],[87.018419,27.858642],[87.018395,27.858974],[87.018285,27.859125],[87.016844,27.86006],[87.016552,27.860003],[87.016126,27.859668],[87.015302,27.858822],[87.015184,27.858184],[87.014937,27.857733],[87.014385,27.857366],[87.013816,27.856823],[87.012789,27.856284],[87.012161,27.856045],[87.011874,27.85604],[87.009919,27.855533],[87.009535,27.855474],[87.009033,27.855517],[87.008837,27.855399],[87.008644,27.855382],[87.008599,27.855304],[87.008433,27.855323],[87.008268,27.855242],[87.008138,27.855271],[87.008184,27.855554],[87.007948,27.855483],[87.00776,27.855307],[87.007274,27.855354],[87.00673,27.855479],[87.005362,27.856283],[87.005079,27.856303],[87.00498,27.856165],[87.004809,27.856109],[87.00466,27.856173],[87.004635,27.856281],[87.004517,27.856202],[87.004321,27.85629],[87.004418,27.855974],[87.004337,27.855858],[87.004309,27.855913],[87.004223,27.855866],[87.00414,27.855638],[87.003735,27.855419],[87.002755,27.855045],[87.002238,27.854707],[87.000421,27.854049],[86.999816,27.853908],[86.999406,27.853928],[86.99869,27.853364],[86.998196,27.853124],[86.997975,27.852907],[86.996976,27.852727],[86.995996,27.852165],[86.993712,27.850526],[86.993752,27.850466],[86.993603,27.850217],[86.992839,27.849786],[86.991752,27.848881],[86.991221,27.848572],[86.991264,27.847453],[86.991114,27.847306],[86.991109,27.847178],[86.989188,27.846523],[86.98921,27.845764],[86.988394,27.844778],[86.986688,27.843355],[86.985959,27.842548],[86.984478,27.841979],[86.983405,27.841865],[86.98288,27.8416],[86.981442,27.840575],[86.978427,27.840452],[86.977687,27.840243],[86.977086,27.840252],[86.977022,27.840433],[86.975777,27.840319],[86.974275,27.840371],[86.973846,27.840461],[86.972382,27.840305],[86.972151,27.840153],[86.971909,27.840134],[86.971582,27.839958],[86.970649,27.839821],[86.970198,27.839655],[86.968943,27.839631],[86.968519,27.839494],[86.967677,27.839432],[86.966389,27.839427],[86.96595,27.839356],[86.964673,27.839403],[86.962924,27.839982],[86.961261,27.840139],[86.960623,27.84012],[86.959678,27.840343],[86.958278,27.840765],[86.956723,27.841457],[86.95624,27.841552],[86.955465,27.841896],[86.955229,27.842131],[86.954097,27.842416],[86.953665,27.842482],[86.953429,27.842415],[86.952817,27.842463],[86.951562,27.842292],[86.951036,27.842396],[86.951578,27.842861],[86.951364,27.843246],[86.951412,27.84349],[86.951323,27.843561],[86.951157,27.84468],[86.950991,27.844794],[86.950572,27.844763],[86.950607,27.844922],[86.950905,27.845129],[86.950787,27.84511],[86.950932,27.845427],[86.951136,27.845612],[86.951061,27.845667],[86.951101,27.845816],[86.951026,27.845786],[86.950924,27.845944],[86.950672,27.846049],[86.950527,27.846355],[86.950358,27.846436],[86.950259,27.847045],[86.949974,27.847175],[86.949808,27.847434],[86.949599,27.847524],[86.949285,27.847498],[86.949028,27.847728],[86.948716,27.847749],[86.948555,27.847941],[86.948545,27.848183],[86.948306,27.848418],[86.94833,27.848511],[86.94793,27.84857],[86.94767,27.848731],[86.947201,27.848881],[86.947086,27.849054],[86.947188,27.849165],[86.947134,27.849138],[86.947154,27.849213],[86.946919,27.849345],[86.946418,27.849224],[86.946592,27.849407],[86.946756,27.849815],[86.946927,27.849955],[86.946949,27.850135],[86.946866,27.850121],[86.946689,27.850282],[86.946772,27.850415],[86.946664,27.850389],[86.946418,27.850505],[86.946313,27.850612],[86.946372,27.850704],[86.945967,27.850709],[86.945988,27.85084],[86.9459,27.850925],[86.945763,27.850875],[86.945557,27.851029],[86.945361,27.851342],[86.945179,27.851428],[86.945039,27.851634],[86.945023,27.851954],[86.944916,27.852179],[86.944653,27.852395],[86.944315,27.852945],[86.943848,27.853493],[86.943666,27.85411],[86.943757,27.854404],[86.943679,27.854669],[86.94344,27.854743],[86.9434,27.854866],[86.943261,27.854705],[86.942842,27.854537],[86.942427,27.854918],[86.942169,27.855054],[86.942051,27.855037],[86.941885,27.855281],[86.941954,27.855815],[86.940844,27.856099],[86.940211,27.856038],[86.939991,27.855682],[86.939857,27.855208],[86.939616,27.854947],[86.939522,27.854378],[86.939221,27.854069],[86.938977,27.853951],[86.938712,27.853922],[86.938291,27.854072],[86.937722,27.85415],[86.937438,27.853925],[86.937242,27.853887],[86.937322,27.853804],[86.937167,27.853683],[86.936644,27.853626],[86.935815,27.853704],[86.93582,27.853654],[86.934924,27.853953],[86.934484,27.853866],[86.934157,27.853932],[86.933844,27.853858],[86.93342,27.85396],[86.932972,27.853849],[86.932462,27.853998],[86.932352,27.854134],[86.931354,27.854698],[86.9307,27.854942],[86.930153,27.854987],[86.929928,27.855134],[86.929418,27.855291],[86.9289,27.855689],[86.928742,27.855654],[86.928163,27.856038],[86.927186,27.856797],[86.926639,27.856768],[86.926392,27.857024],[86.92606,27.857176],[86.925232,27.856918],[86.923511,27.858377],[86.923214,27.858756],[86.923076,27.859073],[86.922715,27.859493],[86.922645,27.859772],[86.922386,27.860156],[86.921761,27.860524],[86.921492,27.8606],[86.919861,27.862155],[86.91816,27.863128],[86.917943,27.863462],[86.918326,27.864048],[86.918945,27.864744],[86.919017,27.865854],[86.918811,27.866635],[86.918856,27.866937],[86.918772,27.867068],[86.918076,27.867388],[86.917766,27.867638],[86.918159,27.867735],[86.918043,27.86798],[86.918353,27.867998],[86.918562,27.868109],[86.918727,27.867809],[86.91952,27.86765],[86.920414,27.86714],[86.920515,27.867376],[86.920504,27.867845],[86.920014,27.868672],[86.91973,27.869333],[86.918633,27.870402],[86.918616,27.871051],[86.919666,27.872582],[86.921175,27.874549],[86.921297,27.875366],[86.921426,27.875725],[86.922145,27.876373],[86.922422,27.876345],[86.922385,27.876417],[86.922557,27.876401],[86.922613,27.876483],[86.922753,27.876503],[86.922853,27.876659],[86.923992,27.877227],[86.924863,27.877923],[86.925114,27.87801],[86.925551,27.878029],[86.925999,27.878223],[86.926512,27.878176],[86.927031,27.878334],[86.927368,27.878555],[86.927428,27.878705],[86.928371,27.87949],[86.929328,27.879862],[86.929941,27.880275],[86.93087,27.88135],[86.931146,27.882022],[86.931456,27.882515],[86.931545,27.882871],[86.931338,27.88394],[86.93144,27.884642],[86.93136,27.885928],[86.931653,27.88677],[86.931397,27.887725],[86.931334,27.888685],[86.931057,27.889203],[86.930926,27.89026],[86.930532,27.89089],[86.930076,27.891215],[86.929686,27.891354],[86.929282,27.891766],[86.928255,27.892054],[86.928046,27.892264],[86.928058,27.892344],[86.9277,27.892521],[86.927563,27.892766],[86.927381,27.892695],[86.926071,27.892936],[86.925719,27.892869],[86.923436,27.893334],[86.922382,27.8938],[86.921176,27.89409],[86.920768,27.894338],[86.919791,27.894441],[86.918896,27.894922],[86.918535,27.894989],[86.918056,27.8952],[86.917755,27.895178],[86.917571,27.895404],[86.917335,27.895505],[86.917212,27.895828],[86.916913,27.895928],[86.915264,27.896168],[86.914832,27.896158],[86.913628,27.896377],[86.912689,27.896719],[86.91104,27.897136],[86.910976,27.897227],[86.910465,27.897131],[86.910118,27.897253],[86.909784,27.897277],[86.909531,27.897114],[86.909246,27.897109],[86.908671,27.897482],[86.908086,27.897668],[86.906634,27.897859],[86.90605,27.89809],[86.905745,27.898112],[86.905564,27.898423],[86.905082,27.898772],[86.905014,27.89888],[86.90502,27.899492],[86.904479,27.900076]]}},
{"type":"Feature","properties":{"mountain_slug":"mount-everest","name":"Three Passes Trek","length_km":26.95,"elevation_gain_m":2232,"source":"© OpenStreetMap contributors (ODbL), via Overture Maps"},"geometry":{"type":"LineString","coordinates":[[86.825963,27.887329],[86.826065,27.88756],[86.826059,27.887901],[86.82639,27.888602],[86.827263,27.889495],[86.82777,27.890175],[86.827948,27.890251],[86.828553,27.890854],[86.828659,27.891059],[86.829142,27.891383],[86.82978,27.892359],[86.830236,27.892667],[86.830507,27.892749],[86.83105,27.893471],[86.831454,27.893811],[86.831488,27.893955],[86.831616,27.893992],[86.831642,27.894102],[86.832501,27.894607],[86.833346,27.895346],[86.83364,27.895495],[86.835426,27.896068],[86.836217,27.896406],[86.836804,27.896364],[86.837599,27.896717],[86.838213,27.896707],[86.838608,27.896779],[86.839192,27.89671],[86.839664,27.897011],[86.841037,27.897069],[86.841926,27.897227],[86.842692,27.897082],[86.843757,27.897076],[86.844488,27.896871],[86.845349,27.896907],[86.846148,27.897048],[86.846871,27.897304],[86.847314,27.897337],[86.848211,27.897606],[86.848658,27.897667],[86.849787,27.89803],[86.849905,27.898161],[86.85099,27.898365],[86.851266,27.898273],[86.851424,27.898471],[86.852287,27.898899],[86.852363,27.899062],[86.853828,27.899943],[86.854185,27.900086],[86.855772,27.900253],[86.855976,27.900356],[86.856471,27.900402],[86.856859,27.90027],[86.85744,27.900322],[86.857618,27.900497],[86.858798,27.900872],[86.859001,27.900871],[86.85943,27.900599],[86.859902,27.900608],[86.860205,27.900459],[86.86063,27.900487],[86.861158,27.900722],[86.861337,27.900897],[86.861671,27.900874],[86.861809,27.901007],[86.862225,27.901093],[86.862411,27.90106],[86.863158,27.901277],[86.863393,27.901445],[86.864128,27.901746],[86.864416,27.901778],[86.864758,27.901688],[86.864948,27.90173],[86.865207,27.90194],[86.865549,27.901891],[86.866408,27.902247],[86.867231,27.902853],[86.867672,27.902902],[86.868215,27.903267],[86.868682,27.903343],[86.86981,27.90402],[86.870052,27.903959],[86.87037,27.904031],[86.870462,27.904153],[86.870342,27.904235],[86.870587,27.904547],[86.87059,27.904826],[86.870294,27.9052],[86.869756,27.905504],[86.869452,27.905444],[86.868993,27.905551],[86.86802,27.905316],[86.867577,27.905352],[86.867475,27.905298],[86.867104,27.905399],[86.86689,27.905295],[86.866654,27.905399],[86.866443,27.905343],[86.866172,27.905389],[86.865968,27.9052],[86.865566,27.90518],[86.865327,27.904886],[86.864853,27.904857],[86.864728,27.905134],[86.864562,27.905285],[86.863756,27.905728],[86.863517,27.906218],[86.86328,27.906248],[86.863071,27.906379],[86.86259,27.906221],[86.861982,27.906505],[86.861822,27.906654],[86.861662,27.906671],[86.86124,27.907048],[86.860946,27.907114],[86.860857,27.907323],[86.860772,27.907305],[86.860561,27.907871],[86.860554,27.908282],[86.860365,27.908673],[86.86012,27.908888],[86.859973,27.908862],[86.859936,27.909214],[86.859831,27.909286],[86.858994,27.909542],[86.858522,27.909827],[86.857804,27.90982],[86.857516,27.909975],[86.857098,27.910064],[86.854767,27.909628],[86.854247,27.909709],[86.853104,27.91019],[86.852476,27.910631],[86.852087,27.911114],[86.851758,27.912165],[86.851601,27.91236],[86.851422,27.913404],[86.851215,27.913971],[86.851015,27.914364],[86.850813,27.914485],[86.850829,27.914635],[86.850575,27.91499],[86.850247,27.915202],[86.850105,27.916053],[86.849678,27.916191],[86.849584,27.916417],[86.849057,27.91677],[86.848575,27.917382],[86.848536,27.917486],[86.848795,27.917992],[86.848766,27.918506],[86.848246,27.920097],[86.847851,27.920472],[86.847752,27.920705],[86.847733,27.921136],[86.846863,27.922352],[86.846017,27.922804],[86.845494,27.922983],[86.84507,27.922937],[86.844408,27.923226],[86.844381,27.923123],[86.844257,27.923056],[86.844228,27.922896],[86.843986,27.922797],[86.843884,27.922641],[86.843798,27.922654],[86.843708,27.922879],[86.843109,27.923283],[86.84289,27.923893],[86.843154,27.925002],[86.843306,27.925203],[86.843201,27.925329],[86.843079,27.92578],[86.843177,27.92623],[86.842973,27.92641],[86.842509,27.926622],[86.842343,27.926796],[86.842421,27.927394],[86.84135,27.928128],[86.840938,27.928546],[86.840959,27.928799],[86.840654,27.928854],[86.839973,27.928738],[86.839799,27.928855],[86.839522,27.928829],[86.839387,27.929007],[86.839238,27.929665],[86.838905,27.929881],[86.838271,27.930049],[86.838044,27.930075],[86.837432,27.929908],[86.837239,27.930195],[86.837044,27.930024],[86.836219,27.929705],[86.836232,27.92988],[86.835989,27.930672],[86.835772,27.931136],[86.835449,27.931436],[86.834996,27.93215],[86.834638,27.933241],[86.834301,27.933277],[86.834162,27.933147],[86.834028,27.933209],[86.834055,27.933282],[86.83374,27.933315],[86.833618,27.933432],[86.833259,27.933377],[86.833173,27.93344],[86.83291,27.933434],[86.832777,27.933628],[86.832188,27.933953],[86.83185,27.934232],[86.831769,27.934332],[86.831824,27.934656],[86.831628,27.935032],[86.831462,27.935201],[86.831217,27.935294],[86.830827,27.935771],[86.830503,27.935903],[86.830329,27.935868],[86.830292,27.936022],[86.830134,27.935924],[86.829551,27.935955],[86.82931,27.936205],[86.828788,27.936438],[86.828509,27.936361],[86.828239,27.936481],[86.828216,27.936646],[86.827898,27.936698],[86.827405,27.936998],[86.826628,27.937167],[86.826177,27.93751],[86.825897,27.937861],[86.825735,27.937851],[86.825378,27.938225],[86.825105,27.9383],[86.824424,27.938689],[86.824223,27.939005],[86.823619,27.939071],[86.823463,27.939],[86.82319,27.939218],[86.822308,27.939347],[86.821902,27.939764],[86.821625,27.94018],[86.821406,27.940244],[86.82102,27.940685],[86.819892,27.940975],[86.819684,27.94092],[86.819188,27.941099],[86.818909,27.94155],[86.818874,27.941476],[86.818564,27.941354],[86.818419,27.941007],[86.817585,27.939706],[86.817148,27.939462],[86.816277,27.939583],[86.815757,27.940119],[86.815413,27.940801],[86.814519,27.941062],[86.814361,27.941213],[86.814343,27.941521],[86.814048,27.941836],[86.81372,27.942664],[86.813703,27.943031],[86.813434,27.943649],[86.813281,27.943754],[86.812831,27.943808],[86.812586,27.944232],[86.812417,27.944147],[86.812316,27.944249],[86.812047,27.944821],[86.811985,27.945438],[86.811862,27.945615],[86.811911,27.946086],[86.811697,27.946644],[86.811406,27.946883],[86.811133,27.946908],[86.810935,27.947609],[86.810778,27.947831],[86.810636,27.947877],[86.810537,27.947782],[86.810551,27.947363],[86.810315,27.946444],[86.810339,27.94577],[86.810166,27.945596],[86.809916,27.944758],[86.809391,27.943821],[86.80929,27.943463],[86.808974,27.943068],[86.808783,27.942414],[86.80836,27.941861],[86.80771,27.94056],[86.807531,27.939944],[86.807561,27.939781],[86.807233,27.93898],[86.807012,27.937822],[86.806361,27.937166],[86.806224,27.936785],[86.805913,27.936491],[86.80571,27.936535],[86.80532,27.936434],[86.804674,27.936557],[86.804392,27.936498],[86.803976,27.93616],[86.803928,27.935322],[86.803812,27.935075],[86.802381,27.933938],[86.80218,27.93368],[86.802061,27.933358],[86.8019,27.933204],[86.801388,27.933014],[86.800481,27.931446],[86.800184,27.92998],[86.799722,27.928382],[86.799741,27.927866],[86.799591,27.927493],[86.799713,27.926801],[86.799537,27.926389],[86.799541,27.926155],[86.799366,27.925992],[86.798664,27.925778],[86.798218,27.925723],[86.797662,27.925832],[86.794567,27.927422],[86.793494,27.927742],[86.793191,27.927715],[86.792869,27.927784],[86.792085,27.92807],[86.792109,27.928563],[86.791936,27.929256],[86.791312,27.930183],[86.790453,27.930389],[86.78996,27.930224],[86.789182,27.93021],[86.787765,27.930654],[86.787363,27.931186],[86.786274,27.932133],[86.785377,27.932541],[86.784486,27.933169],[86.783967,27.93387],[86.783846,27.934237],[86.78389,27.934912],[86.783691,27.936093],[86.783519,27.93628],[86.782862,27.936638],[86.782063,27.93768],[86.781402,27.938165],[86.780494,27.938368],[86.77949,27.938977],[86.778582,27.939043],[86.778023,27.939362],[86.777824,27.939246],[86.777798,27.939059],[86.777721,27.939025],[86.777321,27.939156],[86.776724,27.939572],[86.776311,27.9396],[86.775696,27.939861],[86.775156,27.939953],[86.774461,27.939799],[86.774375,27.939752],[86.774375,27.939619],[86.774245,27.939647],[86.773967,27.93951],[86.773702,27.939541],[86.773391,27.939702],[86.773123,27.939722],[86.772893,27.939917],[86.772614,27.939802],[86.771838,27.9398],[86.771382,27.939708],[86.77089,27.939871],[86.770851,27.94003],[86.77062,27.940181],[86.770624,27.940526],[86.770465,27.940937],[86.770583,27.94133],[86.770084,27.942752],[86.769619,27.943759],[86.769285,27.944227],[86.769263,27.944521],[86.769311,27.944701],[86.76941,27.944771],[86.769395,27.945221],[86.769349,27.945465],[86.769079,27.945968],[86.768792,27.946343],[86.768517,27.946501],[86.768168,27.946961],[86.767914,27.94712],[86.767485,27.94815],[86.766956,27.948848],[86.766369,27.949363],[86.765826,27.95022],[86.765154,27.951078],[86.764301,27.951822],[86.763918,27.95202],[86.763475,27.952397],[86.763271,27.952452],[86.762759,27.952788],[86.762586,27.952982],[86.762547,27.953164],[86.761651,27.953857],[86.761546,27.954176],[86.761696,27.95444],[86.76183,27.954999],[86.762037,27.955093],[86.76248,27.955143],[86.762671,27.955308],[86.763005,27.955879],[86.76322,27.956052],[86.763509,27.956052],[86.76372,27.956235],[86.763854,27.95672],[86.763768,27.957022],[86.762838,27.957926],[86.762448,27.958198],[86.762356,27.958436],[86.761746,27.958948],[86.761486,27.959077],[86.761493,27.959287],[86.761177,27.959533],[86.76104,27.959767],[86.760361,27.960244],[86.759759,27.96093],[86.759638,27.961468],[86.759348,27.961849],[86.758578,27.961923],[86.757869,27.961656],[86.756849,27.96158],[86.755887,27.961587],[86.753283,27.96186],[86.752145,27.961567],[86.751928,27.961604],[86.751826,27.961719],[86.751637,27.961725],[86.751386,27.961547],[86.751239,27.96153],[86.751137,27.961329],[86.75092,27.961325],[86.75051,27.960885],[86.750238,27.960725],[86.750008,27.960833],[86.749926,27.960976],[86.749487,27.961012],[86.749349,27.961127],[86.749333,27.96135],[86.748873,27.961621],[86.748564,27.961105],[86.748442,27.96062],[86.748012,27.96031],[86.747964,27.959997],[86.747674,27.959483],[86.747062,27.958917],[86.747006,27.958716],[86.747285,27.958],[86.747189,27.95794],[86.746828,27.957224],[86.746224,27.957087],[86.745558,27.956633],[86.745558,27.956437],[86.745338,27.956444],[86.744984,27.95619],[86.744511,27.956111],[86.744335,27.956007],[86.74377,27.956189],[86.742811,27.95588],[86.742556,27.955655],[86.742254,27.955642],[86.741843,27.955458],[86.741,27.95477]]}},
{"type":"Feature","properties":{"mountain_slug":"mount-everest","name":"珠穆朗玛峰北坡登顶路线","length_km":23.5,"elevation_gain_m":3576,"source":"© OpenStreetMap contributors (ODbL), via Overture Maps","note":"Joined across 118 m of 珠穆朗玛峰北坡登顶路线. Longest of 2 OpenStreetMap pieces with this name that do not join into one line (23.5 of 23.8 km in the bbox)."},"geometry":{"type":"LineString","coordinates":[[86.851087,28.14088],[86.85105,28.140348],[86.851298,28.139424],[86.851539,28.139147],[86.851665,28.138855],[86.85171,28.13839],[86.852475,28.137832],[86.85286,28.137718],[86.852935,28.137372],[86.853313,28.13714],[86.853545,28.136883],[86.855134,28.136304],[86.855653,28.136006],[86.856707,28.134647],[86.857818,28.132876],[86.858393,28.132152],[86.858726,28.131377],[86.859638,28.130289],[86.860094,28.129276],[86.860136,28.128415],[86.860399,28.128131],[86.860662,28.127672],[86.860694,28.127441],[86.860914,28.127204],[86.861005,28.126693],[86.861392,28.126111],[86.861451,28.125567],[86.86233,28.123874],[86.862642,28.12349],[86.862802,28.123096],[86.86276,28.122823],[86.862821,28.122699],[86.863774,28.121825],[86.863892,28.121215],[86.864229,28.120704],[86.864358,28.120344],[86.865426,28.118797],[86.866354,28.116956],[86.866761,28.116341],[86.866928,28.115636],[86.867217,28.11505],[86.86741,28.114297],[86.867679,28.113886],[86.867727,28.11354],[86.868301,28.112305],[86.868542,28.112022],[86.868854,28.110914],[86.869218,28.110507],[86.869535,28.10984],[86.869846,28.109542],[86.869984,28.109257],[86.87012,28.108231],[86.870388,28.107403],[86.870635,28.107063],[86.870704,28.106578],[86.871624,28.105068],[86.872292,28.104645],[86.873478,28.103486],[86.87484,28.102823],[86.87558,28.102231],[86.876739,28.102132],[86.877689,28.101555],[86.878107,28.101451],[86.879046,28.101015],[86.87954,28.100613],[86.879755,28.100527],[86.880822,28.100468],[86.881468,28.100545],[86.881956,28.100455],[86.882305,28.10049],[86.882748,28.100353],[86.883788,28.100359],[86.884261,28.100231],[86.884841,28.100203],[86.885232,28.100041],[86.886089,28.100177],[86.88639,28.100306],[86.887295,28.100329],[86.888315,28.100035],[86.888683,28.099821],[86.889446,28.099195],[86.889764,28.099125],[86.889998,28.0988],[86.890533,28.098377],[86.891157,28.098181],[86.891767,28.097867],[86.891984,28.097852],[86.892276,28.097566],[86.89245,28.097609],[86.892921,28.097287],[86.893133,28.097331],[86.893654,28.097199],[86.894235,28.096784],[86.89466,28.096638],[86.894979,28.096197],[86.895561,28.095681],[86.896466,28.095498],[86.89736,28.095132],[86.898212,28.095012],[86.898973,28.09501],[86.89957,28.094633],[86.900426,28.094652],[86.900442,28.094479],[86.900904,28.094279],[86.900999,28.093931],[86.901676,28.093639],[86.90168,28.093553],[86.901824,28.093451],[86.902437,28.093394],[86.902941,28.093095],[86.903233,28.093028],[86.903361,28.092897],[86.904533,28.092634],[86.904768,28.092552],[86.905279,28.092188],[86.905677,28.092107],[86.905821,28.091982],[86.906254,28.091251],[86.907623,28.090482],[86.908337,28.090575],[86.908491,28.090463],[86.909341,28.090398],[86.909839,28.089888],[86.910213,28.089762],[86.91037,28.089428],[86.910965,28.089046],[86.911042,28.088865],[86.911435,28.088548],[86.911477,28.088287],[86.911564,28.088206],[86.912014,28.088126],[86.912322,28.087939],[86.912399,28.087687],[86.912184,28.087467],[86.912239,28.087103],[86.91252,28.086983],[86.912908,28.08653],[86.913251,28.086278],[86.913463,28.086281],[86.913655,28.086185],[86.914182,28.085754],[86.914272,28.085585],[86.914213,28.085483],[86.914563,28.085277],[86.914696,28.084708],[86.91459,28.084668],[86.914598,28.084529],[86.914768,28.084433],[86.915182,28.084583],[86.915271,28.084498],[86.915674,28.084512],[86.915655,28.084613],[86.915805,28.084736],[86.916017,28.084711],[86.916157,28.08483],[86.916449,28.084866],[86.916711,28.085003],[86.917429,28.084883],[86.917798,28.084745],[86.918289,28.084373],[86.918394,28.083832],[86.918974,28.083343],[86.919241,28.082874],[86.919695,28.082398],[86.919996,28.082047],[86.919241,28.082874],[86.919379,28.082122],[86.919709,28.082137],[86.919996,28.082047],[86.920378,28.081561],[86.921117,28.08089],[86.921368,28.080088],[86.921818,28.079376],[86.921964,28.078744],[86.92204,28.077797],[86.922237,28.077585],[86.922271,28.077236],[86.92265,28.076683],[86.923116,28.076335],[86.923775,28.075062],[86.923944,28.074237],[86.924105,28.074123],[86.924494,28.073445],[86.924489,28.073157],[86.925514,28.070889],[86.925597,28.070443],[86.925761,28.070121],[86.925748,28.069832],[86.925862,28.069664],[86.925908,28.068935],[86.926063,28.068602],[86.925994,28.068416],[86.926041,28.068149],[86.926215,28.067816],[86.926201,28.06689],[86.926407,28.065646],[86.926603,28.065263],[86.926556,28.065017],[86.926651,28.064792],[86.926705,28.064138],[86.926928,28.063792],[86.926999,28.063012],[86.927261,28.062675],[86.927272,28.0623],[86.927401,28.061874],[86.927532,28.061719],[86.927508,28.061537],[86.927713,28.06125],[86.927674,28.060877],[86.927786,28.060593],[86.927748,28.060239],[86.927983,28.059951],[86.927894,28.05967],[86.928007,28.05935],[86.928241,28.05917],[86.928697,28.058495],[86.928953,28.058395],[86.929227,28.057779],[86.929276,28.057404],[86.929527,28.057136],[86.929834,28.057052],[86.930441,28.056683],[86.930647,28.056652],[86.931036,28.056208],[86.931464,28.055965],[86.931671,28.05555],[86.932027,28.055314],[86.93298,28.055011],[86.933318,28.054666],[86.933789,28.054453],[86.934213,28.053995],[86.934603,28.053969],[86.934874,28.05369],[86.934909,28.053231],[86.93499,28.053182],[86.934942,28.053018],[86.935579,28.052906],[86.936107,28.05235],[86.936522,28.052216],[86.936962,28.051875],[86.936945,28.051737],[86.937899,28.051064],[86.938266,28.050477],[86.93861,28.050138],[86.939631,28.049404],[86.939841,28.049165],[86.939968,28.04883],[86.941207,28.047545],[86.941507,28.047327],[86.942045,28.046442],[86.942457,28.046165],[86.942665,28.045766],[86.942583,28.045389],[86.942697,28.045364],[86.942744,28.045197],[86.942905,28.045089],[86.942976,28.044828],[86.943197,28.044633],[86.943865,28.043077],[86.943758,28.042696],[86.943903,28.042287],[86.944321,28.041711],[86.94453,28.040826],[86.944562,28.040354],[86.944672,28.040103],[86.944665,28.039717],[86.944859,28.039498],[86.944695,28.039388],[86.944527,28.038945],[86.944588,28.038494],[86.944544,28.038025],[86.944265,28.036801],[86.944151,28.035681],[86.943981,28.035508],[86.943893,28.035206],[86.943585,28.034875],[86.942823,28.033395],[86.942607,28.03323],[86.942006,28.032231],[86.941745,28.031484],[86.941305,28.03102],[86.940984,28.030452],[86.940029,28.029448],[86.939372,28.02927],[86.939213,28.029257],[86.939064,28.029339],[86.938626,28.02911],[86.938097,28.028998],[86.937773,28.029021],[86.937678,28.028969],[86.937623,28.028684],[86.937469,28.028484],[86.937188,28.028384],[86.936772,28.027915],[86.93641,28.027743],[86.936362,28.027561],[86.935789,28.027321],[86.934848,28.027187],[86.934605,28.027211],[86.933574,28.026749],[86.933483,28.026652],[86.933527,28.026436],[86.932978,28.025944],[86.932364,28.025559],[86.932333,28.025365],[86.931976,28.025078],[86.931596,28.024506],[86.931585,28.024229],[86.931145,28.023475],[86.930147,28.022636],[86.928116,28.021625],[86.927062,28.02076],[86.926528,28.02043],[86.926182,28.019437],[86.926053,28.019261],[86.925927,28.019223],[86.925134,28.019456],[86.924741,28.019345],[86.924568,28.019019],[86.924368,28.018909],[86.923752,28.018701],[86.923685,28.018262],[86.923487,28.018024],[86.923488,28.017942],[86.923741,28.017823],[86.923364,28.017613],[86.92342,28.017405],[86.923283,28.017196],[86.92316,28.017187],[86.923183,28.017021],[86.923024,28.016803],[86.92304,28.016583],[86.923758,28.016078],[86.923925,28.015704],[86.924749,28.014894],[86.92526,28.014606],[86.926298,28.013328],[86.926682,28.012362],[86.92698,28.011935],[86.927015,28.011706],[86.927256,28.011325],[86.92742,28.010716],[86.927476,28.010732],[86.927613,28.010361],[86.928466,28.009252],[86.928694,28.008047],[86.928967,28.007585],[86.929174,28.007348],[86.929279,28.007368],[86.929681,28.006737],[86.929725,28.006554],[86.929822,28.006516],[86.929898,28.006237],[86.930126,28.00622],[86.930331,28.005864],[86.930352,28.005509],[86.930668,28.005237],[86.930837,28.004882],[86.931218,28.00459],[86.931317,28.004308],[86.931381,28.003667],[86.93102,28.002626],[86.931478,28.002158],[86.931605,28.001776],[86.931537,28.00127],[86.931583,28.000949],[86.93132,28.000399],[86.93186,27.999676],[86.932136,27.999032],[86.932313,27.997983],[86.932359,27.996804],[86.932228,27.996642],[86.931982,27.995806],[86.932034,27.995666],[86.931714,27.995278],[86.931303,27.995024],[86.930976,27.994678],[86.930858,27.994388],[86.930469,27.994124],[86.929828,27.993229]]}}
]}
