{"type": "FeatureCollection", "attribution": "© OpenStreetMap contributors (ODbL 1.0), via Overture Maps Foundation release 2026-09-23.0", "license": "ODbL-1.0", "source": "https://overturemaps-us-west-2.s3.amazonaws.com/release/2026-09-23.0/theme=transportation/type=segment/", "features": [
{"type":"Feature","properties":{"mountain_slug":"mount-everest","trail":"Everest Base Camp Trek","seq":0,"start_mile":0.0,"end_mile":0.1},"geometry":{"type":"LineString","coordinates":[[86.741,27.829827],[86.741097,27.829975],[86.741357,27.830037],[86.741857,27.829779],[86.742262,27.829736],[86.742428,27.82981]]}},
{"type":"Feature","properties":{"mountain_slug":"mount-everest","trail":"Everest Base Camp Trek","seq":1,"start_mile":0.1,"end_mile":0.2},"geometry":{"type":"LineString","coordinates":[[86.742428,27.82981],[86.742482,27.829834],[86.742448,27.829935],[86.74251,27.829923],[86.74257,27.83013],[86.742694,27.83024],[86.743004,27.830429],[86.743028,27.830349],[86.743069,27.830503],[86.743314,27.830616],[86.74335,27.830581]]}},
{"type":"Feature","properties":{"mountain_slug":"mount-everest","trail":"Everest Base Camp Trek","seq":2,"start_mile":0.2,"end_mile":0.3},"geometry":{"type":"LineString","coordinates":[[86.74335,27.830581],[86.743364,27.830567],[86.743823,27.830703],[86.74393,27.830634],[86.744075,27.830819],[86.744139,27.830614],[86.744528,27.830887],[86.744528,27.830895]]}},
{"type":"Feature","properties":{"mountain_slug":"mount-everest","trail":"Everest Base Camp Trek","seq":3,"start_mile":0.3,"end_mile":0.4},"geometry":{"type":"LineString","coordinates":[[86.744528,27.830895],[86.744517,27.83118],[86.744707,27.831387],[86.744739,27.831329],[86.744779,27.831425],[86.744893,27.831403],[86.744828,27.831626],[86.745045,27.831769],[86.745126,27.831912]]}},
{"type":"Feature","properties":{"mountain_slug":"mount-everest","trail":"Everest Base Camp Trek","seq":4,"start_mile":0.4,"end_mile":0.5},"geometry":{"type":"LineString","coordinates":[[86.745126,27.831912],[86.745218,27.832074],[86.745312,27.832173],[86.745281,27.832296],[86.745197,27.83229],[86.745101,27.832211],[86.745811,27.831815],[86.745895,27.831786]]}},
{"type":"Feature","properties":{"mountain_slug":"mount-everest","trail":"Everest Base Camp Trek","seq":5,"start_mile":0.5,"end_mile":0.6},"geometry":{"type":"LineString","coordinates":[[86.745895,27.831786],[86.746225,27.831669],[86.746571,27.831884],[86.746696,27.832183],[86.74662,27.832285],[86.746776,27.832449],[86.746888,27.832482]]}},
{"type":"Feature","properties":{"mountain_slug":"mount-everest","trail":"Everest Base Camp Trek","seq":6,"start_mile":0.6,"end_mile":0.7},"geometry":{"type":"LineString","coordinates":[[86.746888,27.832482],[86.74724,27.832587],[86.747752,27.832574],[86.748077,27.832432],[86.748351,27.832453],[86.748444,27.832513]]}},
{"type":"Feature","properties":{"mountain_slug":"mount-everest","trail":"Everest Base Camp Trek","seq":7,"start_mile":0.7,"end_mile":0.8},"geometry":{"type":"LineString","coordinates":[[86.748444,27.832513],[86.748614,27.832622],[86.748866,27.832678],[86.74913,27.832894],[86.749918,27.833039]]}},
{"type":"Feature","properties":{"mountain_slug":"mount-everest","trail":"Everest Base Camp Trek","seq":8,"start_mile":0.8,"end_mile":0.9},"geometry":{"type":"LineString","coordinates":[[86.749918,27.833039],[86.750085,27.833069],[86.749993,27.833362],[86.75025,27.833321],[86.750848,27.833525],[86.750686,27.833658]]}},
{"type":"Feature","properties":{"mountain_slug":"mount-everest","trail":"Everest Base Camp Trek","seq":9,"start_mile":0.9,"end_mile":1.0},"geometry":{"type":"LineString","coordinates":[[86.750686,27.833658],[86.750541,27.833778],[86.751417,27.834019],[86.751936,27.834039]]}},
{"type":"Feature","properties":{"mountain_slug":"mount-everest","trail":"Everest Base Camp Trek","seq":10,"start_mile":1.0,"end_mile":1.1},"geometry":{"type":"LineString","coordinates":[[86.751936,27.834039],[86.752349,27.834054],[86.75228,27.834178],[86.752698,27.834286],[86.75258,27.834408],[86.752918,27.834404],[86.752852,27.834482]]}},
{"type":"Feature","properties":{"mountain_slug":"mount-everest","trail":"Everest Base Camp Trek","seq":11,"start_mile":1.1,"end_mile":1.2},"geometry":{"type":"LineString","coordinates":[[86.752852,27.834482],[86.752801,27.834543],[86.753478,27.83461],[86.753234,27.834876],[86.753714,27.834888]]}},
{"type":"Feature","properties":{"mountain_slug":"mount-everest","trail":"Everest Base Camp Trek","seq":12,"start_mile":1.2,"end_mile":1.3},"geometry":{"type":"LineString","coordinates":[[86.753714,27.834888],[86.75465,27.83491],[86.754224,27.835306],[86.754306,27.835305]]}},
{"type":"Feature","properties":{"mountain_slug":"mount-everest","trail":"Everest Base Camp Trek","seq":13,"start_mile":1.3,"end_mile":1.4},"geometry":{"type":"LineString","coordinates":[[86.754306,27.835305],[86.754548,27.835303],[86.754402,27.835395],[86.755206,27.835437],[86.755614,27.83541]]}},
{"type":"Feature","properties":{"mountain_slug":"mount-everest","trail":"Everest Base Camp Trek","seq":14,"start_mile":1.4,"end_mile":1.5},"geometry":{"type":"LineString","coordinates":[[86.755614,27.83541],[86.755944,27.835388],[86.756187,27.835283],[86.75722,27.835303]]}},
{"type":"Feature","properties":{"mountain_slug":"mount-everest","trail":"Everest Base Camp Trek","seq":15,"start_mile":1.5,"end_mile":1.6},"geometry":{"type":"LineString","coordinates":[[86.75722,27.835303],[86.757229,27.835303],[86.757962,27.835208],[86.758412,27.835274],[86.758821,27.835161]]}},
{"type":"Feature","properties":{"mountain_slug":"mount-everest","trail":"Everest Base Camp Trek","seq":16,"start_mile":1.6,"end_mile":1.7},"geometry":{"type":"LineString","coordinates":[[86.758821,27.835161],[86.758968,27.83512],[86.759373,27.835208],[86.759895,27.834987],[86.76035,27.835137]]}},
{"type":"Feature","properties":{"mountain_slug":"mount-everest","trail":"Everest Base Camp Trek","seq":17,"start_mile":1.7,"end_mile":1.8},"geometry":{"type":"LineString","coordinates":[[86.76035,27.835137],[86.76046,27.835173],[86.760688,27.835174],[86.761066,27.834989],[86.761529,27.835125],[86.761886,27.835039]]}},
{"type":"Feature","properties":{"mountain_slug":"mount-everest","trail":"Everest Base Camp Trek","seq":18,"start_mile":1.8,"end_mile":1.9},"geometry":{"type":"LineString","coordinates":[[86.761886,27.835039],[86.762005,27.835011],[86.762268,27.835001],[86.762421,27.835085],[86.762935,27.834961],[86.763304,27.835015],[86.763404,27.835128]]}},
{"type":"Feature","properties":{"mountain_slug":"mount-everest","trail":"Everest Base Camp Trek","seq":19,"start_mile":1.9,"end_mile":2.0},"geometry":{"type":"LineString","coordinates":[[86.763404,27.835128],[86.763475,27.835209],[86.76392,27.835259],[86.76433,27.835169],[86.764298,27.835302],[86.764034,27.835591],[86.764106,27.835613]]}},
{"type":"Feature","properties":{"mountain_slug":"mount-everest","trail":"Everest Base Camp Trek","seq":20,"start_mile":2.0,"end_mile":2.1},"geometry":{"type":"LineString","coordinates":[[86.764106,27.835613],[86.764415,27.835707],[86.764638,27.836043],[86.764773,27.83612],[86.76544,27.836333]]}},
{"type":"Feature","properties":{"mountain_slug":"mount-everest","trail":"Everest Base Camp Trek","seq":21,"start_mile":2.1,"end_mile":2.2},"geometry":{"type":"LineString","coordinates":[[86.76544,27.836333],[86.765508,27.836355],[86.765656,27.836464],[86.765848,27.836886],[86.766069,27.836991],[86.766221,27.837361],[86.766384,27.837381]]}},
{"type":"Feature","properties":{"mountain_slug":"mount-everest","trail":"Everest Base Camp Trek","seq":22,"start_mile":2.2,"end_mile":2.3},"geometry":{"type":"LineString","coordinates":[[86.766384,27.837381],[86.766706,27.837421],[86.766858,27.837488],[86.766841,27.837562],[86.767156,27.837524],[86.767403,27.837685],[86.767828,27.837624]]}},
{"type":"Feature","properties":{"mountain_slug":"mount-everest","trail":"Everest Base Camp Trek","seq":23,"start_mile":2.3,"end_mile":2.4},"geometry":{"type":"LineString","coordinates":[[86.767828,27.837624],[86.768226,27.837567],[86.768416,27.837653],[86.768818,27.838485]]}},
{"type":"Feature","properties":{"mountain_slug":"mount-everest","trail":"Everest Base Camp Trek","seq":24,"start_mile":2.4,"end_mile":2.5},"geometry":{"type":"LineString","coordinates":[[86.768818,27.838485],[86.768887,27.838625],[86.769101,27.838706],[86.769458,27.838671],[86.770139,27.839152]]}},
{"type":"Feature","properties":{"mountain_slug":"mount-everest","trail":"Everest Base Camp Trek","seq":25,"start_mile":2.5,"end_mile":2.6},"geometry":{"type":"LineString","coordinates":[[86.770139,27.839152],[86.770338,27.839292],[86.771088,27.83951],[86.771442,27.839931]]}},
{"type":"Feature","properties":{"mountain_slug":"mount-everest","trail":"Everest Base Camp Trek","seq":26,"start_mile":2.6,"end_mile":2.7},"geometry":{"type":"LineString","coordinates":[[86.771442,27.839931],[86.771989,27.84058],[86.772521,27.841015]]}},
{"type":"Feature","properties":{"mountain_slug":"mount-everest","trail":"Everest Base Camp Trek","seq":27,"start_mile":2.7,"end_mile":2.8},"geometry":{"type":"LineString","coordinates":[[86.772521,27.841015],[86.773199,27.841569],[86.77365,27.841673],[86.773787,27.841856]]}},
{"type":"Feature","properties":{"mountain_slug":"mount-everest","trail":"Everest Base Camp Trek","seq":28,"start_mile":2.8,"end_mile":2.9},"geometry":{"type":"LineString","coordinates":[[86.773787,27.841856],[86.774008,27.84215],[86.77432,27.842228],[86.774844,27.842888],[86.774846,27.84289]]}},
{"type":"Feature","properties":{"mountain_slug":"mount-everest","trail":"Everest Base Camp Trek","seq":29,"start_mile":2.9,"end_mile":3.0},"geometry":{"type":"LineString","coordinates":[[86.774846,27.84289],[86.775091,27.843032],[86.775553,27.843156],[86.775924,27.843136],[86.776218,27.843205],[86.77635,27.843318]]}},
{"type":"Feature","properties":{"mountain_slug":"mount-everest","trail":"Everest Base Camp Trek","seq":30,"start_mile":3.0,"end_mile":3.1},"geometry":{"type":"LineString","coordinates":[[86.77635,27.843318],[86.776544,27.843484],[86.776484,27.843514],[86.776772,27.843762],[86.777274,27.84442]]}},
{"type":"Feature","properties":{"mountain_slug":"mount-everest","trail":"Everest Base Camp Trek","seq":31,"start_mile":3.1,"end_mile":3.2},"geometry":{"type":"LineString","coordinates":[[86.777274,27.84442],[86.777332,27.844496],[86.777959,27.845738]]}},
{"type":"Feature","properties":{"mountain_slug":"mount-everest","trail":"Everest Base Camp Trek","seq":32,"start_mile":3.2,"end_mile":3.3},"geometry":{"type":"LineString","coordinates":[[86.777959,27.845738],[86.778486,27.846781],[86.778566,27.847082]]}},
{"type":"Feature","properties":{"mountain_slug":"mount-everest","trail":"Everest Base Camp Trek","seq":33,"start_mile":3.3,"end_mile":3.4},"geometry":{"type":"LineString","coordinates":[[86.778566,27.847082],[86.778582,27.847143],[86.77856,27.847433],[86.778666,27.84754],[86.778828,27.848051],[86.779114,27.848248],[86.779169,27.848341]]}},
{"type":"Feature","properties":{"mountain_slug":"mount-everest","trail":"Everest Base Camp Trek","seq":34,"start_mile":3.4,"end_mile":3.5},"geometry":{"type":"LineString","coordinates":[[86.779169,27.848341],[86.77939,27.848712],[86.779478,27.848984],[86.779413,27.849732]]}},
{"type":"Feature","properties":{"mountain_slug":"mount-everest","trail":"Everest Base Camp Trek","seq":35,"start_mile":3.5,"end_mile":3.6},"geometry":{"type":"LineString","coordinates":[[86.779413,27.849732],[86.77941,27.84977],[86.779423,27.849822],[86.77966,27.849837],[86.779686,27.850371],[86.780333,27.850592]]}},
{"type":"Feature","properties":{"mountain_slug":"mount-everest","trail":"Everest Base Camp Trek","seq":36,"start_mile":3.6,"end_mile":3.7},"geometry":{"type":"LineString","coordinates":[[86.780333,27.850592],[86.780605,27.850685],[86.780711,27.850811],[86.781137,27.85093],[86.781224,27.851021],[86.781493,27.85107],[86.781801,27.851031]]}},
{"type":"Feature","properties":{"mountain_slug":"mount-everest","trail":"Everest Base Camp Trek","seq":37,"start_mile":3.7,"end_mile":3.8},"geometry":{"type":"LineString","coordinates":[[86.781801,27.851031],[86.782176,27.850985],[86.782678,27.851136],[86.782533,27.851215],[86.78256,27.851267],[86.783045,27.851337]]}},
{"type":"Feature","properties":{"mountain_slug":"mount-everest","trail":"Everest Base Camp Trek","seq":38,"start_mile":3.8,"end_mile":3.9},"geometry":{"type":"LineString","coordinates":[[86.783045,27.851337],[86.783264,27.851368],[86.784008,27.85203],[86.784316,27.852169],[86.784329,27.852164]]}},
{"type":"Feature","properties":{"mountain_slug":"mount-everest","trail":"Everest Base Camp Trek","seq":39,"start_mile":3.9,"end_mile":4.0},"geometry":{"type":"LineString","coordinates":[[86.784329,27.852164],[86.784403,27.85213],[86.785069,27.853064],[86.785334,27.853202]]}},
{"type":"Feature","properties":{"mountain_slug":"mount-everest","trail":"Everest Base Camp Trek","seq":40,"start_mile":4.0,"end_mile":4.1},"geometry":{"type":"LineString","coordinates":[[86.785334,27.853202],[86.785381,27.853226],[86.785846,27.853032],[86.786371,27.85334],[86.786718,27.853292],[86.786793,27.853331]]}},
{"type":"Feature","properties":{"mountain_slug":"mount-everest","trail":"Everest Base Camp Trek","seq":41,"start_mile":4.1,"end_mile":4.2},"geometry":{"type":"LineString","coordinates":[[86.786793,27.853331],[86.787306,27.853594],[86.787867,27.853768],[86.788287,27.853629]]}},
{"type":"Feature","properties":{"mountain_slug":"mount-everest","trail":"Everest Base Camp Trek","seq":42,"start_mile":4.2,"end_mile":4.3},"geometry":{"type":"LineString","coordinates":[[86.788287,27.853629],[86.788346,27.853609],[86.788606,27.853606],[86.78949,27.854192],[86.789686,27.854254]]}},
{"type":"Feature","properties":{"mountain_slug":"mount-everest","trail":"Everest Base Camp Trek","seq":43,"start_mile":4.3,"end_mile":4.4},"geometry":{"type":"LineString","coordinates":[[86.789686,27.854254],[86.790187,27.854414],[86.79042,27.854418],[86.790825,27.854879],[86.791035,27.854904]]}},
{"type":"Feature","properties":{"mountain_slug":"mount-everest","trail":"Everest Base Camp Trek","seq":44,"start_mile":4.4,"end_mile":4.5},"geometry":{"type":"LineString","coordinates":[[86.791035,27.854904],[86.791176,27.854921],[86.790947,27.854983],[86.791212,27.85524],[86.791741,27.855539],[86.791836,27.855729]]}},
{"type":"Feature","properties":{"mountain_slug":"mount-everest","trail":"Everest Base Camp Trek","seq":45,"start_mile":4.5,"end_mile":4.6},"geometry":{"type":"LineString","coordinates":[[86.791836,27.855729],[86.792126,27.856306],[86.792822,27.856052],[86.792993,27.856034]]}},
{"type":"Feature","properties":{"mountain_slug":"mount-everest","trail":"Everest Base Camp Trek","seq":46,"start_mile":4.6,"end_mile":4.7},"geometry":{"type":"LineString","coordinates":[[86.792993,27.856034],[86.793171,27.856014],[86.793411,27.856299],[86.793293,27.856586],[86.793465,27.856627],[86.793619,27.85708]]}},
{"type":"Feature","properties":{"mountain_slug":"mount-everest","trail":"Everest Base Camp Trek","seq":47,"start_mile":4.7,"end_mile":4.8},"geometry":{"type":"LineString","coordinates":[[86.793619,27.85708],[86.793624,27.857094],[86.794497,27.858305]]}},
{"type":"Feature","properties":{"mountain_slug":"mount-everest","trail":"Everest Base Camp Trek","seq":48,"start_mile":4.8,"end_mile":4.9},"geometry":{"type":"LineString","coordinates":[[86.794497,27.858305],[86.794562,27.858394],[86.794763,27.859161],[86.795054,27.859568],[86.795041,27.859644]]}},
{"type":"Feature","properties":{"mountain_slug":"mount-everest","trail":"Everest Base Camp Trek","seq":49,"start_mile":4.9,"end_mile":5.0},"geometry":{"type":"LineString","coordinates":[[86.795041,27.859644],[86.795002,27.859867],[86.795473,27.86055],[86.795725,27.860756],[86.795855,27.860794]]}},
{"type":"Feature","properties":{"mountain_slug":"mount-everest","trail":"Everest Base Camp Trek","seq":50,"start_mile":5.0,"end_mile":5.1},"geometry":{"type":"LineString","coordinates":[[86.795855,27.860794],[86.796162,27.860883],[86.796552,27.861437],[86.796991,27.861769]]}},
{"type":"Feature","properties":{"mountain_slug":"mount-everest","trail":"Everest Base Camp Trek","seq":51,"start_mile":5.1,"end_mile":5.2},"geometry":{"type":"LineString","coordinates":[[86.796991,27.861769],[86.797323,27.862021],[86.797676,27.861991],[86.797856,27.86219],[86.798073,27.862142],[86.798172,27.86229],[86.798294,27.862351]]}},
{"type":"Feature","properties":{"mountain_slug":"mount-everest","trail":"Everest Base Camp Trek","seq":52,"start_mile":5.2,"end_mile":5.3},"geometry":{"type":"LineString","coordinates":[[86.798294,27.862351],[86.798658,27.862532],[86.798977,27.862865],[86.799291,27.862946],[86.799498,27.863248]]}},
{"type":"Feature","properties":{"mountain_slug":"mount-everest","trail":"Everest Base Camp Trek","seq":53,"start_mile":5.3,"end_mile":5.4},"geometry":{"type":"LineString","coordinates":[[86.799498,27.863248],[86.799588,27.86338],[86.800646,27.86391],[86.800766,27.864102]]}},
{"type":"Feature","properties":{"mountain_slug":"mount-everest","trail":"Everest Base Camp Trek","seq":54,"start_mile":5.4,"end_mile":5.5},"geometry":{"type":"LineString","coordinates":[[86.800766,27.864102],[86.800932,27.864368],[86.800921,27.864607],[86.80127,27.864695],[86.80168,27.864962],[86.801766,27.865073]]}},
{"type":"Feature","properties":{"mountain_slug":"mount-everest","trail":"Everest Base Camp Trek","seq":55,"start_mile":5.5,"end_mile":5.6},"geometry":{"type":"LineString","coordinates":[[86.801766,27.865073],[86.802246,27.865696],[86.802768,27.866217]]}},
{"type":"Feature","properties":{"mountain_slug":"mount-everest","trail":"Everest Base Camp Trek","seq":56,"start_mile":5.6,"end_mile":5.7},"geometry":{"type":"LineString","coordinates":[[86.802768,27.866217],[86.803328,27.866776],[86.8038,27.867064],[86.804009,27.867126]]}},
{"type":"Feature","properties":{"mountain_slug":"mount-everest","trail":"Everest Base Camp Trek","seq":57,"start_mile":5.7,"end_mile":5.8},"geometry":{"type":"LineString","coordinates":[[86.804009,27.867126],[86.80425,27.867199],[86.804664,27.867583],[86.804757,27.867636],[86.804891,27.867598],[86.805204,27.867818],[86.805334,27.867799]]}},
{"type":"Feature","properties":{"mountain_slug":"mount-everest","trail":"Everest Base Camp Trek","seq":58,"start_mile":5.8,"end_mile":5.9},"geometry":{"type":"LineString","coordinates":[[86.805334,27.867799],[86.805739,27.86774],[86.80592,27.867926],[86.806012,27.867954],[86.806053,27.86788],[86.806607,27.867992],[86.806734,27.868117]]}},
{"type":"Feature","properties":{"mountain_slug":"mount-everest","trail":"Everest Base Camp Trek","seq":59,"start_mile":5.9,"end_mile":6.0},"geometry":{"type":"LineString","coordinates":[[86.806734,27.868117],[86.806735,27.868119],[86.807389,27.868067],[86.807922,27.86829],[86.808304,27.868341]]}},
{"type":"Feature","properties":{"mountain_slug":"mount-everest","trail":"Everest Base Camp Trek","seq":60,"start_mile":6.0,"end_mile":6.1},"geometry":{"type":"LineString","coordinates":[[86.808304,27.868341],[86.808518,27.86837],[86.809662,27.868823],[86.809796,27.868911]]}},
{"type":"Feature","properties":{"mountain_slug":"mount-everest","trail":"Everest Base Camp Trek","seq":61,"start_mile":6.1,"end_mile":6.2},"geometry":{"type":"LineString","coordinates":[[86.809796,27.868911],[86.810535,27.869395],[86.810972,27.8699]]}},
{"type":"Feature","properties":{"mountain_slug":"mount-everest","trail":"Everest Base Camp Trek","seq":62,"start_mile":6.2,"end_mile":6.3},"geometry":{"type":"LineString","coordinates":[[86.810972,27.8699],[86.811458,27.870463],[86.811491,27.870658],[86.811759,27.871149]]}},
{"type":"Feature","properties":{"mountain_slug":"mount-everest","trail":"Everest Base Camp Trek","seq":63,"start_mile":6.3,"end_mile":6.4},"geometry":{"type":"LineString","coordinates":[[86.811759,27.871149],[86.811811,27.871245],[86.812092,27.871678],[86.81264,27.872264],[86.812676,27.872342]]}},
{"type":"Feature","properties":{"mountain_slug":"mount-everest","trail":"Everest Base Camp Trek","seq":64,"start_mile":6.4,"end_mile":6.5},"geometry":{"type":"LineString","coordinates":[[86.812676,27.872342],[86.812803,27.872619],[86.812859,27.873236],[86.8128,27.873544],[86.81282,27.873766]]}},
{"type":"Feature","properties":{"mountain_slug":"mount-everest","trail":"Everest Base Camp Trek","seq":65,"start_mile":6.5,"end_mile":6.6},"geometry":{"type":"LineString","coordinates":[[86.81282,27.873766],[86.812849,27.874086],[86.812951,27.874255],[86.812953,27.874704],[86.81317,27.875156]]}},
{"type":"Feature","properties":{"mountain_slug":"mount-everest","trail":"Everest Base Camp Trek","seq":66,"start_mile":6.6,"end_mile":6.7},"geometry":{"type":"LineString","coordinates":[[86.81317,27.875156],[86.813229,27.87528],[86.813451,27.87624],[86.813671,27.876515]]}},
{"type":"Feature","properties":{"mountain_slug":"mount-everest","trail":"Everest Base Camp Trek","seq":67,"start_mile":6.7,"end_mile":6.8},"geometry":{"type":"LineString","coordinates":[[86.813671,27.876515],[86.813798,27.876674],[86.813832,27.876902],[86.814022,27.877012],[86.814256,27.877597],[86.814236,27.877802]]}},
{"type":"Feature","properties":{"mountain_slug":"mount-everest","trail":"Everest Base Camp Trek","seq":68,"start_mile":6.8,"end_mile":6.9},"geometry":{"type":"LineString","coordinates":[[86.814236,27.877802],[86.814226,27.877903],[86.81386,27.878384],[86.813875,27.878557],[86.814068,27.878801],[86.814306,27.879012]]}},
{"type":"Feature","properties":{"mountain_slug":"mount-everest","trail":"Everest Base Camp Trek","seq":69,"start_mile":6.9,"end_mile":7.0},"geometry":{"type":"LineString","coordinates":[[86.814306,27.879012],[86.814951,27.879584],[86.815211,27.879993],[86.815375,27.880087]]}},
{"type":"Feature","properties":{"mountain_slug":"mount-everest","trail":"Everest Base Camp Trek","seq":70,"start_mile":7.0,"end_mile":7.1},"geometry":{"type":"LineString","coordinates":[[86.815375,27.880087],[86.815382,27.880091],[86.815867,27.880177],[86.8167,27.880528],[86.81691,27.880529]]}},
{"type":"Feature","properties":{"mountain_slug":"mount-everest","trail":"Everest Base Camp Trek","seq":71,"start_mile":7.1,"end_mile":7.2},"geometry":{"type":"LineString","coordinates":[[86.81691,27.880529],[86.8172,27.88053],[86.817327,27.880779],[86.817426,27.880798],[86.817628,27.88047],[86.817792,27.88042],[86.818091,27.880567]]}},
{"type":"Feature","properties":{"mountain_slug":"mount-everest","trail":"Everest Base Camp Trek","seq":72,"start_mile":7.2,"end_mile":7.3},"geometry":{"type":"LineString","coordinates":[[86.818091,27.880567],[86.819522,27.88127]]}},
{"type":"Feature","properties":{"mountain_slug":"mount-everest","trail":"Everest Base Camp Trek","seq":73,"start_mile":7.3,"end_mile":7.4},"geometry":{"type":"LineString","coordinates":[[86.819522,27.88127],[86.820151,27.881579],[86.820545,27.8817],[86.821043,27.881664]]}},
{"type":"Feature","properties":{"mountain_slug":"mount-everest","trail":"Everest Base Camp Trek","seq":74,"start_mile":7.4,"end_mile":7.5},"geometry":{"type":"LineString","coordinates":[[86.821043,27.881664],[86.82115,27.881657],[86.821526,27.881851],[86.821756,27.882011],[86.822015,27.882618],[86.822048,27.882673]]}},
{"type":"Feature","properties":{"mountain_slug":"mount-everest","trail":"Everest Base Camp Trek","seq":75,"start_mile":7.5,"end_mile":7.6},"geometry":{"type":"LineString","coordinates":[[86.822048,27.882673],[86.822556,27.883541],[86.822937,27.883852],[86.822943,27.883866]]}},
{"type":"Feature","properties":{"mountain_slug":"mount-everest","trail":"Everest Base Camp Trek","seq":76,"start_mile":7.6,"end_mile":7.7},"geometry":{"type":"LineString","coordinates":[[86.822943,27.883866],[86.823056,27.884122],[86.82364,27.884548],[86.824051,27.884682],[86.824155,27.884754]]}},
{"type":"Feature","properties":{"mountain_slug":"mount-everest","trail":"Everest Base Camp Trek","seq":77,"start_mile":7.7,"end_mile":7.8},"geometry":{"type":"LineString","coordinates":[[86.824155,27.884754],[86.824357,27.884895],[86.825084,27.885935]]}},
{"type":"Feature","properties":{"mountain_slug":"mount-everest","trail":"Everest Base Camp Trek","seq":78,"start_mile":7.8,"end_mile":7.9},"geometry":{"type":"LineString","coordinates":[[86.825084,27.885935],[86.825382,27.886361],[86.825644,27.886582],[86.825896,27.887172]]}},
{"type":"Feature","properties":{"mountain_slug":"mount-everest","trail":"Everest Base Camp Trek","seq":79,"start_mile":7.9,"end_mile":8.0},"geometry":{"type":"LineString","coordinates":[[86.825896,27.887172],[86.825963,27.887329],[86.825902,27.887603],[86.82571,27.887844],[86.825785,27.888304],[86.825879,27.888535]]}},
{"type":"Feature","properties":{"mountain_slug":"mount-everest","trail":"Everest Base Camp Trek","seq":80,"start_mile":8.0,"end_mile":8.1},"geometry":{"type":"LineString","coordinates":[[86.825879,27.888535],[86.826003,27.888838],[86.825931,27.889629],[86.826156,27.889718],[86.826203,27.889829]]}},
{"type":"Feature","properties":{"mountain_slug":"mount-everest","trail":"Everest Base Camp Trek","seq":81,"start_mile":8.1,"end_mile":8.2},"geometry":{"type":"LineString","coordinates":[[86.826203,27.889829],[86.826244,27.889925],[86.826418,27.890071],[86.826306,27.890473],[86.826343,27.890637],[86.826217,27.890754],[86.826277,27.891144]]}},
{"type":"Feature","properties":{"mountain_slug":"mount-everest","trail":"Everest Base Camp Trek","seq":82,"start_mile":8.2,"end_mile":8.3},"geometry":{"type":"LineString","coordinates":[[86.826277,27.891144],[86.826277,27.891146],[86.826077,27.89181],[86.826234,27.892078],[86.826583,27.89242]]}},
{"type":"Feature","properties":{"mountain_slug":"mount-everest","trail":"Everest Base Camp Trek","seq":83,"start_mile":8.3,"end_mile":8.4},"geometry":{"type":"LineString","coordinates":[[86.826583,27.89242],[86.826647,27.892484],[86.826925,27.892938],[86.826837,27.892975],[86.826798,27.89315],[86.826949,27.893719]]}},
{"type":"Feature","properties":{"mountain_slug":"mount-everest","trail":"Everest Base Camp Trek","seq":84,"start_mile":8.4,"end_mile":8.5},"geometry":{"type":"LineString","coordinates":[[86.826949,27.893719],[86.826957,27.893748],[86.826656,27.893981],[86.826538,27.894213],[86.826158,27.894595],[86.826003,27.894866]]}},
{"type":"Feature","properties":{"mountain_slug":"mount-everest","trail":"Everest Base Camp Trek","seq":85,"start_mile":8.5,"end_mile":8.6},"geometry":{"type":"LineString","coordinates":[[86.826003,27.894866],[86.825836,27.895158],[86.825064,27.89605]]}},
{"type":"Feature","properties":{"mountain_slug":"mount-everest","trail":"Everest Base Camp Trek","seq":86,"start_mile":8.6,"end_mile":8.7},"geometry":{"type":"LineString","coordinates":[[86.825064,27.89605],[86.824844,27.896303],[86.824704,27.8966],[86.824331,27.896887],[86.824108,27.897203]]}},
{"type":"Feature","properties":{"mountain_slug":"mount-everest","trail":"Everest Base Camp Trek","seq":87,"start_mile":8.7,"end_mile":8.8},"geometry":{"type":"LineString","coordinates":[[86.824108,27.897203],[86.823583,27.897949],[86.823462,27.898229],[86.823288,27.898454]]}},
{"type":"Feature","properties":{"mountain_slug":"mount-everest","trail":"Everest Base Camp Trek","seq":88,"start_mile":8.8,"end_mile":8.9},"geometry":{"type":"LineString","coordinates":[[86.823288,27.898454],[86.822493,27.899488],[86.822448,27.899685]]}},
{"type":"Feature","properties":{"mountain_slug":"mount-everest","trail":"Everest Base Camp Trek","seq":89,"start_mile":8.9,"end_mile":9.0},"geometry":{"type":"LineString","coordinates":[[86.822448,27.899685],[86.822391,27.899933],[86.822102,27.900114],[86.821729,27.900624],[86.821501,27.900813]]}},
{"type":"Feature","properties":{"mountain_slug":"mount-everest","trail":"Everest Base Camp Trek","seq":90,"start_mile":9.0,"end_mile":9.1},"geometry":{"type":"LineString","coordinates":[[86.821501,27.900813],[86.821431,27.900871],[86.820645,27.902047]]}},
{"type":"Feature","properties":{"mountain_slug":"mount-everest","trail":"Everest Base Camp Trek","seq":91,"start_mile":9.1,"end_mile":9.2},"geometry":{"type":"LineString","coordinates":[[86.820645,27.902047],[86.820313,27.902543],[86.820248,27.902979],[86.820146,27.903144],[86.819882,27.903225]]}},
{"type":"Feature","properties":{"mountain_slug":"mount-everest","trail":"Everest Base Camp Trek","seq":92,"start_mile":9.2,"end_mile":9.3},"geometry":{"type":"LineString","coordinates":[[86.819882,27.903225],[86.819773,27.903259],[86.81968,27.90347],[86.819391,27.903728],[86.819125,27.904155],[86.819083,27.904424]]}},
{"type":"Feature","properties":{"mountain_slug":"mount-everest","trail":"Everest Base Camp Trek","seq":93,"start_mile":9.3,"end_mile":9.4},"geometry":{"type":"LineString","coordinates":[[86.819083,27.904424],[86.819062,27.904556],[86.818618,27.904929],[86.818468,27.905346],[86.818462,27.905625],[86.818418,27.90567]]}},
{"type":"Feature","properties":{"mountain_slug":"mount-everest","trail":"Everest Base Camp Trek","seq":94,"start_mile":9.4,"end_mile":9.5},"geometry":{"type":"LineString","coordinates":[[86.818418,27.90567],[86.818176,27.905915],[86.817711,27.906679],[86.817474,27.906829]]}},
{"type":"Feature","properties":{"mountain_slug":"mount-everest","trail":"Everest Base Camp Trek","seq":95,"start_mile":9.5,"end_mile":9.6},"geometry":{"type":"LineString","coordinates":[[86.817474,27.906829],[86.81731,27.906933],[86.816567,27.908023]]}},
{"type":"Feature","properties":{"mountain_slug":"mount-everest","trail":"Everest Base Camp Trek","seq":96,"start_mile":9.6,"end_mile":9.7},"geometry":{"type":"LineString","coordinates":[[86.816567,27.908023],[86.816525,27.908085],[86.81637,27.908623],[86.815928,27.909348]]}},
{"type":"Feature","properties":{"mountain_slug":"mount-everest","trail":"Everest Base Camp Trek","seq":97,"start_mile":9.7,"end_mile":9.8},"geometry":{"type":"LineString","coordinates":[[86.815928,27.909348],[86.815708,27.909708],[86.815032,27.910561]]}},
{"type":"Feature","properties":{"mountain_slug":"mount-everest","trail":"Everest Base Camp Trek","seq":98,"start_mile":9.8,"end_mile":9.9},"geometry":{"type":"LineString","coordinates":[[86.815032,27.910561],[86.814091,27.911749]]}},
{"type":"Feature","properties":{"mountain_slug":"mount-everest","trail":"Everest Base Camp Trek","seq":99,"start_mile":9.9,"end_mile":10.0},"geometry":{"type":"LineString","coordinates":[[86.814091,27.911749],[86.813663,27.91229],[86.813053,27.912868]]}},
{"type":"Feature","properties":{"mountain_slug":"mount-everest","trail":"Everest Base Camp Trek","seq":100,"start_mile":10.0,"end_mile":10.1},"geometry":{"type":"LineString","coordinates":[[86.813053,27.912868],[86.811936,27.913929]]}},
{"type":"Feature","properties":{"mountain_slug":"mount-everest","trail":"Everest Base Camp Trek","seq":101,"start_mile":10.1,"end_mile":10.2},"geometry":{"type":"LineString","coordinates":[[86.811936,27.913929],[86.811803,27.914054],[86.811144,27.915193]]}},
{"type":"Feature","properties":{"mountain_slug":"mount-everest","trail":"Everest Base Camp Trek","seq":102,"start_mile":10.2,"end_mile":10.3},"geometry":{"type":"LineString","coordinates":[[86.811144,27.915193],[86.81101,27.915424],[86.810658,27.915661],[86.81011,27.916257],[86.810092,27.916284]]}},
{"type":"Feature","properties":{"mountain_slug":"mount-everest","trail":"Everest Base Camp Trek","seq":103,"start_mile":10.3,"end_mile":10.4},"geometry":{"type":"LineString","coordinates":[[86.810092,27.916284],[86.809294,27.917552]]}},
{"type":"Feature","properties":{"mountain_slug":"mount-everest","trail":"Everest Base Camp Trek","seq":104,"start_mile":10.4,"end_mile":10.5},"geometry":{"type":"LineString","coordinates":[[86.809294,27.917552],[86.809227,27.917658],[86.808381,27.918385],[86.808287,27.918658]]}},
{"type":"Feature","properties":{"mountain_slug":"mount-everest","trail":"Everest Base Camp Trek","seq":105,"start_mile":10.5,"end_mile":10.6},"geometry":{"type":"LineString","coordinates":[[86.808287,27.918658],[86.80825,27.91877],[86.808053,27.920095]]}},
{"type":"Feature","properties":{"mountain_slug":"mount-everest","trail":"Everest Base Camp Trek","seq":106,"start_mile":10.6,"end_mile":10.7},"geometry":{"type":"LineString","coordinates":[[86.808053,27.920095],[86.80784,27.921535]]}},
{"type":"Feature","properties":{"mountain_slug":"mount-everest","trail":"Everest Base Camp Trek","seq":107,"start_mile":10.7,"end_mile":10.8},"geometry":{"type":"LineString","coordinates":[[86.80784,27.921535],[86.807764,27.922048],[86.807543,27.922484],[86.807429,27.92293]]}},
{"type":"Feature","properties":{"mountain_slug":"mount-everest","trail":"Everest Base Camp Trek","seq":108,"start_mile":10.8,"end_mile":10.9},"geometry":{"type":"LineString","coordinates":[[86.807429,27.92293],[86.807202,27.923818],[86.80706,27.924003],[86.807084,27.924194],[86.807019,27.924307]]}},
{"type":"Feature","properties":{"mountain_slug":"mount-everest","trail":"Everest Base Camp Trek","seq":109,"start_mile":10.9,"end_mile":11.0},"geometry":{"type":"LineString","coordinates":[[86.807019,27.924307],[86.806878,27.924551],[86.806725,27.924581],[86.806642,27.924127],[86.806416,27.923584]]}},
{"type":"Feature","properties":{"mountain_slug":"mount-everest","trail":"Everest Base Camp Trek","seq":110,"start_mile":11.0,"end_mile":11.1},"geometry":{"type":"LineString","coordinates":[[86.806416,27.923584],[86.806399,27.923544],[86.806306,27.923489],[86.806002,27.923701],[86.805516,27.923803],[86.805126,27.92412],[86.805103,27.92417]]}},
{"type":"Feature","properties":{"mountain_slug":"mount-everest","trail":"Everest Base Camp Trek","seq":111,"start_mile":11.1,"end_mile":11.2},"geometry":{"type":"LineString","coordinates":[[86.805103,27.92417],[86.805045,27.924295],[86.805067,27.924654],[86.804944,27.925606]]}},
{"type":"Feature","properties":{"mountain_slug":"mount-everest","trail":"Everest Base Camp Trek","seq":112,"start_mile":11.2,"end_mile":11.3},"geometry":{"type":"LineString","coordinates":[[86.804944,27.925606],[86.804933,27.925687],[86.804509,27.927005]]}},
{"type":"Feature","properties":{"mountain_slug":"mount-everest","trail":"Everest Base Camp Trek","seq":113,"start_mile":11.3,"end_mile":11.4},"geometry":{"type":"LineString","coordinates":[[86.804509,27.927005],[86.804415,27.927298],[86.804636,27.927604],[86.804597,27.927799],[86.804745,27.927919],[86.804686,27.928019],[86.804847,27.928104],[86.804799,27.928226]]}},
{"type":"Feature","properties":{"mountain_slug":"mount-everest","trail":"Everest Base Camp Trek","seq":114,"start_mile":11.4,"end_mile":11.5},"geometry":{"type":"LineString","coordinates":[[86.804799,27.928226],[86.804654,27.928595],[86.804742,27.928729],[86.804671,27.928937],[86.804693,27.92926],[86.80477,27.929325],[86.80472,27.929417],[86.804847,27.929542]]}},
{"type":"Feature","properties":{"mountain_slug":"mount-everest","trail":"Everest Base Camp Trek","seq":115,"start_mile":11.5,"end_mile":11.6},"geometry":{"type":"LineString","coordinates":[[86.804847,27.929542],[86.80477,27.92974],[86.805,27.930138],[86.805234,27.930283],[86.80515,27.930379],[86.805282,27.930496],[86.805171,27.930732]]}},
{"type":"Feature","properties":{"mountain_slug":"mount-everest","trail":"Everest Base Camp Trek","seq":116,"start_mile":11.6,"end_mile":11.7},"geometry":{"type":"LineString","coordinates":[[86.805171,27.930732],[86.805113,27.930855],[86.804738,27.931012],[86.804563,27.930996],[86.80429,27.931754]]}},
{"type":"Feature","properties":{"mountain_slug":"mount-everest","trail":"Everest Base Camp Trek","seq":117,"start_mile":11.7,"end_mile":11.8},"geometry":{"type":"LineString","coordinates":[[86.80429,27.931754],[86.804235,27.931907],[86.804022,27.932192],[86.803918,27.933021],[86.803949,27.933133]]}},
{"type":"Feature","properties":{"mountain_slug":"mount-everest","trail":"Everest Base Camp Trek","seq":118,"start_mile":11.8,"end_mile":11.9},"geometry":{"type":"LineString","coordinates":[[86.803949,27.933133],[86.804019,27.933387],[86.804575,27.933835],[86.804847,27.934302]]}},
{"type":"Feature","properties":{"mountain_slug":"mount-everest","trail":"Everest Base Camp Trek","seq":119,"start_mile":11.9,"end_mile":12.0},"geometry":{"type":"LineString","coordinates":[[86.804847,27.934302],[86.804938,27.934458],[86.805518,27.93502],[86.80583,27.935453]]}},
{"type":"Feature","properties":{"mountain_slug":"mount-everest","trail":"Everest Base Camp Trek","seq":120,"start_mile":12.0,"end_mile":12.14},"geometry":{"type":"LineString","coordinates":[[86.80583,27.935453],[86.806522,27.936415],[86.806592,27.936627],[86.806552,27.937318]]}}
]}
