{
  "type": "FeatureCollection",
  "attribution": "© OpenStreetMap contributors",
  "license": "ODbL-1.0",
  "source": "https://www.openstreetmap.org/copyright",
  "features": [
    {
      "type": "Feature",
      "properties": {
        "mountain_slug": "bokatol-peak",
        "name": "Spartan Trail",
        "length_km": 1.69,
        "elevation_gain_m": null,
        "source": "© OpenStreetMap contributors"
      },
      "geometry": {
        "type": "LineString",
        "coordinates": [
          [
            123.84901,
            10.3259
          ],
          [
            123.84908,
            10.3259
          ],
          [
            123.84918,
            10.32594
          ],
          [
            123.84925,
            10.32595
          ],
          [
            123.84931,
            10.32596
          ],
          [
            123.84943,
            10.32599
          ],
          [
            123.84951,
            10.32602
          ],
          [
            123.84956,
            10.32606
          ],
          [
            123.84961,
            10.3261
          ],
          [
            123.84969,
            10.32613
          ],
          [
            123.84981,
            10.32627
          ],
          [
            123.84992,
            10.32635
          ],
          [
            123.85005,
            10.32643
          ],
          [
            123.8501,
            10.32645
          ],
          [
            123.85018,
            10.32647
          ],
          [
            123.85023,
            10.32643
          ],
          [
            123.85029,
            10.32641
          ],
          [
            123.85032,
            10.32639
          ],
          [
            123.8503,
            10.32647
          ],
          [
            123.85027,
            10.3265
          ],
          [
            123.85024,
            10.32654
          ],
          [
            123.85024,
            10.3266
          ],
          [
            123.85024,
            10.32665
          ],
          [
            123.85025,
            10.32678
          ],
          [
            123.85029,
            10.32685
          ],
          [
            123.85035,
            10.3269
          ],
          [
            123.85051,
            10.32693
          ],
          [
            123.85061,
            10.32695
          ],
          [
            123.85063,
            10.32714
          ],
          [
            123.85065,
            10.32729
          ],
          [
            123.85063,
            10.3275
          ],
          [
            123.85059,
            10.32766
          ],
          [
            123.85062,
            10.32779
          ],
          [
            123.85073,
            10.32797
          ],
          [
            123.85098,
            10.32824
          ],
          [
            123.85091,
            10.32843
          ],
          [
            123.85072,
            10.32856
          ],
          [
            123.85048,
            10.32871
          ],
          [
            123.85031,
            10.32895
          ],
          [
            123.85019,
            10.32918
          ],
          [
            123.85014,
            10.32931
          ],
          [
            123.85011,
            10.32943
          ],
          [
            123.84996,
            10.32949
          ],
          [
            123.84974,
            10.32944
          ],
          [
            123.84946,
            10.32943
          ],
          [
            123.84925,
            10.3296
          ],
          [
            123.84918,
            10.32974
          ],
          [
            123.84911,
            10.32985
          ],
          [
            123.84904,
            10.3301
          ],
          [
            123.84857,
            10.33058
          ],
          [
            123.84834,
            10.3308
          ],
          [
            123.84805,
            10.33095
          ],
          [
            123.84759,
            10.33117
          ],
          [
            123.84734,
            10.33136
          ],
          [
            123.84722,
            10.33138
          ],
          [
            123.84682,
            10.33148
          ],
          [
            123.84655,
            10.33153
          ],
          [
            123.8465,
            10.33158
          ],
          [
            123.8465,
            10.33183
          ],
          [
            123.84646,
            10.33187
          ],
          [
            123.8463,
            10.33192
          ],
          [
            123.84609,
            10.33196
          ],
          [
            123.84586,
            10.33199
          ],
          [
            123.84573,
            10.33206
          ],
          [
            123.8454,
            10.33218
          ],
          [
            123.84515,
            10.33237
          ],
          [
            123.84476,
            10.33254
          ],
          [
            123.84429,
            10.33285
          ],
          [
            123.84381,
            10.33312
          ],
          [
            123.84351,
            10.33326
          ],
          [
            123.84339,
            10.33322
          ],
          [
            123.84298,
            10.33346
          ],
          [
            123.84285,
            10.33357
          ],
          [
            123.84229,
            10.33411
          ],
          [
            123.84212,
            10.33409
          ],
          [
            123.84199,
            10.33415
          ],
          [
            123.84188,
            10.33416
          ]
        ]
      }
    }
  ]
}
