{"type": "FeatureCollection", "attribution": "© OpenStreetMap contributors (ODbL 1.0), via Overture Maps Foundation release 2026-09-23.0", "license": "ODbL-1.0", "source": "https://overturemaps-us-west-2.s3.amazonaws.com/release/2026-09-23.0/theme=transportation/type=segment/", "features": [
{"type":"Feature","properties":{"mountain_slug":"mount-erebus","trail":"Observation Hill Loop","seq":0,"start_mile":0.0,"end_mile":0.1},"geometry":{"type":"LineString","coordinates":[[166.674694,-77.852136],[166.676339,-77.852236],[166.677107,-77.852559],[166.678361,-77.852797],[166.678578,-77.852993],[166.679067,-77.853121]]}},
{"type":"Feature","properties":{"mountain_slug":"mount-erebus","trail":"Observation Hill Loop","seq":1,"start_mile":0.1,"end_mile":0.2},"geometry":{"type":"LineString","coordinates":[[166.679067,-77.853121],[166.679341,-77.853192],[166.679451,-77.85354],[166.679956,-77.853808],[166.679774,-77.85452]]}},
{"type":"Feature","properties":{"mountain_slug":"mount-erebus","trail":"Observation Hill Loop","seq":2,"start_mile":0.2,"end_mile":0.3},"geometry":{"type":"LineString","coordinates":[[166.679774,-77.85452],[166.679517,-77.855529],[166.680372,-77.855921]]}},
{"type":"Feature","properties":{"mountain_slug":"mount-erebus","trail":"Observation Hill Loop","seq":3,"start_mile":0.3,"end_mile":0.4},"geometry":{"type":"LineString","coordinates":[[166.680372,-77.855921],[166.682325,-77.856819],[166.68353,-77.857184],[166.683547,-77.857194]]}},
{"type":"Feature","properties":{"mountain_slug":"mount-erebus","trail":"Observation Hill Loop","seq":4,"start_mile":0.4,"end_mile":0.5},"geometry":{"type":"LineString","coordinates":[[166.683547,-77.857194],[166.684531,-77.857718],[166.684571,-77.857928],[166.686316,-77.858396],[166.686386,-77.858468]]}},
{"type":"Feature","properties":{"mountain_slug":"mount-erebus","trail":"Observation Hill Loop","seq":5,"start_mile":0.5,"end_mile":0.6},"geometry":{"type":"LineString","coordinates":[[166.686386,-77.858468],[166.686563,-77.85865],[166.688127,-77.859041],[166.690273,-77.85918],[166.691523,-77.859126],[166.691539,-77.859123]]}},
{"type":"Feature","properties":{"mountain_slug":"mount-erebus","trail":"Observation Hill Loop","seq":6,"start_mile":0.6,"end_mile":0.7},"geometry":{"type":"LineString","coordinates":[[166.691539,-77.859123],[166.692276,-77.859],[166.692273,-77.858793],[166.693199,-77.858519],[166.693919,-77.858074],[166.69354,-77.857916],[166.693339,-77.857882]]}},
{"type":"Feature","properties":{"mountain_slug":"mount-erebus","trail":"Observation Hill Loop","seq":7,"start_mile":0.7,"end_mile":0.8},"geometry":{"type":"LineString","coordinates":[[166.693339,-77.857882],[166.692507,-77.857743],[166.692878,-77.857312],[166.69225,-77.857042],[166.693813,-77.856693]]}},
{"type":"Feature","properties":{"mountain_slug":"mount-erebus","trail":"Observation Hill Loop","seq":8,"start_mile":0.8,"end_mile":0.9},"geometry":{"type":"LineString","coordinates":[[166.693813,-77.856693],[166.693845,-77.856686],[166.694478,-77.85586],[166.695809,-77.855334]]}},
{"type":"Feature","properties":{"mountain_slug":"mount-erebus","trail":"Observation Hill Loop","seq":9,"start_mile":0.9,"end_mile":1.0},"geometry":{"type":"LineString","coordinates":[[166.695809,-77.855334],[166.695828,-77.855327],[166.695976,-77.855043],[166.69642,-77.855007],[166.695683,-77.854787],[166.69698,-77.854708],[166.698079,-77.854546],[166.698484,-77.854352]]}},
{"type":"Feature","properties":{"mountain_slug":"mount-erebus","trail":"Observation Hill Loop","seq":10,"start_mile":1.0,"end_mile":1.1},"geometry":{"type":"LineString","coordinates":[[166.698484,-77.854352],[166.699768,-77.853735],[166.702412,-77.853205]]}},
{"type":"Feature","properties":{"mountain_slug":"mount-erebus","trail":"Observation Hill Loop","seq":11,"start_mile":1.1,"end_mile":1.2},"geometry":{"type":"LineString","coordinates":[[166.702412,-77.853205],[166.703688,-77.852948],[166.704782,-77.853053],[166.706385,-77.852997],[166.707105,-77.853131],[166.707304,-77.853301],[166.707734,-77.853264]]}},
{"type":"Feature","properties":{"mountain_slug":"mount-erebus","trail":"Observation Hill Loop","seq":12,"start_mile":1.2,"end_mile":1.3},"geometry":{"type":"LineString","coordinates":[[166.707734,-77.853264],[166.708866,-77.853167],[166.709614,-77.853213],[166.709431,-77.852913],[166.708592,-77.852697],[166.706826,-77.852464]]}},
{"type":"Feature","properties":{"mountain_slug":"mount-erebus","trail":"Observation Hill Loop","seq":13,"start_mile":1.3,"end_mile":1.43},"geometry":{"type":"LineString","coordinates":[[166.706826,-77.852464],[166.705884,-77.85234],[166.704988,-77.852127],[166.705254,-77.851245],[166.706075,-77.850867]]}}
]}
