{"type": "FeatureCollection", "attribution": "© OpenStreetMap contributors (ODbL 1.0), via Overture Maps Foundation release 2026-09-23.0", "license": "ODbL-1.0", "source": "https://overturemaps-us-west-2.s3.amazonaws.com/release/2026-09-23.0/theme=transportation/type=segment/", "mountain_slug": "mount-erebus", "hero_trail": "Observation Hill Loop", "hero_length_mi": 1.426, "elevation": "meters above the EGM2008 geoid, sampled from the Copernicus DEM (step 10)", "features": [
{"type":"Feature","properties":{"trail":"Observation Hill Loop","hero":true,"from_mile":0.0,"to_mile":1.426,"length_m":2294.9},"geometry":{"type":"LineString","coordinates":[[166.674694,-77.852136,46.0],[166.675516,-77.852186,45.5],[166.676339,-77.852236,45.3],[166.676723,-77.852397,44.3],[166.677107,-77.852559,43.1],[166.677734,-77.852678,42.1],[166.678361,-77.852797,41.7],[166.678578,-77.852993,41.2],[166.679341,-77.853192,42.9],[166.679396,-77.853366,42.1],[166.679451,-77.85354,40.8],[166.679703,-77.853674,41.2],[166.679956,-77.853808,41.9],[166.679893,-77.854054,40.1],[166.67983,-77.854299,39.2],[166.679768,-77.854545,39.1],[166.679705,-77.854791,39.5],[166.679642,-77.855037,40.2],[166.67958,-77.855283,40.1],[166.679517,-77.855529,38.5],[166.679985,-77.855744,38.2],[166.680453,-77.855959,38.0],[166.680921,-77.856174,37.4],[166.681389,-77.856389,37.0],[166.681857,-77.856604,36.9],[166.682325,-77.856819,37.8],[166.682927,-77.857002,40.2],[166.68353,-77.857184,41.8],[166.683863,-77.857362,40.9],[166.684197,-77.85754,40.3],[166.684531,-77.857718,37.9],[166.684571,-77.857928,32.3],[166.685153,-77.858084,30.7],[166.685735,-77.85824,30.4],[166.686316,-77.858396,30.1],[166.686563,-77.85865,26.0],[166.687345,-77.858846,24.3],[166.688127,-77.859041,19.8],[166.6892,-77.859111,17.9],[166.690273,-77.85918,15.3],[166.691523,-77.859126,14.7],[166.692275,-77.859,17.1],[166.692273,-77.858793,23.6],[166.692736,-77.858656,25.4],[166.693199,-77.858519,27.0],[166.693559,-77.858297,30.6],[166.693919,-77.858074,33.8],[166.69354,-77.857916,38.2],[166.693023,-77.857829,40.4],[166.692507,-77.857743,42.3],[166.692693,-77.857528,45.0],[166.692879,-77.857312,49.1],[166.692564,-77.857177,52.6],[166.69225,-77.857042,56.0],[166.693047,-77.856864,58.6],[166.693845,-77.856686,62.9],[166.694004,-77.856479,67.8],[166.694162,-77.856273,71.7],[166.69432,-77.856066,73.2],[166.694478,-77.85586,74.3],[166.694928,-77.855682,76.8],[166.695378,-77.855505,79.5],[166.695828,-77.855327,83.4],[166.695902,-77.855185,86.8],[166.695976,-77.855043,90.6],[166.69642,-77.855007,92.5],[166.696051,-77.854897,96.0],[166.695683,-77.854787,99.3],[166.696331,-77.854748,102.5],[166.69698,-77.854709,104.0],[166.697529,-77.854627,105.5],[166.698079,-77.854546,103.6],[166.698501,-77.854344,104.4],[166.698924,-77.854141,103.3],[166.699346,-77.853938,102.6],[166.699769,-77.853735,103.9],[166.700552,-77.853578,100.2],[166.701336,-77.85342,100.0],[166.70212,-77.853263,100.9],[166.702904,-77.853106,102.0],[166.703688,-77.852948,100.7],[166.704781,-77.853053,94.2],[166.705583,-77.853025,91.0],[166.706385,-77.852997,87.2],[166.707105,-77.853131,84.2],[166.707304,-77.853301,80.2],[166.708085,-77.853234,78.6],[166.708866,-77.853167,74.6],[166.709614,-77.853213,69.7],[166.709522,-77.853063,70.6],[166.709431,-77.852913,68.3],[166.709012,-77.852805,69.0],[166.708593,-77.852697,68.2],[166.70769,-77.852578,68.6],[166.706787,-77.852459,69.9],[166.705884,-77.85234,71.8],[166.705436,-77.852233,72.2],[166.704988,-77.852127,74.7],[166.705055,-77.851906,73.2],[166.705121,-77.851686,73.1],[166.705188,-77.851465,72.6],[166.705254,-77.851245,71.5],[166.705664,-77.851056,67.2],[166.706075,-77.850867,64.6]]}}
]}
