{"type": "FeatureCollection", "attribution": "© OpenStreetMap contributors (ODbL 1.0), via Overture Maps Foundation release 2026-09-23.0", "license": "ODbL-1.0", "source": "https://overturemaps-us-west-2.s3.amazonaws.com/release/2026-09-23.0/theme=transportation/type=segment/", "features": [
{"type":"Feature","properties":{"mountain_slug":"mount-erebus","name":"Castle Rock Summit Trail","length_km":0.22,"elevation_gain_m":49,"source":"© OpenStreetMap contributors (ODbL), via Overture Maps"},"geometry":{"type":"LineString","coordinates":[[166.780964,-77.801792],[166.779526,-77.801163],[166.777912,-77.801003],[166.777618,-77.800902],[166.777034,-77.800122]]}},
{"type":"Feature","properties":{"mountain_slug":"mount-erebus","name":"Hillary Track","length_km":0.6,"elevation_gain_m":77,"source":"© OpenStreetMap contributors (ODbL), via Overture Maps"},"geometry":{"type":"LineString","coordinates":[[166.76336,-77.848512],[166.76222,-77.848568],[166.760358,-77.848809],[166.759798,-77.848788],[166.75736,-77.848457],[166.756492,-77.848444],[166.753841,-77.848184],[166.752132,-77.847868],[166.748227,-77.847497],[166.745587,-77.847116],[166.74255,-77.846874],[166.741079,-77.846658]]}},
{"type":"Feature","properties":{"mountain_slug":"mount-erebus","name":"Hut Point Ridge Loop","length_km":1.79,"elevation_gain_m":163,"source":"© OpenStreetMap contributors (ODbL), via Overture Maps"},"geometry":{"type":"LineString","coordinates":[[166.640919,-77.845632],[166.640059,-77.845613],[166.640824,-77.845268],[166.641919,-77.845015],[166.641815,-77.844432],[166.642106,-77.844349],[166.642658,-77.844352],[166.644163,-77.843804],[166.644229,-77.843158],[166.64599,-77.842522],[166.646314,-77.842264],[166.646309,-77.842068],[166.645433,-77.841562],[166.644067,-77.841232],[166.645434,-77.840448],[166.643504,-77.840237],[166.644924,-77.839934],[166.647007,-77.838543],[166.648836,-77.837731],[166.649326,-77.837178],[166.649608,-77.836083],[166.650554,-77.83533],[166.651949,-77.835153],[166.652373,-77.834869],[166.652941,-77.834764],[166.654721,-77.834659],[166.656721,-77.834686],[166.658282,-77.834864],[166.661074,-77.835547],[166.661332,-77.836227],[166.662452,-77.836845]]}},
{"type":"Feature","properties":{"mountain_slug":"mount-erebus","name":"Observation Hill Loop","length_km":2.29,"elevation_gain_m":104,"source":"© OpenStreetMap contributors (ODbL), via Overture Maps","note":"The hero trail: the longest named trail in the box. Mile 0 is the lower trailhead. Mile markers in trail_segments.geojson."},"geometry":{"type":"LineString","coordinates":[[166.674694,-77.852136],[166.676339,-77.852236],[166.677107,-77.852559],[166.678361,-77.852797],[166.678578,-77.852993],[166.679341,-77.853192],[166.679451,-77.85354],[166.679956,-77.853808],[166.679517,-77.855529],[166.682325,-77.856819],[166.68353,-77.857184],[166.684531,-77.857718],[166.684571,-77.857928],[166.686316,-77.858396],[166.686563,-77.85865],[166.688127,-77.859041],[166.690273,-77.85918],[166.691523,-77.859126],[166.692276,-77.859],[166.692273,-77.858793],[166.693199,-77.858519],[166.693919,-77.858074],[166.69354,-77.857916],[166.692507,-77.857743],[166.692878,-77.857312],[166.69225,-77.857042],[166.693845,-77.856686],[166.694478,-77.85586],[166.695828,-77.855327],[166.695976,-77.855043],[166.69642,-77.855007],[166.695683,-77.854787],[166.69698,-77.854708],[166.698079,-77.854546],[166.699768,-77.853735],[166.703688,-77.852948],[166.704782,-77.853053],[166.706385,-77.852997],[166.707105,-77.853131],[166.707304,-77.853301],[166.708866,-77.853167],[166.709614,-77.853213],[166.709431,-77.852913],[166.708592,-77.852697],[166.705884,-77.85234],[166.704988,-77.852127],[166.705254,-77.851245],[166.706075,-77.850867]]}},
{"type":"Feature","properties":{"mountain_slug":"mount-erebus","name":"Observation Hill Trail","length_km":0.65,"elevation_gain_m":173,"source":"© OpenStreetMap contributors (ODbL), via Overture Maps"},"geometry":{"type":"LineString","coordinates":[[166.678173,-77.848187],[166.679517,-77.848898],[166.682346,-77.849277],[166.683211,-77.849481],[166.683366,-77.849565],[166.68299,-77.849687],[166.685101,-77.850016],[166.685246,-77.850234],[166.685565,-77.850237],[166.685462,-77.850343],[166.687424,-77.850436],[166.688228,-77.850674],[166.688768,-77.851058],[166.690744,-77.851348],[166.69272,-77.851514],[166.694052,-77.851803],[166.694523,-77.852122]]}}
]}
