{
  "type": "FeatureCollection",
  "attribution": "© OpenStreetMap contributors",
  "license": "ODbL-1.0",
  "source": "https://www.openstreetmap.org/copyright",
  "features": [
    {
      "type": "Feature",
      "properties": {
        "mountain_slug": "white-cliffs-of-dover",
        "name": "King Charles III England Coast Path: Folkestone to Ramsgate",
        "length_km": 5.93,
        "elevation_gain_m": 210,
        "source": "© OpenStreetMap contributors"
      },
      "geometry": {
        "type": "LineString",
        "coordinates": [
          [
            1.32277,
            51.12509
          ],
          [
            1.32357,
            51.12514
          ],
          [
            1.32357,
            51.12532
          ],
          [
            1.32348,
            51.12532
          ],
          [
            1.32347,
            51.12545
          ],
          [
            1.32317,
            51.12543
          ],
          [
            1.32361,
            51.12567
          ],
          [
            1.32447,
            51.12601
          ],
          [
            1.32661,
            51.12665
          ],
          [
            1.32671,
            51.12664
          ],
          [
            1.32766,
            51.12707
          ],
          [
            1.3279,
            51.12736
          ],
          [
            1.32876,
            51.12774
          ],
          [
            1.3297,
            51.12827
          ],
          [
            1.33016,
            51.12847
          ],
          [
            1.3305,
            51.12872
          ],
          [
            1.33134,
            51.12912
          ],
          [
            1.33255,
            51.12988
          ],
          [
            1.33269,
            51.12983
          ],
          [
            1.33284,
            51.12986
          ],
          [
            1.33296,
            51.12998
          ],
          [
            1.3337,
            51.13036
          ],
          [
            1.33414,
            51.1303
          ],
          [
            1.3344,
            51.13046
          ],
          [
            1.33622,
            51.13098
          ],
          [
            1.33671,
            51.13098
          ],
          [
            1.34013,
            51.13123
          ],
          [
            1.34075,
            51.13131
          ],
          [
            1.34086,
            51.13129
          ],
          [
            1.34218,
            51.13144
          ],
          [
            1.3435,
            51.13207
          ],
          [
            1.34396,
            51.13224
          ],
          [
            1.34457,
            51.13265
          ],
          [
            1.34482,
            51.13303
          ],
          [
            1.34484,
            51.1335
          ],
          [
            1.34508,
            51.13356
          ],
          [
            1.34526,
            51.13369
          ],
          [
            1.34566,
            51.1345
          ],
          [
            1.3462,
            51.13455
          ],
          [
            1.34682,
            51.13446
          ],
          [
            1.3473,
            51.13462
          ],
          [
            1.34748,
            51.13484
          ],
          [
            1.3486,
            51.13508
          ],
          [
            1.34898,
            51.135
          ],
          [
            1.34938,
            51.13484
          ],
          [
            1.35036,
            51.13455
          ],
          [
            1.35083,
            51.13449
          ],
          [
            1.35165,
            51.1342
          ],
          [
            1.35268,
            51.13419
          ],
          [
            1.35301,
            51.13423
          ],
          [
            1.35458,
            51.13478
          ],
          [
            1.3553,
            51.13497
          ],
          [
            1.35589,
            51.13507
          ],
          [
            1.35713,
            51.13516
          ],
          [
            1.35971,
            51.13565
          ],
          [
            1.36052,
            51.13607
          ],
          [
            1.36094,
            51.13647
          ],
          [
            1.36141,
            51.1367
          ],
          [
            1.36269,
            51.13714
          ],
          [
            1.3631,
            51.13722
          ],
          [
            1.36363,
            51.13722
          ],
          [
            1.36397,
            51.13726
          ],
          [
            1.36442,
            51.13722
          ],
          [
            1.36521,
            51.13703
          ],
          [
            1.36537,
            51.13704
          ],
          [
            1.36574,
            51.13715
          ],
          [
            1.3669,
            51.13736
          ],
          [
            1.36866,
            51.13799
          ],
          [
            1.36997,
            51.13858
          ],
          [
            1.37106,
            51.13898
          ],
          [
            1.37166,
            51.13941
          ],
          [
            1.37259,
            51.13982
          ],
          [
            1.37249,
            51.13999
          ],
          [
            1.37214,
            51.14026
          ],
          [
            1.37209,
            51.14038
          ],
          [
            1.37127,
            51.14104
          ],
          [
            1.37144,
            51.14108
          ],
          [
            1.37209,
            51.14144
          ],
          [
            1.37241,
            51.14131
          ],
          [
            1.37263,
            51.14128
          ],
          [
            1.37365,
            51.14138
          ],
          [
            1.37502,
            51.14182
          ],
          [
            1.37729,
            51.14274
          ],
          [
            1.37767,
            51.14269
          ],
          [
            1.37842,
            51.14239
          ],
          [
            1.37855,
            51.14247
          ],
          [
            1.37932,
            51.14309
          ],
          [
            1.37954,
            51.14335
          ],
          [
            1.38066,
            51.14418
          ],
          [
            1.38292,
            51.14639
          ],
          [
            1.38308,
            51.14691
          ],
          [
            1.38296,
            51.14698
          ],
          [
            1.38266,
            51.14702
          ],
          [
            1.38137,
            51.14685
          ],
          [
            1.38149,
            51.14705
          ],
          [
            1.38245,
            51.14788
          ],
          [
            1.38268,
            51.14835
          ]
        ]
      }
    },
    {
      "type": "Feature",
      "properties": {
        "mountain_slug": "white-cliffs-of-dover",
        "name": "Visitor Centre to Langdon Stairs Trail, White Cliffs",
        "length_km": 1.59,
        "elevation_gain_m": 92,
        "source": "© OpenStreetMap contributors"
      },
      "geometry": {
        "type": "LineString",
        "coordinates": [
          [
            1.35105,
            51.13367
          ],
          [
            1.35142,
            51.13379
          ],
          [
            1.35093,
            51.13376
          ],
          [
            1.35144,
            51.13391
          ],
          [
            1.35087,
            51.13387
          ],
          [
            1.35139,
            51.13404
          ],
          [
            1.35059,
            51.13395
          ],
          [
            1.35054,
            51.13401
          ],
          [
            1.35084,
            51.13412
          ],
          [
            1.35148,
            51.13425
          ],
          [
            1.35083,
            51.13449
          ],
          [
            1.35036,
            51.13455
          ],
          [
            1.34938,
            51.13484
          ],
          [
            1.34898,
            51.135
          ],
          [
            1.3485,
            51.13508
          ],
          [
            1.34748,
            51.13484
          ],
          [
            1.3473,
            51.13462
          ],
          [
            1.34682,
            51.13446
          ],
          [
            1.3462,
            51.13455
          ],
          [
            1.34566,
            51.1345
          ],
          [
            1.34526,
            51.13369
          ],
          [
            1.34508,
            51.13356
          ],
          [
            1.34484,
            51.1335
          ],
          [
            1.34482,
            51.13305
          ],
          [
            1.34412,
            51.13254
          ],
          [
            1.34364,
            51.13228
          ],
          [
            1.34248,
            51.13191
          ],
          [
            1.34117,
            51.13154
          ],
          [
            1.3388,
            51.13153
          ],
          [
            1.3388,
            51.13158
          ],
          [
            1.33861,
            51.1316
          ],
          [
            1.33718,
            51.13151
          ],
          [
            1.33717,
            51.13161
          ],
          [
            1.33732,
            51.13163
          ]
        ]
      }
    },
    {
      "type": "Feature",
      "properties": {
        "mountain_slug": "white-cliffs-of-dover",
        "name": "Additional parking to Fan Bay and South Foreland Lighthouse Circular Trail, White Cliffs",
        "length_km": 1.15,
        "elevation_gain_m": 47,
        "source": "© OpenStreetMap contributors"
      },
      "geometry": {
        "type": "LineString",
        "coordinates": [
          [
            1.37087,
            51.14043
          ],
          [
            1.37074,
            51.14033
          ],
          [
            1.3708,
            51.14019
          ],
          [
            1.3707,
            51.14014
          ],
          [
            1.3712,
            51.13976
          ],
          [
            1.37086,
            51.13925
          ],
          [
            1.37075,
            51.13886
          ],
          [
            1.36997,
            51.13858
          ],
          [
            1.36866,
            51.13799
          ],
          [
            1.3669,
            51.13736
          ],
          [
            1.36521,
            51.13703
          ],
          [
            1.36415,
            51.13725
          ],
          [
            1.3631,
            51.13722
          ],
          [
            1.36269,
            51.13714
          ],
          [
            1.36203,
            51.13693
          ],
          [
            1.36141,
            51.1367
          ],
          [
            1.36088,
            51.13642
          ],
          [
            1.36077,
            51.13642
          ],
          [
            1.36065,
            51.13642
          ],
          [
            1.36052,
            51.13655
          ],
          [
            1.36032,
            51.13657
          ],
          [
            1.36059,
            51.13757
          ],
          [
            1.36056,
            51.1376
          ],
          [
            1.36063,
            51.13766
          ]
        ]
      }
    },
    {
      "type": "Feature",
      "properties": {
        "mountain_slug": "white-cliffs-of-dover",
        "name": "European walking route E2, UK, Dover-Calais ferry",
        "length_km": 4.35,
        "elevation_gain_m": 44,
        "source": "© OpenStreetMap contributors"
      },
      "geometry": {
        "type": "LineString",
        "coordinates": [
          [
            1.37147,
            51.11608
          ],
          [
            1.36685,
            51.1176
          ],
          [
            1.34636,
            51.12058
          ],
          [
            1.34397,
            51.12099
          ],
          [
            1.34258,
            51.121
          ],
          [
            1.341,
            51.12119
          ],
          [
            1.33984,
            51.12148
          ],
          [
            1.33851,
            51.12213
          ],
          [
            1.33819,
            51.12241
          ],
          [
            1.3366,
            51.12448
          ],
          [
            1.33577,
            51.12588
          ],
          [
            1.33514,
            51.12624
          ],
          [
            1.33486,
            51.12664
          ],
          [
            1.33503,
            51.12651
          ],
          [
            1.33592,
            51.1267
          ],
          [
            1.3358,
            51.12712
          ],
          [
            1.33567,
            51.1273
          ],
          [
            1.33591,
            51.12737
          ],
          [
            1.33599,
            51.12744
          ],
          [
            1.33604,
            51.12778
          ],
          [
            1.33578,
            51.12824
          ],
          [
            1.33601,
            51.12829
          ],
          [
            1.33624,
            51.12789
          ],
          [
            1.3364,
            51.12792
          ],
          [
            1.33647,
            51.12782
          ],
          [
            1.33777,
            51.12818
          ],
          [
            1.33752,
            51.12868
          ],
          [
            1.33777,
            51.12873
          ],
          [
            1.33802,
            51.12827
          ],
          [
            1.3382,
            51.12831
          ],
          [
            1.33831,
            51.12812
          ],
          [
            1.33918,
            51.12815
          ],
          [
            1.3391,
            51.12831
          ],
          [
            1.33927,
            51.12833
          ],
          [
            1.33887,
            51.12909
          ],
          [
            1.33888,
            51.12921
          ],
          [
            1.33901,
            51.12926
          ],
          [
            1.33894,
            51.12941
          ],
          [
            1.33855,
            51.12935
          ],
          [
            1.33838,
            51.12943
          ],
          [
            1.33828,
            51.12957
          ],
          [
            1.33803,
            51.12959
          ],
          [
            1.33819,
            51.12992
          ],
          [
            1.3385,
            51.12998
          ],
          [
            1.33853,
            51.13013
          ],
          [
            1.33844,
            51.13014
          ],
          [
            1.33851,
            51.13022
          ],
          [
            1.33845,
            51.13031
          ],
          [
            1.33678,
            51.13003
          ],
          [
            1.33456,
            51.12943
          ],
          [
            1.33463,
            51.12931
          ]
        ]
      }
    },
    {
      "type": "Feature",
      "properties": {
        "mountain_slug": "white-cliffs-of-dover",
        "name": "Dover Cruise Terminal to National Trust White Cliffs Visitor Centre Walking Trail, White Cliffs",
        "length_km": 1.37,
        "elevation_gain_m": 87,
        "source": "© OpenStreetMap contributors"
      },
      "geometry": {
        "type": "LineString",
        "coordinates": [
          [
            1.32277,
            51.12509
          ],
          [
            1.32351,
            51.12512
          ],
          [
            1.32359,
            51.12522
          ],
          [
            1.32357,
            51.12532
          ],
          [
            1.32348,
            51.12532
          ],
          [
            1.32347,
            51.12545
          ],
          [
            1.32446,
            51.12562
          ],
          [
            1.32598,
            51.12599
          ],
          [
            1.32671,
            51.12622
          ],
          [
            1.32681,
            51.12638
          ],
          [
            1.32681,
            51.12651
          ],
          [
            1.32671,
            51.12664
          ],
          [
            1.32766,
            51.12707
          ],
          [
            1.3279,
            51.12736
          ],
          [
            1.32876,
            51.12774
          ],
          [
            1.3297,
            51.12827
          ],
          [
            1.33036,
            51.12858
          ],
          [
            1.3305,
            51.12872
          ],
          [
            1.33134,
            51.12912
          ],
          [
            1.33276,
            51.13
          ],
          [
            1.33337,
            51.13053
          ],
          [
            1.33388,
            51.13091
          ],
          [
            1.3344,
            51.13105
          ],
          [
            1.33534,
            51.13116
          ],
          [
            1.3363,
            51.13139
          ],
          [
            1.33697,
            51.13144
          ],
          [
            1.33694,
            51.13148
          ],
          [
            1.337,
            51.13151
          ],
          [
            1.33718,
            51.13151
          ],
          [
            1.33717,
            51.13161
          ],
          [
            1.33732,
            51.13163
          ]
        ]
      }
    },
    {
      "type": "Feature",
      "properties": {
        "mountain_slug": "white-cliffs-of-dover",
        "name": "Seaview Road",
        "length_km": 0.57,
        "elevation_gain_m": 9,
        "source": "© OpenStreetMap contributors"
      },
      "geometry": {
        "type": "LineString",
        "coordinates": [
          [
            1.37362,
            51.14525
          ],
          [
            1.37087,
            51.14339
          ],
          [
            1.37053,
            51.1431
          ],
          [
            1.37051,
            51.14288
          ],
          [
            1.37057,
            51.1427
          ],
          [
            1.37195,
            51.14152
          ],
          [
            1.37212,
            51.14141
          ],
          [
            1.37241,
            51.14131
          ]
        ]
      }
    }
  ]
}
