{
  "type": "FeatureCollection",
  "attribution": "© OpenStreetMap contributors",
  "license": "ODbL-1.0",
  "source": "https://www.openstreetmap.org/copyright",
  "features": [
    {
      "type": "Feature",
      "properties": {
        "mountain_slug": "bukit-bendera",
        "name": "Rain Gauge 9 to Crag Hotel",
        "length_km": 1.63,
        "elevation_gain_m": null,
        "source": "© OpenStreetMap contributors"
      },
      "geometry": {
        "type": "LineString",
        "coordinates": [
          [
            100.27057,
            5.42903
          ],
          [
            100.27055,
            5.42912
          ],
          [
            100.27041,
            5.42921
          ],
          [
            100.27039,
            5.42927
          ],
          [
            100.27054,
            5.42935
          ],
          [
            100.27081,
            5.42945
          ],
          [
            100.2709,
            5.42955
          ],
          [
            100.27114,
            5.42963
          ],
          [
            100.27127,
            5.42974
          ],
          [
            100.27143,
            5.42983
          ],
          [
            100.27153,
            5.43001
          ],
          [
            100.27175,
            5.43018
          ],
          [
            100.27189,
            5.43026
          ],
          [
            100.27202,
            5.43038
          ],
          [
            100.27224,
            5.43073
          ],
          [
            100.27237,
            5.43104
          ],
          [
            100.27239,
            5.43127
          ],
          [
            100.27234,
            5.43149
          ],
          [
            100.27221,
            5.43171
          ],
          [
            100.27209,
            5.43195
          ],
          [
            100.27209,
            5.432
          ],
          [
            100.27194,
            5.43234
          ],
          [
            100.27181,
            5.43265
          ],
          [
            100.27186,
            5.4328
          ],
          [
            100.27187,
            5.43292
          ],
          [
            100.2718,
            5.43306
          ],
          [
            100.27173,
            5.43314
          ],
          [
            100.27171,
            5.43325
          ],
          [
            100.2716,
            5.43328
          ],
          [
            100.27144,
            5.43336
          ],
          [
            100.2713,
            5.43334
          ],
          [
            100.27119,
            5.43336
          ],
          [
            100.27105,
            5.43345
          ],
          [
            100.27094,
            5.43353
          ],
          [
            100.27087,
            5.43356
          ],
          [
            100.27075,
            5.43355
          ],
          [
            100.27065,
            5.43356
          ],
          [
            100.27061,
            5.4336
          ],
          [
            100.27055,
            5.43369
          ],
          [
            100.27049,
            5.43376
          ],
          [
            100.2704,
            5.43381
          ],
          [
            100.27032,
            5.43385
          ],
          [
            100.27022,
            5.43383
          ],
          [
            100.27014,
            5.43385
          ],
          [
            100.27003,
            5.43386
          ],
          [
            100.26998,
            5.4339
          ],
          [
            100.26993,
            5.43397
          ],
          [
            100.26992,
            5.43411
          ],
          [
            100.2699,
            5.43423
          ],
          [
            100.26986,
            5.43433
          ],
          [
            100.26981,
            5.43436
          ],
          [
            100.26968,
            5.43437
          ],
          [
            100.26959,
            5.43434
          ],
          [
            100.26954,
            5.43436
          ],
          [
            100.26943,
            5.43453
          ],
          [
            100.26933,
            5.43461
          ],
          [
            100.26925,
            5.43463
          ],
          [
            100.26908,
            5.4346
          ],
          [
            100.26897,
            5.43461
          ],
          [
            100.26882,
            5.43462
          ],
          [
            100.2687,
            5.43467
          ],
          [
            100.26865,
            5.43476
          ],
          [
            100.26865,
            5.43485
          ],
          [
            100.2686,
            5.43492
          ],
          [
            100.26849,
            5.43496
          ],
          [
            100.26828,
            5.43496
          ],
          [
            100.26815,
            5.43496
          ],
          [
            100.268,
            5.43495
          ],
          [
            100.26788,
            5.43495
          ],
          [
            100.26774,
            5.43494
          ],
          [
            100.26764,
            5.43492
          ],
          [
            100.26756,
            5.43485
          ],
          [
            100.26743,
            5.43472
          ],
          [
            100.26726,
            5.43466
          ],
          [
            100.26713,
            5.43464
          ],
          [
            100.26702,
            5.43462
          ],
          [
            100.26694,
            5.43463
          ],
          [
            100.26681,
            5.43463
          ],
          [
            100.26671,
            5.43464
          ],
          [
            100.26663,
            5.43464
          ],
          [
            100.26654,
            5.43465
          ],
          [
            100.26649,
            5.43464
          ],
          [
            100.2664,
            5.43462
          ],
          [
            100.26632,
            5.43463
          ],
          [
            100.26624,
            5.4346
          ],
          [
            100.26612,
            5.43454
          ],
          [
            100.26601,
            5.43447
          ],
          [
            100.26594,
            5.43441
          ],
          [
            100.26583,
            5.4343
          ],
          [
            100.26572,
            5.4342
          ],
          [
            100.26544,
            5.43395
          ],
          [
            100.26531,
            5.43381
          ],
          [
            100.26519,
            5.43374
          ],
          [
            100.26497,
            5.43366
          ],
          [
            100.26488,
            5.43361
          ],
          [
            100.26468,
            5.43355
          ],
          [
            100.26453,
            5.43354
          ],
          [
            100.26438,
            5.43353
          ],
          [
            100.26423,
            5.43354
          ],
          [
            100.2641,
            5.43357
          ],
          [
            100.264,
            5.4336
          ],
          [
            100.2639,
            5.4336
          ]
        ]
      }
    },
    {
      "type": "Feature",
      "properties": {
        "mountain_slug": "bukit-bendera",
        "name": "Penang Hill To Aqueduct - Batu Feringgi",
        "length_km": 1.48,
        "elevation_gain_m": null,
        "source": "© OpenStreetMap contributors"
      },
      "geometry": {
        "type": "LineString",
        "coordinates": [
          [
            100.2639,
            5.4336
          ],
          [
            100.26382,
            5.43352
          ],
          [
            100.26373,
            5.43351
          ],
          [
            100.26363,
            5.43348
          ],
          [
            100.26339,
            5.43325
          ],
          [
            100.26313,
            5.43303
          ],
          [
            100.26296,
            5.43285
          ],
          [
            100.26285,
            5.43276
          ],
          [
            100.26276,
            5.43272
          ],
          [
            100.26265,
            5.43273
          ],
          [
            100.26246,
            5.43276
          ],
          [
            100.26194,
            5.43277
          ],
          [
            100.26187,
            5.43276
          ],
          [
            100.26139,
            5.43242
          ],
          [
            100.2613,
            5.43238
          ],
          [
            100.26112,
            5.43231
          ],
          [
            100.26089,
            5.43213
          ],
          [
            100.26073,
            5.43197
          ],
          [
            100.26061,
            5.43179
          ],
          [
            100.26041,
            5.43147
          ],
          [
            100.26017,
            5.43108
          ],
          [
            100.26009,
            5.43095
          ],
          [
            100.25998,
            5.43084
          ],
          [
            100.25957,
            5.43058
          ],
          [
            100.25916,
            5.43034
          ],
          [
            100.25897,
            5.4302
          ],
          [
            100.25865,
            5.43018
          ],
          [
            100.2584,
            5.43023
          ],
          [
            100.25825,
            5.43029
          ],
          [
            100.25801,
            5.43034
          ],
          [
            100.2577,
            5.43029
          ],
          [
            100.25738,
            5.43035
          ],
          [
            100.25715,
            5.43035
          ],
          [
            100.257,
            5.43028
          ],
          [
            100.25676,
            5.43027
          ],
          [
            100.25653,
            5.43034
          ],
          [
            100.25602,
            5.43042
          ],
          [
            100.25584,
            5.43044
          ],
          [
            100.25539,
            5.43043
          ],
          [
            100.25506,
            5.43034
          ],
          [
            100.25484,
            5.43028
          ],
          [
            100.25462,
            5.43018
          ],
          [
            100.2545,
            5.4301
          ],
          [
            100.25439,
            5.42999
          ],
          [
            100.25433,
            5.42989
          ],
          [
            100.25431,
            5.42968
          ],
          [
            100.25426,
            5.42955
          ],
          [
            100.25413,
            5.4293
          ],
          [
            100.25399,
            5.42892
          ],
          [
            100.25373,
            5.4287
          ],
          [
            100.25343,
            5.42853
          ],
          [
            100.25314,
            5.42841
          ],
          [
            100.25307,
            5.42837
          ]
        ]
      }
    },
    {
      "type": "Feature",
      "properties": {
        "mountain_slug": "bukit-bendera",
        "name": "Zi Zai T-Junction to RG9",
        "length_km": 1.18,
        "elevation_gain_m": null,
        "source": "© OpenStreetMap contributors"
      },
      "geometry": {
        "type": "LineString",
        "coordinates": [
          [
            100.27074,
            5.43959
          ],
          [
            100.27062,
            5.43958
          ],
          [
            100.27042,
            5.43949
          ],
          [
            100.27024,
            5.43938
          ],
          [
            100.26994,
            5.43932
          ],
          [
            100.26972,
            5.43927
          ],
          [
            100.26956,
            5.43913
          ],
          [
            100.26944,
            5.43913
          ],
          [
            100.26924,
            5.43913
          ],
          [
            100.26906,
            5.43909
          ],
          [
            100.26882,
            5.43891
          ],
          [
            100.26865,
            5.43887
          ],
          [
            100.26846,
            5.43878
          ],
          [
            100.26823,
            5.43868
          ],
          [
            100.26811,
            5.43863
          ],
          [
            100.26802,
            5.43854
          ],
          [
            100.26792,
            5.43838
          ],
          [
            100.26783,
            5.43816
          ],
          [
            100.26774,
            5.4379
          ],
          [
            100.26752,
            5.43774
          ],
          [
            100.26736,
            5.4376
          ],
          [
            100.26717,
            5.43751
          ],
          [
            100.26707,
            5.43745
          ],
          [
            100.26694,
            5.43743
          ],
          [
            100.26677,
            5.43737
          ],
          [
            100.26655,
            5.43721
          ],
          [
            100.26643,
            5.43717
          ],
          [
            100.26627,
            5.43714
          ],
          [
            100.26609,
            5.43716
          ],
          [
            100.26589,
            5.43714
          ],
          [
            100.2657,
            5.43712
          ],
          [
            100.2655,
            5.43711
          ],
          [
            100.26538,
            5.43705
          ],
          [
            100.26525,
            5.43695
          ],
          [
            100.26507,
            5.43674
          ],
          [
            100.26498,
            5.43656
          ],
          [
            100.26494,
            5.43607
          ],
          [
            100.26483,
            5.4358
          ],
          [
            100.26472,
            5.43564
          ],
          [
            100.26462,
            5.43557
          ],
          [
            100.26437,
            5.43549
          ],
          [
            100.2642,
            5.43543
          ],
          [
            100.26391,
            5.4353
          ],
          [
            100.26382,
            5.43525
          ],
          [
            100.26366,
            5.43508
          ],
          [
            100.26359,
            5.4349
          ],
          [
            100.26359,
            5.4347
          ],
          [
            100.26363,
            5.43447
          ],
          [
            100.26376,
            5.43428
          ],
          [
            100.26384,
            5.43401
          ],
          [
            100.26388,
            5.43375
          ],
          [
            100.2639,
            5.4336
          ]
        ]
      }
    }
  ]
}
