{
  "type": "FeatureCollection",
  "attribution": "© OpenStreetMap contributors",
  "license": "ODbL-1.0",
  "source": "https://www.openstreetmap.org/copyright",
  "features": [
    {
      "type": "Feature",
      "properties": {
        "mountain_slug": "gnipen",
        "name": "Schwyzer Höhenweg - Etappe 3",
        "length_km": 6.82,
        "elevation_gain_m": 1015,
        "source": "© OpenStreetMap contributors"
      },
      "geometry": {
        "type": "LineString",
        "coordinates": [
          [
            8.54919,
            47.06132
          ],
          [
            8.54908,
            47.0616
          ],
          [
            8.54793,
            47.06256
          ],
          [
            8.54761,
            47.06314
          ],
          [
            8.54681,
            47.06385
          ],
          [
            8.54652,
            47.0642
          ],
          [
            8.54615,
            47.0649
          ],
          [
            8.54616,
            47.06494
          ],
          [
            8.54621,
            47.06492
          ],
          [
            8.54653,
            47.0646
          ],
          [
            8.54677,
            47.06463
          ],
          [
            8.54696,
            47.06455
          ],
          [
            8.54743,
            47.06448
          ],
          [
            8.54812,
            47.06448
          ],
          [
            8.54872,
            47.0643
          ],
          [
            8.54891,
            47.06419
          ],
          [
            8.5489,
            47.06435
          ],
          [
            8.54841,
            47.06516
          ],
          [
            8.54826,
            47.0657
          ],
          [
            8.54785,
            47.06627
          ],
          [
            8.54775,
            47.06675
          ],
          [
            8.54752,
            47.06712
          ],
          [
            8.5474,
            47.06777
          ],
          [
            8.54726,
            47.06796
          ],
          [
            8.54734,
            47.06828
          ],
          [
            8.54717,
            47.06878
          ],
          [
            8.54766,
            47.06847
          ],
          [
            8.54786,
            47.06839
          ],
          [
            8.54793,
            47.06841
          ],
          [
            8.54793,
            47.06855
          ],
          [
            8.54778,
            47.06876
          ],
          [
            8.54772,
            47.06918
          ],
          [
            8.54797,
            47.06917
          ],
          [
            8.54864,
            47.06877
          ],
          [
            8.54878,
            47.0686
          ],
          [
            8.54894,
            47.06852
          ],
          [
            8.549,
            47.0689
          ],
          [
            8.5489,
            47.0692
          ],
          [
            8.54903,
            47.06968
          ],
          [
            8.54902,
            47.06987
          ],
          [
            8.54915,
            47.07017
          ],
          [
            8.54925,
            47.0709
          ],
          [
            8.54925,
            47.0711
          ],
          [
            8.54909,
            47.07128
          ],
          [
            8.54907,
            47.07141
          ],
          [
            8.54908,
            47.07208
          ],
          [
            8.54886,
            47.07239
          ],
          [
            8.54822,
            47.07258
          ],
          [
            8.54779,
            47.07279
          ],
          [
            8.54749,
            47.07303
          ],
          [
            8.54712,
            47.07313
          ],
          [
            8.5471,
            47.07325
          ],
          [
            8.54725,
            47.07338
          ],
          [
            8.54755,
            47.07346
          ],
          [
            8.54761,
            47.07339
          ],
          [
            8.54828,
            47.07315
          ],
          [
            8.54849,
            47.0731
          ],
          [
            8.54871,
            47.07312
          ],
          [
            8.5491,
            47.07301
          ],
          [
            8.5492,
            47.07303
          ],
          [
            8.54898,
            47.07329
          ],
          [
            8.54895,
            47.07342
          ],
          [
            8.54902,
            47.07398
          ],
          [
            8.54922,
            47.07453
          ],
          [
            8.54943,
            47.07487
          ],
          [
            8.55058,
            47.07609
          ],
          [
            8.55072,
            47.07651
          ],
          [
            8.55066,
            47.07681
          ],
          [
            8.55084,
            47.07738
          ],
          [
            8.5516,
            47.07822
          ],
          [
            8.55177,
            47.0787
          ],
          [
            8.55215,
            47.07913
          ],
          [
            8.55265,
            47.07937
          ],
          [
            8.55359,
            47.07969
          ],
          [
            8.5542,
            47.08002
          ],
          [
            8.55444,
            47.0802
          ],
          [
            8.55575,
            47.0809
          ],
          [
            8.55645,
            47.08098
          ],
          [
            8.557,
            47.08097
          ],
          [
            8.55761,
            47.08141
          ],
          [
            8.55773,
            47.08134
          ],
          [
            8.55801,
            47.08153
          ],
          [
            8.55816,
            47.08154
          ],
          [
            8.55863,
            47.08181
          ],
          [
            8.55875,
            47.08168
          ],
          [
            8.55885,
            47.08135
          ],
          [
            8.55902,
            47.08136
          ],
          [
            8.55932,
            47.08121
          ],
          [
            8.55955,
            47.08085
          ],
          [
            8.5597,
            47.08083
          ],
          [
            8.55998,
            47.08092
          ],
          [
            8.56007,
            47.08091
          ],
          [
            8.56019,
            47.08076
          ],
          [
            8.56034,
            47.08089
          ],
          [
            8.56107,
            47.0812
          ],
          [
            8.56189,
            47.08146
          ],
          [
            8.56334,
            47.08177
          ],
          [
            8.56341,
            47.08163
          ],
          [
            8.56354,
            47.08154
          ],
          [
            8.56451,
            47.08135
          ],
          [
            8.56506,
            47.08112
          ],
          [
            8.56582,
            47.08098
          ],
          [
            8.56835,
            47.08106
          ],
          [
            8.56939,
            47.08118
          ],
          [
            8.56968,
            47.08129
          ],
          [
            8.57008,
            47.08154
          ],
          [
            8.57082,
            47.08181
          ],
          [
            8.5712,
            47.08189
          ],
          [
            8.57185,
            47.0819
          ],
          [
            8.57323,
            47.08201
          ],
          [
            8.57375,
            47.08211
          ],
          [
            8.57426,
            47.08226
          ],
          [
            8.57537,
            47.08276
          ],
          [
            8.57643,
            47.08351
          ],
          [
            8.57704,
            47.08376
          ],
          [
            8.57758,
            47.08389
          ],
          [
            8.57785,
            47.08385
          ],
          [
            8.57832,
            47.08385
          ],
          [
            8.5796,
            47.08393
          ],
          [
            8.58106,
            47.08395
          ],
          [
            8.58173,
            47.0841
          ],
          [
            8.58252,
            47.08433
          ],
          [
            8.58397,
            47.08483
          ],
          [
            8.58527,
            47.08546
          ],
          [
            8.58713,
            47.08563
          ],
          [
            8.58741,
            47.08574
          ],
          [
            8.58855,
            47.08592
          ],
          [
            8.5901,
            47.08642
          ],
          [
            8.59108,
            47.0863
          ],
          [
            8.59161,
            47.08613
          ],
          [
            8.59177,
            47.08595
          ],
          [
            8.59282,
            47.08579
          ],
          [
            8.59457,
            47.08571
          ],
          [
            8.5948,
            47.08581
          ],
          [
            8.5956,
            47.08579
          ]
        ]
      }
    },
    {
      "type": "Feature",
      "properties": {
        "mountain_slug": "gnipen",
        "name": "Warthstrasse",
        "length_km": 2.92,
        "elevation_gain_m": 347,
        "source": "© OpenStreetMap contributors"
      },
      "geometry": {
        "type": "LineString",
        "coordinates": [
          [
            8.554,
            47.08822
          ],
          [
            8.55448,
            47.08857
          ],
          [
            8.55481,
            47.08876
          ],
          [
            8.55592,
            47.08903
          ],
          [
            8.55648,
            47.08926
          ],
          [
            8.55698,
            47.08959
          ],
          [
            8.55718,
            47.08992
          ],
          [
            8.5573,
            47.08997
          ],
          [
            8.55747,
            47.08989
          ],
          [
            8.55762,
            47.08905
          ],
          [
            8.55759,
            47.08879
          ],
          [
            8.55738,
            47.08823
          ],
          [
            8.55738,
            47.08795
          ],
          [
            8.55705,
            47.08774
          ],
          [
            8.55681,
            47.08749
          ],
          [
            8.55638,
            47.08729
          ],
          [
            8.55556,
            47.08663
          ],
          [
            8.55482,
            47.08583
          ],
          [
            8.55432,
            47.0851
          ],
          [
            8.55399,
            47.08501
          ],
          [
            8.55279,
            47.08495
          ],
          [
            8.55248,
            47.08488
          ],
          [
            8.5521,
            47.08434
          ],
          [
            8.55159,
            47.08344
          ],
          [
            8.55154,
            47.08321
          ],
          [
            8.55165,
            47.08292
          ],
          [
            8.55162,
            47.08281
          ],
          [
            8.55121,
            47.08219
          ],
          [
            8.55115,
            47.08192
          ],
          [
            8.55116,
            47.08141
          ],
          [
            8.55108,
            47.08122
          ],
          [
            8.5507,
            47.08098
          ],
          [
            8.55034,
            47.08085
          ],
          [
            8.54938,
            47.08072
          ],
          [
            8.54913,
            47.0806
          ],
          [
            8.5491,
            47.0804
          ],
          [
            8.54931,
            47.07941
          ],
          [
            8.54956,
            47.07882
          ],
          [
            8.5499,
            47.07828
          ],
          [
            8.55031,
            47.07696
          ],
          [
            8.55042,
            47.07686
          ],
          [
            8.55058,
            47.07681
          ],
          [
            8.5509,
            47.07684
          ],
          [
            8.55225,
            47.07734
          ],
          [
            8.55347,
            47.0782
          ],
          [
            8.55391,
            47.07867
          ],
          [
            8.55454,
            47.07904
          ],
          [
            8.5544,
            47.07911
          ],
          [
            8.554,
            47.07907
          ],
          [
            8.55389,
            47.07914
          ],
          [
            8.55431,
            47.07931
          ],
          [
            8.55469,
            47.07961
          ],
          [
            8.55479,
            47.07963
          ],
          [
            8.55505,
            47.07956
          ],
          [
            8.55554,
            47.07987
          ],
          [
            8.55497,
            47.07983
          ],
          [
            8.55461,
            47.07988
          ],
          [
            8.55366,
            47.07973
          ]
        ]
      }
    },
    {
      "type": "Feature",
      "properties": {
        "mountain_slug": "gnipen",
        "name": "Heumoosegg - Rufiberg",
        "length_km": 1.93,
        "elevation_gain_m": 157,
        "source": "© OpenStreetMap contributors"
      },
      "geometry": {
        "type": "LineString",
        "coordinates": [
          [
            8.54999,
            47.08814
          ],
          [
            8.55179,
            47.08809
          ],
          [
            8.55349,
            47.08795
          ],
          [
            8.55383,
            47.08807
          ],
          [
            8.55448,
            47.08857
          ],
          [
            8.55481,
            47.08876
          ],
          [
            8.55626,
            47.08914
          ],
          [
            8.55683,
            47.08947
          ],
          [
            8.55711,
            47.08974
          ],
          [
            8.55718,
            47.08992
          ],
          [
            8.55653,
            47.09018
          ],
          [
            8.55615,
            47.09048
          ],
          [
            8.55615,
            47.09063
          ],
          [
            8.55699,
            47.09104
          ],
          [
            8.55805,
            47.09172
          ],
          [
            8.55857,
            47.09212
          ],
          [
            8.55938,
            47.09328
          ],
          [
            8.55954,
            47.09368
          ],
          [
            8.55973,
            47.0937
          ],
          [
            8.55972,
            47.094
          ],
          [
            8.5598,
            47.09416
          ],
          [
            8.56022,
            47.09469
          ],
          [
            8.55999,
            47.09503
          ],
          [
            8.55957,
            47.09546
          ],
          [
            8.55966,
            47.09564
          ],
          [
            8.55932,
            47.09565
          ],
          [
            8.55886,
            47.09575
          ],
          [
            8.55876,
            47.09583
          ],
          [
            8.55861,
            47.09614
          ],
          [
            8.55867,
            47.09715
          ],
          [
            8.55879,
            47.09731
          ],
          [
            8.55868,
            47.09753
          ],
          [
            8.55868,
            47.09814
          ],
          [
            8.55856,
            47.09835
          ],
          [
            8.55815,
            47.09865
          ],
          [
            8.55738,
            47.09897
          ]
        ]
      }
    },
    {
      "type": "Feature",
      "properties": {
        "mountain_slug": "gnipen",
        "name": "Obhegkapelle - Wildspitz",
        "length_km": 1.84,
        "elevation_gain_m": 327,
        "source": "© OpenStreetMap contributors"
      },
      "geometry": {
        "type": "LineString",
        "coordinates": [
          [
            8.58182,
            47.07634
          ],
          [
            8.58195,
            47.07635
          ],
          [
            8.58218,
            47.07628
          ],
          [
            8.58241,
            47.07635
          ],
          [
            8.5827,
            47.07704
          ],
          [
            8.5831,
            47.07771
          ],
          [
            8.58282,
            47.07841
          ],
          [
            8.58256,
            47.07855
          ],
          [
            8.58241,
            47.07877
          ],
          [
            8.58219,
            47.07894
          ],
          [
            8.58161,
            47.07926
          ],
          [
            8.58068,
            47.07943
          ],
          [
            8.58057,
            47.07951
          ],
          [
            8.58055,
            47.07976
          ],
          [
            8.58064,
            47.0799
          ],
          [
            8.5811,
            47.08012
          ],
          [
            8.58066,
            47.08021
          ],
          [
            8.58039,
            47.08022
          ],
          [
            8.58088,
            47.08042
          ],
          [
            8.58086,
            47.08048
          ],
          [
            8.58042,
            47.08056
          ],
          [
            8.58051,
            47.08066
          ],
          [
            8.58075,
            47.08077
          ],
          [
            8.58085,
            47.08097
          ],
          [
            8.57996,
            47.08101
          ],
          [
            8.57917,
            47.08121
          ],
          [
            8.57902,
            47.08111
          ],
          [
            8.57873,
            47.08111
          ],
          [
            8.57867,
            47.0812
          ],
          [
            8.57883,
            47.08139
          ],
          [
            8.57869,
            47.08146
          ],
          [
            8.57764,
            47.0815
          ],
          [
            8.5771,
            47.08156
          ],
          [
            8.57729,
            47.08175
          ],
          [
            8.5792,
            47.08284
          ],
          [
            8.57967,
            47.08321
          ],
          [
            8.58059,
            47.08377
          ],
          [
            8.58102,
            47.0839
          ],
          [
            8.58106,
            47.08395
          ],
          [
            8.57785,
            47.08385
          ],
          [
            8.57742,
            47.08394
          ],
          [
            8.57733,
            47.08406
          ]
        ]
      }
    },
    {
      "type": "Feature",
      "properties": {
        "mountain_slug": "gnipen",
        "name": "Steigenbachstrasse",
        "length_km": 1.14,
        "elevation_gain_m": 56,
        "source": "© OpenStreetMap contributors"
      },
      "geometry": {
        "type": "LineString",
        "coordinates": [
          [
            8.54162,
            47.08201
          ],
          [
            8.54178,
            47.08224
          ],
          [
            8.54241,
            47.08241
          ],
          [
            8.5425,
            47.08235
          ],
          [
            8.54232,
            47.08215
          ],
          [
            8.54228,
            47.08203
          ],
          [
            8.54233,
            47.08195
          ],
          [
            8.54242,
            47.08195
          ],
          [
            8.54302,
            47.08235
          ],
          [
            8.5444,
            47.08297
          ],
          [
            8.54471,
            47.08318
          ],
          [
            8.54509,
            47.08332
          ],
          [
            8.54528,
            47.08332
          ],
          [
            8.5456,
            47.08321
          ],
          [
            8.5459,
            47.0832
          ],
          [
            8.54629,
            47.08335
          ],
          [
            8.54641,
            47.08346
          ],
          [
            8.54662,
            47.08395
          ],
          [
            8.54675,
            47.08411
          ],
          [
            8.5483,
            47.08532
          ],
          [
            8.54866,
            47.08736
          ],
          [
            8.54882,
            47.08751
          ],
          [
            8.54999,
            47.08814
          ]
        ]
      }
    },
    {
      "type": "Feature",
      "properties": {
        "mountain_slug": "gnipen",
        "name": "Goldauer Bergsturzspur",
        "length_km": 4.42,
        "elevation_gain_m": 439,
        "source": "© OpenStreetMap contributors"
      },
      "geometry": {
        "type": "LineString",
        "coordinates": [
          [
            8.56105,
            47.05923
          ],
          [
            8.56097,
            47.05948
          ],
          [
            8.56097,
            47.0601
          ],
          [
            8.56129,
            47.06084
          ],
          [
            8.56132,
            47.06114
          ],
          [
            8.56087,
            47.06185
          ],
          [
            8.56087,
            47.06199
          ],
          [
            8.56076,
            47.0621
          ],
          [
            8.56064,
            47.06246
          ],
          [
            8.56073,
            47.06265
          ],
          [
            8.56094,
            47.06282
          ],
          [
            8.56129,
            47.0629
          ],
          [
            8.56149,
            47.06311
          ],
          [
            8.56153,
            47.06323
          ],
          [
            8.56143,
            47.06342
          ],
          [
            8.56147,
            47.06351
          ],
          [
            8.56158,
            47.06376
          ],
          [
            8.56187,
            47.06393
          ],
          [
            8.56173,
            47.06429
          ],
          [
            8.56157,
            47.06437
          ],
          [
            8.56158,
            47.06448
          ],
          [
            8.56133,
            47.0646
          ],
          [
            8.5613,
            47.06476
          ],
          [
            8.56109,
            47.0649
          ],
          [
            8.56108,
            47.06499
          ],
          [
            8.56089,
            47.06507
          ],
          [
            8.56079,
            47.06532
          ],
          [
            8.56085,
            47.06544
          ],
          [
            8.56104,
            47.06556
          ],
          [
            8.56099,
            47.06581
          ],
          [
            8.56138,
            47.0663
          ],
          [
            8.56128,
            47.06639
          ],
          [
            8.56137,
            47.06659
          ],
          [
            8.56172,
            47.06691
          ],
          [
            8.56183,
            47.06695
          ],
          [
            8.56189,
            47.0671
          ],
          [
            8.56224,
            47.06742
          ],
          [
            8.56214,
            47.06762
          ],
          [
            8.56241,
            47.06778
          ],
          [
            8.56224,
            47.06789
          ],
          [
            8.56157,
            47.06799
          ],
          [
            8.56126,
            47.06818
          ],
          [
            8.56051,
            47.06831
          ],
          [
            8.56027,
            47.06829
          ],
          [
            8.56004,
            47.06838
          ],
          [
            8.55957,
            47.06829
          ],
          [
            8.55891,
            47.06826
          ],
          [
            8.55875,
            47.0684
          ],
          [
            8.55872,
            47.0685
          ],
          [
            8.55875,
            47.06897
          ],
          [
            8.55881,
            47.06924
          ],
          [
            8.55902,
            47.06951
          ],
          [
            8.55896,
            47.0697
          ],
          [
            8.55906,
            47.06995
          ],
          [
            8.5587,
            47.07072
          ],
          [
            8.55893,
            47.07122
          ],
          [
            8.55844,
            47.07107
          ],
          [
            8.55821,
            47.07114
          ],
          [
            8.5577,
            47.07149
          ],
          [
            8.5573,
            47.0716
          ],
          [
            8.55592,
            47.0717
          ],
          [
            8.55552,
            47.07205
          ],
          [
            8.55519,
            47.07215
          ],
          [
            8.55495,
            47.07214
          ],
          [
            8.55472,
            47.07228
          ],
          [
            8.55449,
            47.07235
          ],
          [
            8.55331,
            47.07225
          ],
          [
            8.55269,
            47.07244
          ],
          [
            8.55209,
            47.07223
          ],
          [
            8.55193,
            47.0721
          ],
          [
            8.55162,
            47.07213
          ],
          [
            8.55131,
            47.07198
          ],
          [
            8.55112,
            47.07195
          ],
          [
            8.55097,
            47.07174
          ],
          [
            8.55034,
            47.0716
          ],
          [
            8.54964,
            47.07131
          ],
          [
            8.54925,
            47.0711
          ],
          [
            8.54915,
            47.07017
          ],
          [
            8.54902,
            47.06987
          ],
          [
            8.54903,
            47.06968
          ],
          [
            8.5489,
            47.0692
          ],
          [
            8.549,
            47.0689
          ],
          [
            8.54894,
            47.06852
          ],
          [
            8.54878,
            47.0686
          ],
          [
            8.54864,
            47.06877
          ],
          [
            8.54797,
            47.06917
          ],
          [
            8.54772,
            47.06918
          ],
          [
            8.54778,
            47.06876
          ],
          [
            8.54793,
            47.06855
          ],
          [
            8.54793,
            47.06841
          ],
          [
            8.54786,
            47.06839
          ],
          [
            8.54766,
            47.06847
          ],
          [
            8.54717,
            47.06878
          ],
          [
            8.54734,
            47.06828
          ],
          [
            8.54726,
            47.06796
          ],
          [
            8.5474,
            47.06777
          ],
          [
            8.54752,
            47.06712
          ],
          [
            8.54775,
            47.06675
          ],
          [
            8.54785,
            47.06627
          ],
          [
            8.54826,
            47.0657
          ],
          [
            8.54841,
            47.06516
          ],
          [
            8.5489,
            47.06435
          ],
          [
            8.54891,
            47.06419
          ],
          [
            8.54872,
            47.0643
          ],
          [
            8.54812,
            47.06448
          ],
          [
            8.54743,
            47.06448
          ],
          [
            8.54696,
            47.06455
          ],
          [
            8.54677,
            47.06463
          ],
          [
            8.54653,
            47.0646
          ],
          [
            8.54621,
            47.06492
          ],
          [
            8.54616,
            47.06494
          ],
          [
            8.54615,
            47.0649
          ],
          [
            8.54652,
            47.0642
          ],
          [
            8.54681,
            47.06385
          ],
          [
            8.54761,
            47.06314
          ],
          [
            8.54793,
            47.06256
          ],
          [
            8.54908,
            47.0616
          ],
          [
            8.54919,
            47.06132
          ]
        ]
      }
    },
    {
      "type": "Feature",
      "properties": {
        "mountain_slug": "gnipen",
        "name": "Rufiberg - Utenberg",
        "length_km": 2.34,
        "elevation_gain_m": 337,
        "source": "© OpenStreetMap contributors"
      },
      "geometry": {
        "type": "LineString",
        "coordinates": [
          [
            8.53473,
            47.09296
          ],
          [
            8.5349,
            47.09278
          ],
          [
            8.53533,
            47.09274
          ],
          [
            8.5355,
            47.09278
          ],
          [
            8.53604,
            47.09309
          ],
          [
            8.53634,
            47.09312
          ],
          [
            8.53647,
            47.09309
          ],
          [
            8.53666,
            47.09293
          ],
          [
            8.53716,
            47.0927
          ],
          [
            8.53777,
            47.09232
          ],
          [
            8.53802,
            47.09226
          ],
          [
            8.53808,
            47.09229
          ],
          [
            8.53825,
            47.09279
          ],
          [
            8.53846,
            47.09293
          ],
          [
            8.53855,
            47.09292
          ],
          [
            8.53869,
            47.09272
          ],
          [
            8.53888,
            47.09259
          ],
          [
            8.53944,
            47.09242
          ],
          [
            8.53962,
            47.09242
          ],
          [
            8.53996,
            47.0925
          ],
          [
            8.5403,
            47.09277
          ],
          [
            8.54064,
            47.09287
          ],
          [
            8.54078,
            47.09302
          ],
          [
            8.54113,
            47.09325
          ],
          [
            8.54179,
            47.09341
          ],
          [
            8.54191,
            47.09352
          ],
          [
            8.54292,
            47.09402
          ],
          [
            8.54329,
            47.09391
          ],
          [
            8.54329,
            47.09383
          ],
          [
            8.54304,
            47.09366
          ],
          [
            8.54307,
            47.0936
          ],
          [
            8.54389,
            47.09389
          ],
          [
            8.54404,
            47.09407
          ],
          [
            8.54426,
            47.09419
          ],
          [
            8.54441,
            47.09413
          ],
          [
            8.54448,
            47.09397
          ],
          [
            8.54459,
            47.09395
          ],
          [
            8.54476,
            47.09399
          ],
          [
            8.54483,
            47.09375
          ],
          [
            8.54503,
            47.09363
          ],
          [
            8.54608,
            47.09363
          ],
          [
            8.54648,
            47.09357
          ],
          [
            8.54763,
            47.0932
          ],
          [
            8.54801,
            47.09313
          ],
          [
            8.54817,
            47.09316
          ],
          [
            8.54837,
            47.09335
          ],
          [
            8.54852,
            47.09339
          ],
          [
            8.54867,
            47.09301
          ],
          [
            8.54874,
            47.09298
          ],
          [
            8.54863,
            47.09283
          ],
          [
            8.54834,
            47.09253
          ],
          [
            8.548,
            47.0923
          ],
          [
            8.54775,
            47.09193
          ],
          [
            8.54747,
            47.09174
          ],
          [
            8.54676,
            47.09151
          ],
          [
            8.54659,
            47.09141
          ],
          [
            8.54653,
            47.09126
          ],
          [
            8.54656,
            47.09109
          ],
          [
            8.54648,
            47.0909
          ],
          [
            8.54631,
            47.09073
          ],
          [
            8.54629,
            47.09051
          ],
          [
            8.54652,
            47.09027
          ],
          [
            8.54678,
            47.09019
          ],
          [
            8.54697,
            47.09031
          ],
          [
            8.54714,
            47.09033
          ],
          [
            8.54774,
            47.08992
          ],
          [
            8.54881,
            47.08949
          ],
          [
            8.549,
            47.08937
          ],
          [
            8.54806,
            47.08896
          ],
          [
            8.54999,
            47.08814
          ]
        ]
      }
    },
    {
      "type": "Feature",
      "properties": {
        "mountain_slug": "gnipen",
        "name": "Heumoos - Rufiberg",
        "length_km": 1.84,
        "elevation_gain_m": 59,
        "source": "© OpenStreetMap contributors"
      },
      "geometry": {
        "type": "LineString",
        "coordinates": [
          [
            8.55044,
            47.09746
          ],
          [
            8.55044,
            47.09719
          ],
          [
            8.55062,
            47.09698
          ],
          [
            8.55083,
            47.09694
          ],
          [
            8.55133,
            47.09705
          ],
          [
            8.55221,
            47.09696
          ],
          [
            8.55288,
            47.09644
          ],
          [
            8.55374,
            47.09602
          ],
          [
            8.5549,
            47.09508
          ],
          [
            8.55531,
            47.0945
          ],
          [
            8.55566,
            47.09428
          ],
          [
            8.55574,
            47.09418
          ],
          [
            8.55597,
            47.0934
          ],
          [
            8.55578,
            47.0934
          ],
          [
            8.5542,
            47.09375
          ],
          [
            8.55383,
            47.09389
          ],
          [
            8.55336,
            47.0939
          ],
          [
            8.55289,
            47.09401
          ],
          [
            8.55246,
            47.09395
          ],
          [
            8.55193,
            47.09364
          ],
          [
            8.55175,
            47.09329
          ],
          [
            8.55203,
            47.09275
          ],
          [
            8.55203,
            47.09232
          ],
          [
            8.55156,
            47.09143
          ],
          [
            8.5509,
            47.09081
          ],
          [
            8.55051,
            47.09056
          ],
          [
            8.54982,
            47.08983
          ],
          [
            8.54944,
            47.08966
          ],
          [
            8.54881,
            47.08927
          ],
          [
            8.54806,
            47.08896
          ],
          [
            8.54999,
            47.08814
          ]
        ]
      }
    },
    {
      "type": "Feature",
      "properties": {
        "mountain_slug": "gnipen",
        "name": "Spitzibüelstrasse",
        "length_km": 0.9,
        "elevation_gain_m": 105,
        "source": "© OpenStreetMap contributors"
      },
      "geometry": {
        "type": "LineString",
        "coordinates": [
          [
            8.55631,
            47.06843
          ],
          [
            8.5564,
            47.06846
          ],
          [
            8.55643,
            47.06856
          ],
          [
            8.55608,
            47.06881
          ],
          [
            8.555,
            47.06909
          ],
          [
            8.55498,
            47.06914
          ],
          [
            8.55505,
            47.06921
          ],
          [
            8.55537,
            47.06928
          ],
          [
            8.55568,
            47.06944
          ],
          [
            8.55686,
            47.06973
          ],
          [
            8.55693,
            47.06979
          ],
          [
            8.55692,
            47.06986
          ],
          [
            8.55618,
            47.06995
          ],
          [
            8.55523,
            47.06995
          ],
          [
            8.55446,
            47.07016
          ],
          [
            8.55427,
            47.07028
          ],
          [
            8.55429,
            47.07036
          ],
          [
            8.55442,
            47.07038
          ],
          [
            8.5547,
            47.07029
          ],
          [
            8.55485,
            47.0703
          ],
          [
            8.55514,
            47.07042
          ],
          [
            8.55517,
            47.07054
          ],
          [
            8.55501,
            47.0708
          ],
          [
            8.55497,
            47.071
          ],
          [
            8.55483,
            47.0711
          ],
          [
            8.55482,
            47.07118
          ],
          [
            8.55491,
            47.07122
          ],
          [
            8.55507,
            47.07123
          ],
          [
            8.55575,
            47.071
          ],
          [
            8.55599,
            47.07102
          ],
          [
            8.5561,
            47.07108
          ],
          [
            8.55615,
            47.07119
          ],
          [
            8.5559,
            47.07145
          ],
          [
            8.55592,
            47.0717
          ]
        ]
      }
    },
    {
      "type": "Feature",
      "properties": {
        "mountain_slug": "gnipen",
        "name": "Obhegkapelle - Althütte - fixme",
        "length_km": 0.45,
        "elevation_gain_m": 13,
        "source": "© OpenStreetMap contributors"
      },
      "geometry": {
        "type": "LineString",
        "coordinates": [
          [
            8.58182,
            47.07634
          ],
          [
            8.58167,
            47.07644
          ],
          [
            8.5815,
            47.07646
          ],
          [
            8.58048,
            47.07628
          ],
          [
            8.58027,
            47.07618
          ],
          [
            8.58012,
            47.07587
          ],
          [
            8.57992,
            47.07569
          ],
          [
            8.57923,
            47.0755
          ],
          [
            8.5787,
            47.07512
          ],
          [
            8.57744,
            47.07476
          ],
          [
            8.57721,
            47.07473
          ],
          [
            8.57698,
            47.07477
          ]
        ]
      }
    }
  ]
}
