{
  "type": "FeatureCollection",
  "attribution": "© OpenStreetMap contributors",
  "license": "ODbL-1.0",
  "source": "https://www.openstreetmap.org/copyright",
  "features": [
    {
      "type": "Feature",
      "properties": {
        "mountain_slug": "monte-san-martino-lecco",
        "name": "Sentiero Silva",
        "length_km": 0.73,
        "elevation_gain_m": 182,
        "source": "© OpenStreetMap contributors"
      },
      "geometry": {
        "type": "LineString",
        "coordinates": [
          [
            9.38755,
            45.8705
          ],
          [
            9.38754,
            45.87058
          ],
          [
            9.38745,
            45.87061
          ],
          [
            9.38734,
            45.87104
          ],
          [
            9.38726,
            45.87111
          ],
          [
            9.38735,
            45.87121
          ],
          [
            9.38727,
            45.87127
          ],
          [
            9.38731,
            45.87134
          ],
          [
            9.38724,
            45.87133
          ],
          [
            9.38726,
            45.87139
          ],
          [
            9.38697,
            45.8714
          ],
          [
            9.38699,
            45.87147
          ],
          [
            9.3869,
            45.87146
          ],
          [
            9.38683,
            45.87157
          ],
          [
            9.38681,
            45.87161
          ],
          [
            9.38687,
            45.87164
          ],
          [
            9.38668,
            45.87178
          ],
          [
            9.38681,
            45.87189
          ],
          [
            9.3868,
            45.87198
          ],
          [
            9.38669,
            45.87206
          ],
          [
            9.38666,
            45.87221
          ],
          [
            9.38678,
            45.8722
          ],
          [
            9.38689,
            45.87212
          ],
          [
            9.38699,
            45.87224
          ],
          [
            9.38685,
            45.87233
          ],
          [
            9.38689,
            45.87257
          ],
          [
            9.38669,
            45.87266
          ],
          [
            9.38676,
            45.87272
          ],
          [
            9.38668,
            45.87277
          ],
          [
            9.38671,
            45.87285
          ],
          [
            9.38679,
            45.87286
          ],
          [
            9.38671,
            45.87297
          ],
          [
            9.38676,
            45.87311
          ],
          [
            9.3869,
            45.87326
          ],
          [
            9.38677,
            45.87348
          ],
          [
            9.3868,
            45.87355
          ],
          [
            9.38675,
            45.87358
          ],
          [
            9.38685,
            45.87363
          ],
          [
            9.38677,
            45.87366
          ],
          [
            9.38677,
            45.87379
          ],
          [
            9.38665,
            45.87389
          ],
          [
            9.38651,
            45.87387
          ],
          [
            9.38646,
            45.87403
          ],
          [
            9.38661,
            45.87408
          ],
          [
            9.3867,
            45.87436
          ],
          [
            9.38684,
            45.87446
          ],
          [
            9.38682,
            45.8746
          ],
          [
            9.38699,
            45.87472
          ],
          [
            9.38706,
            45.87453
          ],
          [
            9.3872,
            45.87439
          ],
          [
            9.3873,
            45.87441
          ]
        ]
      }
    },
    {
      "type": "Feature",
      "properties": {
        "mountain_slug": "monte-san-martino-lecco",
        "name": "Normale Corno Medale",
        "length_km": 1.06,
        "elevation_gain_m": 290,
        "source": "© OpenStreetMap contributors"
      },
      "geometry": {
        "type": "LineString",
        "coordinates": [
          [
            9.38926,
            45.87106
          ],
          [
            9.38919,
            45.8712
          ],
          [
            9.38901,
            45.87121
          ],
          [
            9.38892,
            45.87136
          ],
          [
            9.38885,
            45.87215
          ],
          [
            9.3886,
            45.87253
          ],
          [
            9.38852,
            45.87278
          ],
          [
            9.3886,
            45.87285
          ],
          [
            9.38899,
            45.8729
          ],
          [
            9.38911,
            45.87308
          ],
          [
            9.38916,
            45.8735
          ],
          [
            9.38958,
            45.87384
          ],
          [
            9.38925,
            45.87428
          ],
          [
            9.38937,
            45.87445
          ],
          [
            9.38937,
            45.87456
          ],
          [
            9.3893,
            45.87458
          ],
          [
            9.38916,
            45.87475
          ],
          [
            9.38921,
            45.87492
          ],
          [
            9.38906,
            45.87509
          ],
          [
            9.3891,
            45.87527
          ],
          [
            9.38898,
            45.87532
          ],
          [
            9.38946,
            45.87557
          ],
          [
            9.38998,
            45.87574
          ],
          [
            9.39016,
            45.87587
          ],
          [
            9.39078,
            45.8761
          ],
          [
            9.39106,
            45.87615
          ],
          [
            9.39129,
            45.87611
          ],
          [
            9.39143,
            45.87596
          ],
          [
            9.39158,
            45.87597
          ],
          [
            9.39166,
            45.87592
          ],
          [
            9.39214,
            45.87587
          ],
          [
            9.39242,
            45.87587
          ],
          [
            9.39269,
            45.87596
          ],
          [
            9.39303,
            45.87618
          ],
          [
            9.39354,
            45.87637
          ],
          [
            9.39388,
            45.87636
          ],
          [
            9.39406,
            45.87623
          ],
          [
            9.39413,
            45.87624
          ],
          [
            9.39435,
            45.87604
          ],
          [
            9.39442,
            45.87612
          ]
        ]
      }
    },
    {
      "type": "Feature",
      "properties": {
        "mountain_slug": "monte-san-martino-lecco",
        "name": "Sentiero per il Medale",
        "length_km": 0.58,
        "elevation_gain_m": 225,
        "source": "© OpenStreetMap contributors"
      },
      "geometry": {
        "type": "LineString",
        "coordinates": [
          [
            9.38467,
            45.87198
          ],
          [
            9.3848,
            45.87214
          ],
          [
            9.3849,
            45.8721
          ],
          [
            9.38491,
            45.87215
          ],
          [
            9.38493,
            45.87237
          ],
          [
            9.38485,
            45.87251
          ],
          [
            9.38487,
            45.87265
          ],
          [
            9.38479,
            45.87272
          ],
          [
            9.38511,
            45.87266
          ],
          [
            9.38558,
            45.87234
          ],
          [
            9.38575,
            45.8723
          ],
          [
            9.38678,
            45.8722
          ],
          [
            9.38689,
            45.87212
          ],
          [
            9.38701,
            45.87218
          ],
          [
            9.38711,
            45.87214
          ],
          [
            9.38731,
            45.87227
          ],
          [
            9.38725,
            45.87228
          ],
          [
            9.38762,
            45.87285
          ],
          [
            9.3878,
            45.87301
          ],
          [
            9.38781,
            45.8731
          ],
          [
            9.38795,
            45.87312
          ],
          [
            9.3881,
            45.87327
          ],
          [
            9.38822,
            45.87331
          ],
          [
            9.38858,
            45.87327
          ],
          [
            9.38864,
            45.87336
          ],
          [
            9.38898,
            45.87344
          ],
          [
            9.38908,
            45.87355
          ],
          [
            9.38926,
            45.87359
          ]
        ]
      }
    },
    {
      "type": "Feature",
      "properties": {
        "mountain_slug": "monte-san-martino-lecco",
        "name": "Sentiero per Corno Regismondo",
        "length_km": 0.64,
        "elevation_gain_m": 280,
        "source": "© OpenStreetMap contributors"
      },
      "geometry": {
        "type": "LineString",
        "coordinates": [
          [
            9.38676,
            45.87632
          ],
          [
            9.38669,
            45.8764
          ],
          [
            9.38677,
            45.8765
          ],
          [
            9.38685,
            45.8765
          ],
          [
            9.38683,
            45.87661
          ],
          [
            9.38703,
            45.87695
          ],
          [
            9.38711,
            45.87694
          ],
          [
            9.38718,
            45.87716
          ],
          [
            9.38713,
            45.87731
          ],
          [
            9.38729,
            45.87743
          ],
          [
            9.38731,
            45.8776
          ],
          [
            9.38723,
            45.8777
          ],
          [
            9.38747,
            45.87771
          ],
          [
            9.38757,
            45.87786
          ],
          [
            9.38808,
            45.87779
          ],
          [
            9.38814,
            45.878
          ],
          [
            9.38832,
            45.87823
          ],
          [
            9.38818,
            45.87836
          ],
          [
            9.38829,
            45.87859
          ],
          [
            9.38826,
            45.87878
          ],
          [
            9.38834,
            45.87886
          ],
          [
            9.38875,
            45.879
          ],
          [
            9.38896,
            45.87919
          ],
          [
            9.3889,
            45.87926
          ],
          [
            9.38881,
            45.87921
          ],
          [
            9.38888,
            45.87934
          ],
          [
            9.38873,
            45.87945
          ],
          [
            9.38867,
            45.87945
          ],
          [
            9.38868,
            45.8795
          ],
          [
            9.38856,
            45.87947
          ],
          [
            9.38867,
            45.87958
          ],
          [
            9.38842,
            45.87969
          ],
          [
            9.38846,
            45.87981
          ],
          [
            9.38839,
            45.87987
          ],
          [
            9.3885,
            45.88
          ],
          [
            9.38865,
            45.88006
          ],
          [
            9.38889,
            45.88003
          ],
          [
            9.38888,
            45.87999
          ]
        ]
      }
    },
    {
      "type": "Feature",
      "properties": {
        "mountain_slug": "monte-san-martino-lecco",
        "name": "Sentiero per San Martino e Rif. Piazza",
        "length_km": 2.01,
        "elevation_gain_m": 261,
        "source": "© OpenStreetMap contributors"
      },
      "geometry": {
        "type": "LineString",
        "coordinates": [
          [
            9.39694,
            45.87332
          ],
          [
            9.39617,
            45.87335
          ],
          [
            9.39553,
            45.87325
          ],
          [
            9.39529,
            45.87307
          ],
          [
            9.39518,
            45.87276
          ],
          [
            9.39501,
            45.8726
          ],
          [
            9.39403,
            45.87223
          ],
          [
            9.39346,
            45.87182
          ],
          [
            9.39193,
            45.87106
          ],
          [
            9.39162,
            45.87079
          ],
          [
            9.39159,
            45.87083
          ],
          [
            9.39175,
            45.8711
          ],
          [
            9.39203,
            45.87137
          ],
          [
            9.39197,
            45.87138
          ],
          [
            9.39198,
            45.87144
          ],
          [
            9.39186,
            45.87135
          ],
          [
            9.39178,
            45.87139
          ],
          [
            9.39138,
            45.8711
          ],
          [
            9.39144,
            45.87127
          ],
          [
            9.39109,
            45.87108
          ],
          [
            9.39108,
            45.87122
          ],
          [
            9.39091,
            45.87115
          ],
          [
            9.39077,
            45.87118
          ],
          [
            9.39078,
            45.87128
          ],
          [
            9.39068,
            45.87135
          ],
          [
            9.39016,
            45.87092
          ],
          [
            9.39001,
            45.8712
          ],
          [
            9.3901,
            45.8715
          ],
          [
            9.39006,
            45.87153
          ],
          [
            9.38992,
            45.87144
          ],
          [
            9.38991,
            45.87151
          ],
          [
            9.38984,
            45.87154
          ],
          [
            9.38994,
            45.87168
          ],
          [
            9.3899,
            45.87172
          ],
          [
            9.3897,
            45.87157
          ],
          [
            9.38946,
            45.87122
          ],
          [
            9.38926,
            45.87106
          ],
          [
            9.38881,
            45.87088
          ],
          [
            9.38856,
            45.87067
          ],
          [
            9.3881,
            45.8706
          ],
          [
            9.38784,
            45.87048
          ],
          [
            9.38746,
            45.8705
          ],
          [
            9.38737,
            45.87058
          ],
          [
            9.38721,
            45.87062
          ],
          [
            9.38705,
            45.87078
          ],
          [
            9.38668,
            45.87093
          ],
          [
            9.38635,
            45.87085
          ],
          [
            9.38618,
            45.87084
          ],
          [
            9.38594,
            45.87089
          ],
          [
            9.38563,
            45.87082
          ],
          [
            9.38557,
            45.87086
          ],
          [
            9.38563,
            45.87094
          ],
          [
            9.38547,
            45.87103
          ],
          [
            9.38548,
            45.87108
          ],
          [
            9.38527,
            45.87113
          ],
          [
            9.38527,
            45.87119
          ],
          [
            9.38505,
            45.87128
          ],
          [
            9.38494,
            45.87164
          ],
          [
            9.38457,
            45.87205
          ],
          [
            9.38446,
            45.87226
          ],
          [
            9.3842,
            45.87239
          ],
          [
            9.3838,
            45.87248
          ],
          [
            9.38347,
            45.87274
          ],
          [
            9.38344,
            45.87311
          ],
          [
            9.38328,
            45.87323
          ],
          [
            9.38303,
            45.87323
          ],
          [
            9.38286,
            45.8734
          ],
          [
            9.38283,
            45.87377
          ],
          [
            9.38263,
            45.8739
          ],
          [
            9.38217,
            45.87476
          ],
          [
            9.38196,
            45.87498
          ]
        ]
      }
    },
    {
      "type": "Feature",
      "properties": {
        "mountain_slug": "monte-san-martino-lecco",
        "name": "52 - Sent. Riccardo Spreafico (Alta Via delle Grigne)",
        "length_km": 1.97,
        "elevation_gain_m": 821,
        "source": "© OpenStreetMap contributors"
      },
      "geometry": {
        "type": "LineString",
        "coordinates": [
          [
            9.38212,
            45.87508
          ],
          [
            9.382,
            45.87532
          ],
          [
            9.382,
            45.8755
          ],
          [
            9.38186,
            45.8759
          ],
          [
            9.3819,
            45.87616
          ],
          [
            9.38204,
            45.87623
          ],
          [
            9.38212,
            45.87637
          ],
          [
            9.38211,
            45.8766
          ],
          [
            9.38176,
            45.87689
          ],
          [
            9.38154,
            45.87718
          ],
          [
            9.38104,
            45.87845
          ],
          [
            9.38118,
            45.87861
          ],
          [
            9.38125,
            45.87908
          ],
          [
            9.3814,
            45.87912
          ],
          [
            9.38138,
            45.87918
          ],
          [
            9.38144,
            45.87923
          ],
          [
            9.38139,
            45.87967
          ],
          [
            9.38145,
            45.8801
          ],
          [
            9.38164,
            45.88027
          ],
          [
            9.38166,
            45.88035
          ],
          [
            9.38214,
            45.88056
          ],
          [
            9.38213,
            45.88064
          ],
          [
            9.38187,
            45.88079
          ],
          [
            9.3817,
            45.88083
          ],
          [
            9.38167,
            45.88093
          ],
          [
            9.38158,
            45.88096
          ],
          [
            9.3814,
            45.88085
          ],
          [
            9.38106,
            45.88121
          ],
          [
            9.38109,
            45.88145
          ],
          [
            9.38092,
            45.88174
          ],
          [
            9.3809,
            45.88194
          ],
          [
            9.38082,
            45.88192
          ],
          [
            9.3811,
            45.88255
          ],
          [
            9.38107,
            45.88266
          ],
          [
            9.381,
            45.88279
          ],
          [
            9.38083,
            45.88287
          ],
          [
            9.38076,
            45.88299
          ],
          [
            9.38067,
            45.88298
          ],
          [
            9.38068,
            45.88307
          ],
          [
            9.38054,
            45.88304
          ],
          [
            9.38044,
            45.88311
          ],
          [
            9.38068,
            45.88336
          ],
          [
            9.38095,
            45.88346
          ],
          [
            9.38087,
            45.88351
          ],
          [
            9.38088,
            45.88364
          ],
          [
            9.38098,
            45.88376
          ],
          [
            9.38091,
            45.88381
          ],
          [
            9.38103,
            45.88391
          ],
          [
            9.38099,
            45.88401
          ],
          [
            9.3808,
            45.88393
          ],
          [
            9.38073,
            45.88395
          ],
          [
            9.38073,
            45.884
          ],
          [
            9.38061,
            45.88401
          ],
          [
            9.38053,
            45.88412
          ],
          [
            9.38079,
            45.88428
          ],
          [
            9.38069,
            45.8843
          ],
          [
            9.38075,
            45.88437
          ],
          [
            9.38063,
            45.8844
          ],
          [
            9.38069,
            45.88444
          ],
          [
            9.38068,
            45.88469
          ],
          [
            9.38075,
            45.88476
          ],
          [
            9.38062,
            45.8849
          ],
          [
            9.38079,
            45.88499
          ],
          [
            9.38084,
            45.88515
          ],
          [
            9.3806,
            45.88511
          ],
          [
            9.38032,
            45.8853
          ],
          [
            9.38039,
            45.88534
          ],
          [
            9.38034,
            45.88542
          ],
          [
            9.38051,
            45.88536
          ],
          [
            9.38056,
            45.88554
          ],
          [
            9.38079,
            45.88559
          ],
          [
            9.38087,
            45.88566
          ],
          [
            9.38084,
            45.88577
          ],
          [
            9.38058,
            45.88567
          ],
          [
            9.38057,
            45.88592
          ],
          [
            9.38051,
            45.88602
          ],
          [
            9.38044,
            45.88604
          ],
          [
            9.3805,
            45.88609
          ],
          [
            9.38036,
            45.88632
          ],
          [
            9.38045,
            45.88643
          ],
          [
            9.38044,
            45.8865
          ],
          [
            9.3802,
            45.88678
          ],
          [
            9.38002,
            45.88681
          ],
          [
            9.37987,
            45.88676
          ],
          [
            9.37982,
            45.8868
          ],
          [
            9.37976,
            45.88679
          ],
          [
            9.37975,
            45.88685
          ],
          [
            9.37947,
            45.88682
          ],
          [
            9.3795,
            45.8869
          ],
          [
            9.37934,
            45.88689
          ],
          [
            9.37937,
            45.88723
          ],
          [
            9.37928,
            45.88722
          ],
          [
            9.3793,
            45.88728
          ],
          [
            9.37913,
            45.88734
          ],
          [
            9.37906,
            45.88741
          ],
          [
            9.37911,
            45.8875
          ],
          [
            9.37899,
            45.8875
          ],
          [
            9.37898,
            45.88759
          ],
          [
            9.37885,
            45.88764
          ],
          [
            9.37897,
            45.88786
          ]
        ]
      }
    },
    {
      "type": "Feature",
      "properties": {
        "mountain_slug": "monte-san-martino-lecco",
        "name": "Sentiero Costantino Fiocchi",
        "length_km": 1.26,
        "elevation_gain_m": 392,
        "source": "© OpenStreetMap contributors"
      },
      "geometry": {
        "type": "LineString",
        "coordinates": [
          [
            9.38204,
            45.87491
          ],
          [
            9.38196,
            45.87498
          ],
          [
            9.38193,
            45.87489
          ],
          [
            9.38179,
            45.8748
          ],
          [
            9.38096,
            45.87596
          ],
          [
            9.38074,
            45.87602
          ],
          [
            9.38057,
            45.87619
          ],
          [
            9.38049,
            45.87638
          ],
          [
            9.38009,
            45.87663
          ],
          [
            9.37967,
            45.87712
          ],
          [
            9.37948,
            45.87725
          ],
          [
            9.37954,
            45.87742
          ],
          [
            9.37952,
            45.87764
          ],
          [
            9.37908,
            45.87795
          ],
          [
            9.37899,
            45.87819
          ],
          [
            9.37899,
            45.8783
          ],
          [
            9.3792,
            45.87877
          ],
          [
            9.37941,
            45.8789
          ],
          [
            9.37834,
            45.87889
          ],
          [
            9.3781,
            45.87894
          ],
          [
            9.37794,
            45.87912
          ],
          [
            9.37772,
            45.87923
          ],
          [
            9.37744,
            45.87928
          ],
          [
            9.37735,
            45.87945
          ],
          [
            9.37738,
            45.87961
          ],
          [
            9.37717,
            45.87982
          ],
          [
            9.37702,
            45.88008
          ],
          [
            9.37682,
            45.88024
          ],
          [
            9.37613,
            45.88006
          ],
          [
            9.37528,
            45.87994
          ],
          [
            9.37494,
            45.88018
          ],
          [
            9.37489,
            45.88058
          ],
          [
            9.37499,
            45.88092
          ],
          [
            9.37485,
            45.88106
          ],
          [
            9.37458,
            45.88121
          ],
          [
            9.37421,
            45.88166
          ],
          [
            9.3742,
            45.88203
          ]
        ]
      }
    },
    {
      "type": "Feature",
      "properties": {
        "mountain_slug": "monte-san-martino-lecco",
        "name": "Sentiero Piero Pensa",
        "length_km": 2.19,
        "elevation_gain_m": 430,
        "source": "© OpenStreetMap contributors"
      },
      "geometry": {
        "type": "LineString",
        "coordinates": [
          [
            9.39001,
            45.86399
          ],
          [
            9.38674,
            45.86427
          ],
          [
            9.38665,
            45.86433
          ],
          [
            9.38654,
            45.86428
          ],
          [
            9.38644,
            45.86431
          ],
          [
            9.38553,
            45.86526
          ],
          [
            9.38501,
            45.86556
          ],
          [
            9.38465,
            45.86585
          ],
          [
            9.38438,
            45.86641
          ],
          [
            9.38382,
            45.86647
          ],
          [
            9.38365,
            45.86667
          ],
          [
            9.38379,
            45.86674
          ],
          [
            9.38397,
            45.86701
          ],
          [
            9.38414,
            45.86696
          ],
          [
            9.38432,
            45.8672
          ],
          [
            9.38423,
            45.86738
          ],
          [
            9.38405,
            45.86749
          ],
          [
            9.38307,
            45.86773
          ],
          [
            9.3826,
            45.86806
          ],
          [
            9.38258,
            45.86813
          ],
          [
            9.38267,
            45.86818
          ],
          [
            9.38298,
            45.8681
          ],
          [
            9.38303,
            45.86821
          ],
          [
            9.38336,
            45.86817
          ],
          [
            9.38349,
            45.86828
          ],
          [
            9.38362,
            45.86832
          ],
          [
            9.38361,
            45.8685
          ],
          [
            9.38378,
            45.86851
          ],
          [
            9.38384,
            45.86863
          ],
          [
            9.38392,
            45.86863
          ],
          [
            9.38393,
            45.86871
          ],
          [
            9.38383,
            45.86881
          ],
          [
            9.38348,
            45.86882
          ],
          [
            9.383,
            45.86891
          ],
          [
            9.38299,
            45.86898
          ],
          [
            9.38285,
            45.86896
          ],
          [
            9.38277,
            45.86881
          ],
          [
            9.3825,
            45.86895
          ],
          [
            9.38243,
            45.8689
          ],
          [
            9.38227,
            45.86899
          ],
          [
            9.38198,
            45.86903
          ],
          [
            9.38199,
            45.86907
          ],
          [
            9.38178,
            45.86917
          ],
          [
            9.38198,
            45.86942
          ],
          [
            9.38186,
            45.86948
          ],
          [
            9.38194,
            45.86965
          ],
          [
            9.38202,
            45.86964
          ],
          [
            9.38208,
            45.86975
          ],
          [
            9.38231,
            45.8698
          ],
          [
            9.38257,
            45.86979
          ],
          [
            9.38273,
            45.8697
          ],
          [
            9.38265,
            45.8699
          ],
          [
            9.38249,
            45.87004
          ],
          [
            9.38252,
            45.87015
          ],
          [
            9.38242,
            45.87026
          ],
          [
            9.38264,
            45.8703
          ],
          [
            9.38268,
            45.87026
          ],
          [
            9.38296,
            45.87044
          ],
          [
            9.38295,
            45.87065
          ],
          [
            9.38282,
            45.87088
          ],
          [
            9.38287,
            45.87103
          ],
          [
            9.38276,
            45.8712
          ],
          [
            9.38275,
            45.87133
          ],
          [
            9.38264,
            45.87147
          ],
          [
            9.38271,
            45.87159
          ],
          [
            9.38237,
            45.87166
          ],
          [
            9.38219,
            45.87182
          ],
          [
            9.38219,
            45.87191
          ],
          [
            9.38234,
            45.87186
          ],
          [
            9.38251,
            45.87188
          ],
          [
            9.38256,
            45.87192
          ],
          [
            9.38211,
            45.87227
          ],
          [
            9.38195,
            45.87246
          ],
          [
            9.38208,
            45.87283
          ],
          [
            9.38207,
            45.87306
          ],
          [
            9.38189,
            45.87322
          ],
          [
            9.3819,
            45.87366
          ],
          [
            9.38166,
            45.87404
          ],
          [
            9.38149,
            45.87408
          ],
          [
            9.38141,
            45.87404
          ],
          [
            9.3813,
            45.87418
          ],
          [
            9.38139,
            45.87428
          ],
          [
            9.38141,
            45.87447
          ],
          [
            9.38193,
            45.87489
          ],
          [
            9.38196,
            45.87498
          ]
        ]
      }
    },
    {
      "type": "Feature",
      "properties": {
        "mountain_slug": "monte-san-martino-lecco",
        "name": "Sentiero GER",
        "length_km": 1.28,
        "elevation_gain_m": 524,
        "source": "© OpenStreetMap contributors"
      },
      "geometry": {
        "type": "LineString",
        "coordinates": [
          [
            9.39372,
            45.87667
          ],
          [
            9.39327,
            45.87669
          ],
          [
            9.39302,
            45.87676
          ],
          [
            9.39262,
            45.87672
          ],
          [
            9.39203,
            45.87683
          ],
          [
            9.39158,
            45.87703
          ],
          [
            9.39106,
            45.87766
          ],
          [
            9.39055,
            45.87809
          ],
          [
            9.39057,
            45.87862
          ],
          [
            9.39067,
            45.87884
          ],
          [
            9.39066,
            45.87931
          ],
          [
            9.39056,
            45.87963
          ],
          [
            9.39054,
            45.88009
          ],
          [
            9.39035,
            45.8803
          ],
          [
            9.39023,
            45.88057
          ],
          [
            9.39028,
            45.8807
          ],
          [
            9.39065,
            45.88102
          ],
          [
            9.39076,
            45.88145
          ],
          [
            9.39088,
            45.8816
          ],
          [
            9.3911,
            45.8817
          ],
          [
            9.39126,
            45.88185
          ],
          [
            9.39138,
            45.8822
          ],
          [
            9.39156,
            45.88238
          ],
          [
            9.39161,
            45.88251
          ],
          [
            9.39163,
            45.88285
          ],
          [
            9.39136,
            45.88322
          ],
          [
            9.39058,
            45.88374
          ],
          [
            9.39048,
            45.88387
          ],
          [
            9.39045,
            45.88402
          ],
          [
            9.38999,
            45.88431
          ],
          [
            9.38984,
            45.88432
          ],
          [
            9.38969,
            45.88443
          ],
          [
            9.38956,
            45.88482
          ],
          [
            9.38938,
            45.88486
          ],
          [
            9.38922,
            45.88496
          ],
          [
            9.389,
            45.88521
          ],
          [
            9.38886,
            45.88529
          ],
          [
            9.38893,
            45.88545
          ]
        ]
      }
    },
    {
      "type": "Feature",
      "properties": {
        "mountain_slug": "monte-san-martino-lecco",
        "name": "Sentiero dei Tecétt - 54",
        "length_km": 1.9,
        "elevation_gain_m": 662,
        "source": "© OpenStreetMap contributors"
      },
      "geometry": {
        "type": "LineString",
        "coordinates": [
          [
            9.37084,
            45.88048
          ],
          [
            9.37077,
            45.88057
          ],
          [
            9.37077,
            45.88078
          ],
          [
            9.37086,
            45.88096
          ],
          [
            9.37082,
            45.88115
          ],
          [
            9.37062,
            45.88141
          ],
          [
            9.37058,
            45.8819
          ],
          [
            9.37066,
            45.88208
          ],
          [
            9.37084,
            45.88221
          ],
          [
            9.37086,
            45.88255
          ],
          [
            9.37099,
            45.88295
          ],
          [
            9.37125,
            45.88305
          ],
          [
            9.37149,
            45.88308
          ],
          [
            9.37156,
            45.88291
          ],
          [
            9.37177,
            45.88282
          ],
          [
            9.37184,
            45.88266
          ],
          [
            9.37192,
            45.88263
          ],
          [
            9.37253,
            45.88277
          ],
          [
            9.37257,
            45.88295
          ],
          [
            9.37276,
            45.8829
          ],
          [
            9.37267,
            45.88235
          ],
          [
            9.37285,
            45.88221
          ],
          [
            9.37372,
            45.88217
          ],
          [
            9.3742,
            45.88203
          ],
          [
            9.37421,
            45.88166
          ],
          [
            9.37458,
            45.88121
          ],
          [
            9.37485,
            45.88106
          ],
          [
            9.37499,
            45.88092
          ],
          [
            9.37489,
            45.88058
          ],
          [
            9.37494,
            45.88018
          ],
          [
            9.37528,
            45.87994
          ],
          [
            9.37613,
            45.88006
          ],
          [
            9.37682,
            45.88024
          ],
          [
            9.37702,
            45.88008
          ],
          [
            9.37717,
            45.87982
          ],
          [
            9.37738,
            45.87961
          ],
          [
            9.37735,
            45.87945
          ],
          [
            9.37744,
            45.87928
          ],
          [
            9.37772,
            45.87923
          ],
          [
            9.37794,
            45.87912
          ],
          [
            9.3781,
            45.87894
          ],
          [
            9.37834,
            45.87889
          ],
          [
            9.37941,
            45.8789
          ],
          [
            9.3792,
            45.87877
          ],
          [
            9.37899,
            45.8783
          ],
          [
            9.37908,
            45.87795
          ],
          [
            9.37952,
            45.87764
          ],
          [
            9.37954,
            45.87742
          ],
          [
            9.37948,
            45.87725
          ],
          [
            9.37967,
            45.87712
          ],
          [
            9.38009,
            45.87663
          ],
          [
            9.38049,
            45.87638
          ],
          [
            9.38057,
            45.87619
          ],
          [
            9.38074,
            45.87602
          ],
          [
            9.38096,
            45.87596
          ],
          [
            9.38179,
            45.8748
          ]
        ]
      }
    },
    {
      "type": "Feature",
      "properties": {
        "mountain_slug": "monte-san-martino-lecco",
        "name": "Sentiero della Vergella",
        "length_km": 0.47,
        "elevation_gain_m": 113,
        "source": "© OpenStreetMap contributors"
      },
      "geometry": {
        "type": "LineString",
        "coordinates": [
          [
            9.38753,
            45.8705
          ],
          [
            9.38736,
            45.87028
          ],
          [
            9.38761,
            45.87012
          ],
          [
            9.3878,
            45.87009
          ],
          [
            9.38801,
            45.86997
          ],
          [
            9.38823,
            45.86996
          ],
          [
            9.38855,
            45.8697
          ],
          [
            9.38868,
            45.86975
          ],
          [
            9.38881,
            45.86969
          ],
          [
            9.38891,
            45.86971
          ],
          [
            9.38895,
            45.86962
          ],
          [
            9.38902,
            45.8696
          ],
          [
            9.38919,
            45.86971
          ],
          [
            9.38923,
            45.86961
          ],
          [
            9.38938,
            45.86962
          ],
          [
            9.3897,
            45.86986
          ],
          [
            9.39004,
            45.87
          ],
          [
            9.39021,
            45.87
          ],
          [
            9.39049,
            45.87032
          ],
          [
            9.39073,
            45.87044
          ],
          [
            9.39077,
            45.87067
          ],
          [
            9.39109,
            45.87108
          ]
        ]
      }
    },
    {
      "type": "Feature",
      "properties": {
        "mountain_slug": "monte-san-martino-lecco",
        "name": "Corno Medale / Ferrata Medale",
        "length_km": 0.43,
        "elevation_gain_m": 128,
        "source": "© OpenStreetMap contributors"
      },
      "geometry": {
        "type": "LineString",
        "coordinates": [
          [
            9.39446,
            45.87237
          ],
          [
            9.39439,
            45.87242
          ],
          [
            9.39442,
            45.87252
          ],
          [
            9.39465,
            45.87273
          ],
          [
            9.39438,
            45.87273
          ],
          [
            9.3941,
            45.87281
          ],
          [
            9.39394,
            45.87299
          ],
          [
            9.3934,
            45.87339
          ],
          [
            9.39336,
            45.87356
          ],
          [
            9.39357,
            45.87385
          ],
          [
            9.39446,
            45.87427
          ],
          [
            9.39494,
            45.87441
          ],
          [
            9.39515,
            45.87464
          ],
          [
            9.39531,
            45.87501
          ]
        ]
      }
    }
  ]
}
