{"type": "FeatureCollection", "attribution": "© OpenStreetMap contributors (ODbL 1.0), via Overture Maps Foundation release 2026-09-23.0", "license": "ODbL-1.0", "source": "https://overturemaps-us-west-2.s3.amazonaws.com/release/2026-09-23.0/theme=transportation/type=segment/", "features": [
{"type":"Feature","properties":{"mountain_slug":"mount-washington","trail":"Presidential Rail Trail","seq":0,"start_mile":0.0,"end_mile":0.1},"geometry":{"type":"LineString","coordinates":[[-71.2134,44.400056],[-71.215402,44.399863]]}},
{"type":"Feature","properties":{"mountain_slug":"mount-washington","trail":"Presidential Rail Trail","seq":1,"start_mile":0.1,"end_mile":0.2},"geometry":{"type":"LineString","coordinates":[[-71.215402,44.399863],[-71.216984,44.399711],[-71.217378,44.399597]]}},
{"type":"Feature","properties":{"mountain_slug":"mount-washington","trail":"Presidential Rail Trail","seq":2,"start_mile":0.2,"end_mile":0.3},"geometry":{"type":"LineString","coordinates":[[-71.217378,44.399597],[-71.218699,44.399216],[-71.219201,44.398986]]}},
{"type":"Feature","properties":{"mountain_slug":"mount-washington","trail":"Presidential Rail Trail","seq":3,"start_mile":0.3,"end_mile":0.4},"geometry":{"type":"LineString","coordinates":[[-71.219201,44.398986],[-71.219401,44.398894],[-71.220767,44.398073]]}},
{"type":"Feature","properties":{"mountain_slug":"mount-washington","trail":"Presidential Rail Trail","seq":4,"start_mile":0.4,"end_mile":0.5},"geometry":{"type":"LineString","coordinates":[[-71.220767,44.398073],[-71.222315,44.397143]]}},
{"type":"Feature","properties":{"mountain_slug":"mount-washington","trail":"Presidential Rail Trail","seq":5,"start_mile":0.5,"end_mile":0.6},"geometry":{"type":"LineString","coordinates":[[-71.222315,44.397143],[-71.222783,44.396861],[-71.223609,44.396042]]}},
{"type":"Feature","properties":{"mountain_slug":"mount-washington","trail":"Presidential Rail Trail","seq":6,"start_mile":0.6,"end_mile":0.7},"geometry":{"type":"LineString","coordinates":[[-71.223609,44.396042],[-71.223663,44.395989],[-71.223922,44.39545],[-71.224008,44.395014],[-71.223983,44.394643]]}},
{"type":"Feature","properties":{"mountain_slug":"mount-washington","trail":"Presidential Rail Trail","seq":7,"start_mile":0.7,"end_mile":0.8},"geometry":{"type":"LineString","coordinates":[[-71.223983,44.394643],[-71.223975,44.394523],[-71.223781,44.393971],[-71.223237,44.393319]]}},
{"type":"Feature","properties":{"mountain_slug":"mount-washington","trail":"Presidential Rail Trail","seq":8,"start_mile":0.8,"end_mile":0.9},"geometry":{"type":"LineString","coordinates":[[-71.223237,44.393319],[-71.223122,44.393182],[-71.221923,44.392223]]}},
{"type":"Feature","properties":{"mountain_slug":"mount-washington","trail":"Presidential Rail Trail","seq":9,"start_mile":0.9,"end_mile":1.0},"geometry":{"type":"LineString","coordinates":[[-71.221923,44.392223],[-71.22181,44.392132],[-71.221383,44.391537],[-71.221215,44.390891]]}},
{"type":"Feature","properties":{"mountain_slug":"mount-washington","trail":"Presidential Rail Trail","seq":10,"start_mile":1.0,"end_mile":1.1},"geometry":{"type":"LineString","coordinates":[[-71.221215,44.390891],[-71.221189,44.390788],[-71.221209,44.390342],[-71.221372,44.389822],[-71.221569,44.389486]]}},
{"type":"Feature","properties":{"mountain_slug":"mount-washington","trail":"Presidential Rail Trail","seq":11,"start_mile":1.1,"end_mile":1.2},"geometry":{"type":"LineString","coordinates":[[-71.221569,44.389486],[-71.222352,44.388151]]}},
{"type":"Feature","properties":{"mountain_slug":"mount-washington","trail":"Presidential Rail Trail","seq":12,"start_mile":1.2,"end_mile":1.3},"geometry":{"type":"LineString","coordinates":[[-71.222352,44.388151],[-71.223135,44.386816]]}},
{"type":"Feature","properties":{"mountain_slug":"mount-washington","trail":"Presidential Rail Trail","seq":13,"start_mile":1.3,"end_mile":1.4},"geometry":{"type":"LineString","coordinates":[[-71.223135,44.386816],[-71.223608,44.38601],[-71.223828,44.385458]]}},
{"type":"Feature","properties":{"mountain_slug":"mount-washington","trail":"Presidential Rail Trail","seq":14,"start_mile":1.4,"end_mile":1.5},"geometry":{"type":"LineString","coordinates":[[-71.223828,44.385458],[-71.2239,44.385277],[-71.224007,44.384019]]}},
{"type":"Feature","properties":{"mountain_slug":"mount-washington","trail":"Presidential Rail Trail","seq":15,"start_mile":1.5,"end_mile":1.6},"geometry":{"type":"LineString","coordinates":[[-71.224007,44.384019],[-71.224015,44.38393],[-71.223906,44.383435],[-71.223475,44.382635]]}},
{"type":"Feature","properties":{"mountain_slug":"mount-washington","trail":"Presidential Rail Trail","seq":16,"start_mile":1.6,"end_mile":1.7},"geometry":{"type":"LineString","coordinates":[[-71.223475,44.382635],[-71.223309,44.382328],[-71.223242,44.381953],[-71.223357,44.381514],[-71.223555,44.381256]]}},
{"type":"Feature","properties":{"mountain_slug":"mount-washington","trail":"Presidential Rail Trail","seq":17,"start_mile":1.7,"end_mile":1.8},"geometry":{"type":"LineString","coordinates":[[-71.223555,44.381256],[-71.223768,44.380977],[-71.224295,44.380656],[-71.224956,44.380451],[-71.225119,44.380435]]}},
{"type":"Feature","properties":{"mountain_slug":"mount-washington","trail":"Presidential Rail Trail","seq":18,"start_mile":1.8,"end_mile":1.9},"geometry":{"type":"LineString","coordinates":[[-71.225119,44.380435],[-71.226611,44.380281],[-71.227085,44.380142]]}},
{"type":"Feature","properties":{"mountain_slug":"mount-washington","trail":"Presidential Rail Trail","seq":19,"start_mile":1.9,"end_mile":2.0},"geometry":{"type":"LineString","coordinates":[[-71.227085,44.380142],[-71.227326,44.38007],[-71.22781,44.37982],[-71.228284,44.379395],[-71.228396,44.379118]]}},
{"type":"Feature","properties":{"mountain_slug":"mount-washington","trail":"Presidential Rail Trail","seq":20,"start_mile":2.0,"end_mile":2.1},"geometry":{"type":"LineString","coordinates":[[-71.228396,44.379118],[-71.228606,44.378596],[-71.228361,44.377708]]}},
{"type":"Feature","properties":{"mountain_slug":"mount-washington","trail":"Presidential Rail Trail","seq":21,"start_mile":2.1,"end_mile":2.2},"geometry":{"type":"LineString","coordinates":[[-71.228361,44.377708],[-71.228146,44.376931],[-71.228154,44.376358],[-71.228188,44.376278]]}},
{"type":"Feature","properties":{"mountain_slug":"mount-washington","trail":"Presidential Rail Trail","seq":22,"start_mile":2.2,"end_mile":2.3},"geometry":{"type":"LineString","coordinates":[[-71.228188,44.376278],[-71.228541,44.375455],[-71.229011,44.374975]]}},
{"type":"Feature","properties":{"mountain_slug":"mount-washington","trail":"Presidential Rail Trail","seq":23,"start_mile":2.3,"end_mile":2.4},"geometry":{"type":"LineString","coordinates":[[-71.229011,44.374975],[-71.229305,44.374674],[-71.230496,44.374012]]}},
{"type":"Feature","properties":{"mountain_slug":"mount-washington","trail":"Presidential Rail Trail","seq":24,"start_mile":2.4,"end_mile":2.5},"geometry":{"type":"LineString","coordinates":[[-71.230496,44.374012],[-71.230638,44.373933],[-71.231193,44.373487],[-71.231578,44.37282]]}},
{"type":"Feature","properties":{"mountain_slug":"mount-washington","trail":"Presidential Rail Trail","seq":25,"start_mile":2.5,"end_mile":2.6},"geometry":{"type":"LineString","coordinates":[[-71.231578,44.37282],[-71.23235,44.371482]]}},
{"type":"Feature","properties":{"mountain_slug":"mount-washington","trail":"Presidential Rail Trail","seq":26,"start_mile":2.6,"end_mile":2.7},"geometry":{"type":"LineString","coordinates":[[-71.23235,44.371482],[-71.233122,44.370144]]}},
{"type":"Feature","properties":{"mountain_slug":"mount-washington","trail":"Presidential Rail Trail","seq":27,"start_mile":2.7,"end_mile":2.8},"geometry":{"type":"LineString","coordinates":[[-71.233122,44.370144],[-71.233316,44.369808],[-71.233964,44.368828]]}},
{"type":"Feature","properties":{"mountain_slug":"mount-washington","trail":"Presidential Rail Trail","seq":28,"start_mile":2.8,"end_mile":2.9},"geometry":{"type":"LineString","coordinates":[[-71.233964,44.368828],[-71.234013,44.368753],[-71.235358,44.367787]]}},
{"type":"Feature","properties":{"mountain_slug":"mount-washington","trail":"Presidential Rail Trail","seq":29,"start_mile":2.9,"end_mile":3.0},"geometry":{"type":"LineString","coordinates":[[-71.235358,44.367787],[-71.236695,44.366827],[-71.236805,44.36678]]}},
{"type":"Feature","properties":{"mountain_slug":"mount-washington","trail":"Presidential Rail Trail","seq":30,"start_mile":3.0,"end_mile":3.1},"geometry":{"type":"LineString","coordinates":[[-71.236805,44.36678],[-71.237301,44.366566],[-71.238069,44.366473],[-71.23866,44.366506],[-71.238724,44.366524]]}},
{"type":"Feature","properties":{"mountain_slug":"mount-washington","trail":"Presidential Rail Trail","seq":31,"start_mile":3.1,"end_mile":3.2},"geometry":{"type":"LineString","coordinates":[[-71.238724,44.366524],[-71.240612,44.367037]]}},
{"type":"Feature","properties":{"mountain_slug":"mount-washington","trail":"Presidential Rail Trail","seq":32,"start_mile":3.2,"end_mile":3.3},"geometry":{"type":"LineString","coordinates":[[-71.240612,44.367037],[-71.240854,44.367103],[-71.241556,44.367211],[-71.242591,44.367126]]}},
{"type":"Feature","properties":{"mountain_slug":"mount-washington","trail":"Presidential Rail Trail","seq":33,"start_mile":3.3,"end_mile":3.4},"geometry":{"type":"LineString","coordinates":[[-71.242591,44.367126],[-71.244597,44.36696]]}},
{"type":"Feature","properties":{"mountain_slug":"mount-washington","trail":"Presidential Rail Trail","seq":34,"start_mile":3.4,"end_mile":3.5},"geometry":{"type":"LineString","coordinates":[[-71.244597,44.36696],[-71.245226,44.366908],[-71.246612,44.366898]]}},
{"type":"Feature","properties":{"mountain_slug":"mount-washington","trail":"Presidential Rail Trail","seq":35,"start_mile":3.5,"end_mile":3.6},"geometry":{"type":"LineString","coordinates":[[-71.246612,44.366898],[-71.246854,44.366896],[-71.248539,44.3673]]}},
{"type":"Feature","properties":{"mountain_slug":"mount-washington","trail":"Presidential Rail Trail","seq":36,"start_mile":3.6,"end_mile":3.7},"geometry":{"type":"LineString","coordinates":[[-71.248539,44.3673],[-71.250454,44.36776]]}},
{"type":"Feature","properties":{"mountain_slug":"mount-washington","trail":"Presidential Rail Trail","seq":37,"start_mile":3.7,"end_mile":3.8},"geometry":{"type":"LineString","coordinates":[[-71.250454,44.36776],[-71.252368,44.368219]]}},
{"type":"Feature","properties":{"mountain_slug":"mount-washington","trail":"Presidential Rail Trail","seq":38,"start_mile":3.8,"end_mile":3.9},"geometry":{"type":"LineString","coordinates":[[-71.252368,44.368219],[-71.254283,44.368679]]}},
{"type":"Feature","properties":{"mountain_slug":"mount-washington","trail":"Presidential Rail Trail","seq":39,"start_mile":3.9,"end_mile":4.0},"geometry":{"type":"LineString","coordinates":[[-71.254283,44.368679],[-71.256198,44.369138]]}},
{"type":"Feature","properties":{"mountain_slug":"mount-washington","trail":"Presidential Rail Trail","seq":40,"start_mile":4.0,"end_mile":4.1},"geometry":{"type":"LineString","coordinates":[[-71.256198,44.369138],[-71.258113,44.369598]]}},
{"type":"Feature","properties":{"mountain_slug":"mount-washington","trail":"Presidential Rail Trail","seq":41,"start_mile":4.1,"end_mile":4.2},"geometry":{"type":"LineString","coordinates":[[-71.258113,44.369598],[-71.260028,44.370057]]}},
{"type":"Feature","properties":{"mountain_slug":"mount-washington","trail":"Presidential Rail Trail","seq":42,"start_mile":4.2,"end_mile":4.3},"geometry":{"type":"LineString","coordinates":[[-71.260028,44.370057],[-71.261942,44.370517]]}},
{"type":"Feature","properties":{"mountain_slug":"mount-washington","trail":"Presidential Rail Trail","seq":43,"start_mile":4.3,"end_mile":4.4},"geometry":{"type":"LineString","coordinates":[[-71.261942,44.370517],[-71.262189,44.370576],[-71.263903,44.370858]]}},
{"type":"Feature","properties":{"mountain_slug":"mount-washington","trail":"Presidential Rail Trail","seq":44,"start_mile":4.4,"end_mile":4.5},"geometry":{"type":"LineString","coordinates":[[-71.263903,44.370858],[-71.263971,44.370869],[-71.26592,44.370908]]}},
{"type":"Feature","properties":{"mountain_slug":"mount-washington","trail":"Presidential Rail Trail","seq":45,"start_mile":4.5,"end_mile":4.6},"geometry":{"type":"LineString","coordinates":[[-71.26592,44.370908],[-71.267938,44.370948]]}},
{"type":"Feature","properties":{"mountain_slug":"mount-washington","trail":"Presidential Rail Trail","seq":46,"start_mile":4.6,"end_mile":4.7},"geometry":{"type":"LineString","coordinates":[[-71.267938,44.370948],[-71.269957,44.370989]]}},
{"type":"Feature","properties":{"mountain_slug":"mount-washington","trail":"Presidential Rail Trail","seq":47,"start_mile":4.7,"end_mile":4.8},"geometry":{"type":"LineString","coordinates":[[-71.269957,44.370989],[-71.271975,44.371029]]}},
{"type":"Feature","properties":{"mountain_slug":"mount-washington","trail":"Presidential Rail Trail","seq":48,"start_mile":4.8,"end_mile":4.9},"geometry":{"type":"LineString","coordinates":[[-71.271975,44.371029],[-71.273993,44.371069]]}},
{"type":"Feature","properties":{"mountain_slug":"mount-washington","trail":"Presidential Rail Trail","seq":49,"start_mile":4.9,"end_mile":5.0},"geometry":{"type":"LineString","coordinates":[[-71.273993,44.371069],[-71.276012,44.371109]]}},
{"type":"Feature","properties":{"mountain_slug":"mount-washington","trail":"Presidential Rail Trail","seq":50,"start_mile":5.0,"end_mile":5.1},"geometry":{"type":"LineString","coordinates":[[-71.276012,44.371109],[-71.27803,44.371149]]}},
{"type":"Feature","properties":{"mountain_slug":"mount-washington","trail":"Presidential Rail Trail","seq":51,"start_mile":5.1,"end_mile":5.2},"geometry":{"type":"LineString","coordinates":[[-71.27803,44.371149],[-71.278089,44.37115],[-71.280049,44.371165]]}},
{"type":"Feature","properties":{"mountain_slug":"mount-washington","trail":"Presidential Rail Trail","seq":52,"start_mile":5.2,"end_mile":5.3},"geometry":{"type":"LineString","coordinates":[[-71.280049,44.371165],[-71.282068,44.371181]]}},
{"type":"Feature","properties":{"mountain_slug":"mount-washington","trail":"Presidential Rail Trail","seq":53,"start_mile":5.3,"end_mile":5.4},"geometry":{"type":"LineString","coordinates":[[-71.282068,44.371181],[-71.284087,44.371197]]}},
{"type":"Feature","properties":{"mountain_slug":"mount-washington","trail":"Presidential Rail Trail","seq":54,"start_mile":5.4,"end_mile":5.5},"geometry":{"type":"LineString","coordinates":[[-71.284087,44.371197],[-71.286106,44.371213]]}},
{"type":"Feature","properties":{"mountain_slug":"mount-washington","trail":"Presidential Rail Trail","seq":55,"start_mile":5.5,"end_mile":5.6},"geometry":{"type":"LineString","coordinates":[[-71.286106,44.371213],[-71.288125,44.371228]]}},
{"type":"Feature","properties":{"mountain_slug":"mount-washington","trail":"Presidential Rail Trail","seq":56,"start_mile":5.6,"end_mile":5.7},"geometry":{"type":"LineString","coordinates":[[-71.288125,44.371228],[-71.290144,44.371244]]}},
{"type":"Feature","properties":{"mountain_slug":"mount-washington","trail":"Presidential Rail Trail","seq":57,"start_mile":5.7,"end_mile":5.8},"geometry":{"type":"LineString","coordinates":[[-71.290144,44.371244],[-71.290397,44.371246],[-71.292136,44.371024]]}},
{"type":"Feature","properties":{"mountain_slug":"mount-washington","trail":"Presidential Rail Trail","seq":58,"start_mile":5.8,"end_mile":5.9},"geometry":{"type":"LineString","coordinates":[[-71.292136,44.371024],[-71.294124,44.37077]]}},
{"type":"Feature","properties":{"mountain_slug":"mount-washington","trail":"Presidential Rail Trail","seq":59,"start_mile":5.9,"end_mile":6.0},"geometry":{"type":"LineString","coordinates":[[-71.294124,44.37077],[-71.295727,44.370565],[-71.29611,44.370511]]}},
{"type":"Feature","properties":{"mountain_slug":"mount-washington","trail":"Presidential Rail Trail","seq":60,"start_mile":6.0,"end_mile":6.1},"geometry":{"type":"LineString","coordinates":[[-71.29611,44.370511],[-71.298092,44.370232]]}},
{"type":"Feature","properties":{"mountain_slug":"mount-washington","trail":"Presidential Rail Trail","seq":61,"start_mile":6.1,"end_mile":6.2},"geometry":{"type":"LineString","coordinates":[[-71.298092,44.370232],[-71.298462,44.37018],[-71.299198,44.370016],[-71.299756,44.369838],[-71.299978,44.369741]]}},
{"type":"Feature","properties":{"mountain_slug":"mount-washington","trail":"Presidential Rail Trail","seq":62,"start_mile":6.2,"end_mile":6.3},"geometry":{"type":"LineString","coordinates":[[-71.299978,44.369741],[-71.301697,44.368981]]}},
{"type":"Feature","properties":{"mountain_slug":"mount-washington","trail":"Presidential Rail Trail","seq":63,"start_mile":6.3,"end_mile":6.4},"geometry":{"type":"LineString","coordinates":[[-71.301697,44.368981],[-71.302894,44.368453],[-71.303478,44.368318]]}},
{"type":"Feature","properties":{"mountain_slug":"mount-washington","trail":"Presidential Rail Trail","seq":64,"start_mile":6.4,"end_mile":6.5},"geometry":{"type":"LineString","coordinates":[[-71.303478,44.368318],[-71.3054,44.367874]]}},
{"type":"Feature","properties":{"mountain_slug":"mount-washington","trail":"Presidential Rail Trail","seq":65,"start_mile":6.5,"end_mile":6.6},"geometry":{"type":"LineString","coordinates":[[-71.3054,44.367874],[-71.307232,44.36745],[-71.307318,44.367423]]}},
{"type":"Feature","properties":{"mountain_slug":"mount-washington","trail":"Presidential Rail Trail","seq":66,"start_mile":6.6,"end_mile":6.7},"geometry":{"type":"LineString","coordinates":[[-71.307318,44.367423],[-71.309165,44.366838]]}},
{"type":"Feature","properties":{"mountain_slug":"mount-washington","trail":"Presidential Rail Trail","seq":67,"start_mile":6.7,"end_mile":6.8},"geometry":{"type":"LineString","coordinates":[[-71.309165,44.366838],[-71.311011,44.366252]]}},
{"type":"Feature","properties":{"mountain_slug":"mount-washington","trail":"Presidential Rail Trail","seq":68,"start_mile":6.8,"end_mile":6.9},"geometry":{"type":"LineString","coordinates":[[-71.311011,44.366252],[-71.312858,44.365666]]}},
{"type":"Feature","properties":{"mountain_slug":"mount-washington","trail":"Presidential Rail Trail","seq":69,"start_mile":6.9,"end_mile":7.0},"geometry":{"type":"LineString","coordinates":[[-71.312858,44.365666],[-71.314704,44.36508]]}},
{"type":"Feature","properties":{"mountain_slug":"mount-washington","trail":"Presidential Rail Trail","seq":70,"start_mile":7.0,"end_mile":7.1},"geometry":{"type":"LineString","coordinates":[[-71.314704,44.36508],[-71.31655,44.364494]]}},
{"type":"Feature","properties":{"mountain_slug":"mount-washington","trail":"Presidential Rail Trail","seq":71,"start_mile":7.1,"end_mile":7.2},"geometry":{"type":"LineString","coordinates":[[-71.31655,44.364494],[-71.318397,44.363909]]}},
{"type":"Feature","properties":{"mountain_slug":"mount-washington","trail":"Presidential Rail Trail","seq":72,"start_mile":7.2,"end_mile":7.3},"geometry":{"type":"LineString","coordinates":[[-71.318397,44.363909],[-71.319779,44.36347],[-71.320268,44.363372]]}},
{"type":"Feature","properties":{"mountain_slug":"mount-washington","trail":"Presidential Rail Trail","seq":73,"start_mile":7.3,"end_mile":7.4},"geometry":{"type":"LineString","coordinates":[[-71.320268,44.363372],[-71.321105,44.363205],[-71.322234,44.363048]]}},
{"type":"Feature","properties":{"mountain_slug":"mount-washington","trail":"Presidential Rail Trail","seq":74,"start_mile":7.4,"end_mile":7.5},"geometry":{"type":"LineString","coordinates":[[-71.322234,44.363048],[-71.324216,44.362773]]}},
{"type":"Feature","properties":{"mountain_slug":"mount-washington","trail":"Presidential Rail Trail","seq":75,"start_mile":7.5,"end_mile":7.6},"geometry":{"type":"LineString","coordinates":[[-71.324216,44.362773],[-71.326197,44.362497]]}},
{"type":"Feature","properties":{"mountain_slug":"mount-washington","trail":"Presidential Rail Trail","seq":76,"start_mile":7.6,"end_mile":7.7},"geometry":{"type":"LineString","coordinates":[[-71.326197,44.362497],[-71.328179,44.362221]]}},
{"type":"Feature","properties":{"mountain_slug":"mount-washington","trail":"Presidential Rail Trail","seq":77,"start_mile":7.7,"end_mile":7.8},"geometry":{"type":"LineString","coordinates":[[-71.328179,44.362221],[-71.330161,44.361945]]}},
{"type":"Feature","properties":{"mountain_slug":"mount-washington","trail":"Presidential Rail Trail","seq":78,"start_mile":7.8,"end_mile":7.9},"geometry":{"type":"LineString","coordinates":[[-71.330161,44.361945],[-71.331004,44.361828],[-71.332082,44.361521]]}},
{"type":"Feature","properties":{"mountain_slug":"mount-washington","trail":"Presidential Rail Trail","seq":79,"start_mile":7.9,"end_mile":8.0},"geometry":{"type":"LineString","coordinates":[[-71.332082,44.361521],[-71.332248,44.361473],[-71.333873,44.360854]]}},
{"type":"Feature","properties":{"mountain_slug":"mount-washington","trail":"Presidential Rail Trail","seq":80,"start_mile":8.0,"end_mile":8.1},"geometry":{"type":"LineString","coordinates":[[-71.333873,44.360854],[-71.335656,44.360175]]}},
{"type":"Feature","properties":{"mountain_slug":"mount-washington","trail":"Presidential Rail Trail","seq":81,"start_mile":8.1,"end_mile":8.2},"geometry":{"type":"LineString","coordinates":[[-71.335656,44.360175],[-71.337439,44.359495]]}},
{"type":"Feature","properties":{"mountain_slug":"mount-washington","trail":"Presidential Rail Trail","seq":82,"start_mile":8.2,"end_mile":8.3},"geometry":{"type":"LineString","coordinates":[[-71.337439,44.359495],[-71.339221,44.358815]]}},
{"type":"Feature","properties":{"mountain_slug":"mount-washington","trail":"Presidential Rail Trail","seq":83,"start_mile":8.3,"end_mile":8.4},"geometry":{"type":"LineString","coordinates":[[-71.339221,44.358815],[-71.340674,44.358262],[-71.341025,44.35817]]}},
{"type":"Feature","properties":{"mountain_slug":"mount-washington","trail":"Presidential Rail Trail","seq":84,"start_mile":8.4,"end_mile":8.5},"geometry":{"type":"LineString","coordinates":[[-71.341025,44.35817],[-71.342333,44.357826],[-71.342948,44.357744]]}},
{"type":"Feature","properties":{"mountain_slug":"mount-washington","trail":"Presidential Rail Trail","seq":85,"start_mile":8.5,"end_mile":8.6},"geometry":{"type":"LineString","coordinates":[[-71.342948,44.357744],[-71.344933,44.357479]]}},
{"type":"Feature","properties":{"mountain_slug":"mount-washington","trail":"Presidential Rail Trail","seq":86,"start_mile":8.6,"end_mile":8.7},"geometry":{"type":"LineString","coordinates":[[-71.344933,44.357479],[-71.346917,44.357214]]}},
{"type":"Feature","properties":{"mountain_slug":"mount-washington","trail":"Presidential Rail Trail","seq":87,"start_mile":8.7,"end_mile":8.8},"geometry":{"type":"LineString","coordinates":[[-71.346917,44.357214],[-71.348902,44.35695]]}},
{"type":"Feature","properties":{"mountain_slug":"mount-washington","trail":"Presidential Rail Trail","seq":88,"start_mile":8.8,"end_mile":8.9},"geometry":{"type":"LineString","coordinates":[[-71.348902,44.35695],[-71.350886,44.356685]]}},
{"type":"Feature","properties":{"mountain_slug":"mount-washington","trail":"Presidential Rail Trail","seq":89,"start_mile":8.9,"end_mile":9.0},"geometry":{"type":"LineString","coordinates":[[-71.350886,44.356685],[-71.352871,44.35642]]}},
{"type":"Feature","properties":{"mountain_slug":"mount-washington","trail":"Presidential Rail Trail","seq":90,"start_mile":9.0,"end_mile":9.1},"geometry":{"type":"LineString","coordinates":[[-71.352871,44.35642],[-71.354855,44.356155]]}},
{"type":"Feature","properties":{"mountain_slug":"mount-washington","trail":"Presidential Rail Trail","seq":91,"start_mile":9.1,"end_mile":9.2},"geometry":{"type":"LineString","coordinates":[[-71.354855,44.356155],[-71.35684,44.35589]]}},
{"type":"Feature","properties":{"mountain_slug":"mount-washington","trail":"Presidential Rail Trail","seq":92,"start_mile":9.2,"end_mile":9.3},"geometry":{"type":"LineString","coordinates":[[-71.35684,44.35589],[-71.358824,44.355625]]}},
{"type":"Feature","properties":{"mountain_slug":"mount-washington","trail":"Presidential Rail Trail","seq":93,"start_mile":9.3,"end_mile":9.4},"geometry":{"type":"LineString","coordinates":[[-71.358824,44.355625],[-71.359152,44.355581],[-71.360837,44.355592]]}},
{"type":"Feature","properties":{"mountain_slug":"mount-washington","trail":"Presidential Rail Trail","seq":94,"start_mile":9.4,"end_mile":9.5},"geometry":{"type":"LineString","coordinates":[[-71.360837,44.355592],[-71.362856,44.355606]]}},
{"type":"Feature","properties":{"mountain_slug":"mount-washington","trail":"Presidential Rail Trail","seq":95,"start_mile":9.5,"end_mile":9.6},"geometry":{"type":"LineString","coordinates":[[-71.362856,44.355606],[-71.364874,44.355619]]}},
{"type":"Feature","properties":{"mountain_slug":"mount-washington","trail":"Presidential Rail Trail","seq":96,"start_mile":9.6,"end_mile":9.7},"geometry":{"type":"LineString","coordinates":[[-71.364874,44.355619],[-71.366695,44.355631],[-71.366892,44.355621]]}},
{"type":"Feature","properties":{"mountain_slug":"mount-washington","trail":"Presidential Rail Trail","seq":97,"start_mile":9.7,"end_mile":9.8},"geometry":{"type":"LineString","coordinates":[[-71.366892,44.355621],[-71.368905,44.355516]]}},
{"type":"Feature","properties":{"mountain_slug":"mount-washington","trail":"Presidential Rail Trail","seq":98,"start_mile":9.8,"end_mile":9.9},"geometry":{"type":"LineString","coordinates":[[-71.368905,44.355516],[-71.370918,44.355411]]}},
{"type":"Feature","properties":{"mountain_slug":"mount-washington","trail":"Presidential Rail Trail","seq":99,"start_mile":9.9,"end_mile":10.0},"geometry":{"type":"LineString","coordinates":[[-71.370918,44.355411],[-71.372932,44.355305]]}},
{"type":"Feature","properties":{"mountain_slug":"mount-washington","trail":"Presidential Rail Trail","seq":100,"start_mile":10.0,"end_mile":10.1},"geometry":{"type":"LineString","coordinates":[[-71.372932,44.355305],[-71.374945,44.3552]]}},
{"type":"Feature","properties":{"mountain_slug":"mount-washington","trail":"Presidential Rail Trail","seq":101,"start_mile":10.1,"end_mile":10.2},"geometry":{"type":"LineString","coordinates":[[-71.374945,44.3552],[-71.376958,44.355095]]}},
{"type":"Feature","properties":{"mountain_slug":"mount-washington","trail":"Presidential Rail Trail","seq":102,"start_mile":10.2,"end_mile":10.3},"geometry":{"type":"LineString","coordinates":[[-71.376958,44.355095],[-71.378971,44.354989]]}},
{"type":"Feature","properties":{"mountain_slug":"mount-washington","trail":"Presidential Rail Trail","seq":103,"start_mile":10.3,"end_mile":10.4},"geometry":{"type":"LineString","coordinates":[[-71.378971,44.354989],[-71.380984,44.354884]]}},
{"type":"Feature","properties":{"mountain_slug":"mount-washington","trail":"Presidential Rail Trail","seq":104,"start_mile":10.4,"end_mile":10.5},"geometry":{"type":"LineString","coordinates":[[-71.380984,44.354884],[-71.38121,44.354872],[-71.38208,44.354953],[-71.382927,44.355202]]}},
{"type":"Feature","properties":{"mountain_slug":"mount-washington","trail":"Presidential Rail Trail","seq":105,"start_mile":10.5,"end_mile":10.6},"geometry":{"type":"LineString","coordinates":[[-71.382927,44.355202],[-71.38347,44.355361],[-71.384783,44.355771]]}},
{"type":"Feature","properties":{"mountain_slug":"mount-washington","trail":"Presidential Rail Trail","seq":106,"start_mile":10.6,"end_mile":10.7},"geometry":{"type":"LineString","coordinates":[[-71.384783,44.355771],[-71.386634,44.356348]]}},
{"type":"Feature","properties":{"mountain_slug":"mount-washington","trail":"Presidential Rail Trail","seq":107,"start_mile":10.7,"end_mile":10.8},"geometry":{"type":"LineString","coordinates":[[-71.386634,44.356348],[-71.388485,44.356926]]}},
{"type":"Feature","properties":{"mountain_slug":"mount-washington","trail":"Presidential Rail Trail","seq":108,"start_mile":10.8,"end_mile":10.9},"geometry":{"type":"LineString","coordinates":[[-71.388485,44.356926],[-71.390336,44.357504]]}},
{"type":"Feature","properties":{"mountain_slug":"mount-washington","trail":"Presidential Rail Trail","seq":109,"start_mile":10.9,"end_mile":11.0},"geometry":{"type":"LineString","coordinates":[[-71.390336,44.357504],[-71.392187,44.358082]]}},
{"type":"Feature","properties":{"mountain_slug":"mount-washington","trail":"Presidential Rail Trail","seq":110,"start_mile":11.0,"end_mile":11.1},"geometry":{"type":"LineString","coordinates":[[-71.392187,44.358082],[-71.394038,44.358659]]}},
{"type":"Feature","properties":{"mountain_slug":"mount-washington","trail":"Presidential Rail Trail","seq":111,"start_mile":11.1,"end_mile":11.2},"geometry":{"type":"LineString","coordinates":[[-71.394038,44.358659],[-71.395889,44.359237]]}},
{"type":"Feature","properties":{"mountain_slug":"mount-washington","trail":"Presidential Rail Trail","seq":112,"start_mile":11.2,"end_mile":11.3},"geometry":{"type":"LineString","coordinates":[[-71.395889,44.359237],[-71.39774,44.359814]]}},
{"type":"Feature","properties":{"mountain_slug":"mount-washington","trail":"Presidential Rail Trail","seq":113,"start_mile":11.3,"end_mile":11.4},"geometry":{"type":"LineString","coordinates":[[-71.39774,44.359814],[-71.399591,44.360392]]}},
{"type":"Feature","properties":{"mountain_slug":"mount-washington","trail":"Presidential Rail Trail","seq":114,"start_mile":11.4,"end_mile":11.5},"geometry":{"type":"LineString","coordinates":[[-71.399591,44.360392],[-71.401443,44.360969]]}},
{"type":"Feature","properties":{"mountain_slug":"mount-washington","trail":"Presidential Rail Trail","seq":115,"start_mile":11.5,"end_mile":11.6},"geometry":{"type":"LineString","coordinates":[[-71.401443,44.360969],[-71.403294,44.361547]]}},
{"type":"Feature","properties":{"mountain_slug":"mount-washington","trail":"Presidential Rail Trail","seq":116,"start_mile":11.6,"end_mile":11.7},"geometry":{"type":"LineString","coordinates":[[-71.403294,44.361547],[-71.405145,44.362124]]}},
{"type":"Feature","properties":{"mountain_slug":"mount-washington","trail":"Presidential Rail Trail","seq":117,"start_mile":11.7,"end_mile":11.8},"geometry":{"type":"LineString","coordinates":[[-71.405145,44.362124],[-71.406057,44.362409],[-71.406951,44.362768]]}},
{"type":"Feature","properties":{"mountain_slug":"mount-washington","trail":"Presidential Rail Trail","seq":118,"start_mile":11.8,"end_mile":11.9},"geometry":{"type":"LineString","coordinates":[[-71.406951,44.362768],[-71.407728,44.36308],[-71.408565,44.363622]]}},
{"type":"Feature","properties":{"mountain_slug":"mount-washington","trail":"Presidential Rail Trail","seq":119,"start_mile":11.9,"end_mile":12.0},"geometry":{"type":"LineString","coordinates":[[-71.408565,44.363622],[-71.410064,44.364593]]}},
{"type":"Feature","properties":{"mountain_slug":"mount-washington","trail":"Presidential Rail Trail","seq":120,"start_mile":12.0,"end_mile":12.1},"geometry":{"type":"LineString","coordinates":[[-71.410064,44.364593],[-71.410379,44.364797],[-71.41139,44.365351],[-71.411687,44.36544]]}},
{"type":"Feature","properties":{"mountain_slug":"mount-washington","trail":"Presidential Rail Trail","seq":121,"start_mile":12.1,"end_mile":12.2},"geometry":{"type":"LineString","coordinates":[[-71.411687,44.36544],[-71.412143,44.365578],[-71.413627,44.365828]]}},
{"type":"Feature","properties":{"mountain_slug":"mount-washington","trail":"Presidential Rail Trail","seq":122,"start_mile":12.2,"end_mile":12.3},"geometry":{"type":"LineString","coordinates":[[-71.413627,44.365828],[-71.415418,44.36613],[-71.415579,44.366185]]}},
{"type":"Feature","properties":{"mountain_slug":"mount-washington","trail":"Presidential Rail Trail","seq":123,"start_mile":12.3,"end_mile":12.4},"geometry":{"type":"LineString","coordinates":[[-71.415579,44.366185],[-71.415863,44.366283],[-71.416805,44.366732],[-71.417258,44.366983]]}},
{"type":"Feature","properties":{"mountain_slug":"mount-washington","trail":"Presidential Rail Trail","seq":124,"start_mile":12.4,"end_mile":12.5},"geometry":{"type":"LineString","coordinates":[[-71.417258,44.366983],[-71.418854,44.367871]]}},
{"type":"Feature","properties":{"mountain_slug":"mount-washington","trail":"Presidential Rail Trail","seq":125,"start_mile":12.5,"end_mile":12.6},"geometry":{"type":"LineString","coordinates":[[-71.418854,44.367871],[-71.42045,44.368758]]}},
{"type":"Feature","properties":{"mountain_slug":"mount-washington","trail":"Presidential Rail Trail","seq":126,"start_mile":12.6,"end_mile":12.7},"geometry":{"type":"LineString","coordinates":[[-71.42045,44.368758],[-71.421105,44.369122],[-71.421708,44.369375],[-71.422161,44.369511]]}},
{"type":"Feature","properties":{"mountain_slug":"mount-washington","trail":"Presidential Rail Trail","seq":127,"start_mile":12.7,"end_mile":12.8},"geometry":{"type":"LineString","coordinates":[[-71.422161,44.369511],[-71.422389,44.36958],[-71.423697,44.369806],[-71.424121,44.369841]]}},
{"type":"Feature","properties":{"mountain_slug":"mount-washington","trail":"Presidential Rail Trail","seq":128,"start_mile":12.8,"end_mile":12.9},"geometry":{"type":"LineString","coordinates":[[-71.424121,44.369841],[-71.426126,44.37001]]}},
{"type":"Feature","properties":{"mountain_slug":"mount-washington","trail":"Presidential Rail Trail","seq":129,"start_mile":12.9,"end_mile":13.0},"geometry":{"type":"LineString","coordinates":[[-71.426126,44.37001],[-71.427642,44.370137],[-71.428106,44.370255]]}},
{"type":"Feature","properties":{"mountain_slug":"mount-washington","trail":"Presidential Rail Trail","seq":130,"start_mile":13.0,"end_mile":13.1},"geometry":{"type":"LineString","coordinates":[[-71.428106,44.370255],[-71.430009,44.37074]]}},
{"type":"Feature","properties":{"mountain_slug":"mount-washington","trail":"Presidential Rail Trail","seq":131,"start_mile":13.1,"end_mile":13.2},"geometry":{"type":"LineString","coordinates":[[-71.430009,44.37074],[-71.431911,44.371224]]}},
{"type":"Feature","properties":{"mountain_slug":"mount-washington","trail":"Presidential Rail Trail","seq":132,"start_mile":13.2,"end_mile":13.3},"geometry":{"type":"LineString","coordinates":[[-71.431911,44.371224],[-71.433814,44.371709]]}},
{"type":"Feature","properties":{"mountain_slug":"mount-washington","trail":"Presidential Rail Trail","seq":133,"start_mile":13.3,"end_mile":13.4},"geometry":{"type":"LineString","coordinates":[[-71.433814,44.371709],[-71.435717,44.372193]]}},
{"type":"Feature","properties":{"mountain_slug":"mount-washington","trail":"Presidential Rail Trail","seq":134,"start_mile":13.4,"end_mile":13.5},"geometry":{"type":"LineString","coordinates":[[-71.435717,44.372193],[-71.435814,44.372218],[-71.437717,44.372377]]}},
{"type":"Feature","properties":{"mountain_slug":"mount-washington","trail":"Presidential Rail Trail","seq":135,"start_mile":13.5,"end_mile":13.6},"geometry":{"type":"LineString","coordinates":[[-71.437717,44.372377],[-71.439722,44.372545]]}},
{"type":"Feature","properties":{"mountain_slug":"mount-washington","trail":"Presidential Rail Trail","seq":136,"start_mile":13.6,"end_mile":13.7},"geometry":{"type":"LineString","coordinates":[[-71.439722,44.372545],[-71.440164,44.372582],[-71.441736,44.372648]]}},
{"type":"Feature","properties":{"mountain_slug":"mount-washington","trail":"Presidential Rail Trail","seq":137,"start_mile":13.7,"end_mile":13.8},"geometry":{"type":"LineString","coordinates":[[-71.441736,44.372648],[-71.442151,44.372666],[-71.44375,44.372581]]}},
{"type":"Feature","properties":{"mountain_slug":"mount-washington","trail":"Presidential Rail Trail","seq":138,"start_mile":13.8,"end_mile":13.9},"geometry":{"type":"LineString","coordinates":[[-71.44375,44.372581],[-71.445763,44.372473]]}},
{"type":"Feature","properties":{"mountain_slug":"mount-washington","trail":"Presidential Rail Trail","seq":139,"start_mile":13.9,"end_mile":14.0},"geometry":{"type":"LineString","coordinates":[[-71.445763,44.372473],[-71.447777,44.372366]]}},
{"type":"Feature","properties":{"mountain_slug":"mount-washington","trail":"Presidential Rail Trail","seq":140,"start_mile":14.0,"end_mile":14.1},"geometry":{"type":"LineString","coordinates":[[-71.447777,44.372366],[-71.44979,44.372259]]}},
{"type":"Feature","properties":{"mountain_slug":"mount-washington","trail":"Presidential Rail Trail","seq":141,"start_mile":14.1,"end_mile":14.2},"geometry":{"type":"LineString","coordinates":[[-71.44979,44.372259],[-71.451804,44.372152]]}},
{"type":"Feature","properties":{"mountain_slug":"mount-washington","trail":"Presidential Rail Trail","seq":142,"start_mile":14.2,"end_mile":14.3},"geometry":{"type":"LineString","coordinates":[[-71.451804,44.372152],[-71.453817,44.372045]]}},
{"type":"Feature","properties":{"mountain_slug":"mount-washington","trail":"Presidential Rail Trail","seq":143,"start_mile":14.3,"end_mile":14.4},"geometry":{"type":"LineString","coordinates":[[-71.453817,44.372045],[-71.455831,44.371938]]}},
{"type":"Feature","properties":{"mountain_slug":"mount-washington","trail":"Presidential Rail Trail","seq":144,"start_mile":14.4,"end_mile":14.5},"geometry":{"type":"LineString","coordinates":[[-71.455831,44.371938],[-71.457844,44.37183]]}},
{"type":"Feature","properties":{"mountain_slug":"mount-washington","trail":"Presidential Rail Trail","seq":145,"start_mile":14.5,"end_mile":14.6},"geometry":{"type":"LineString","coordinates":[[-71.457844,44.37183],[-71.458378,44.371802],[-71.459726,44.371613],[-71.459824,44.371577]]}},
{"type":"Feature","properties":{"mountain_slug":"mount-washington","trail":"Presidential Rail Trail","seq":146,"start_mile":14.6,"end_mile":14.7},"geometry":{"type":"LineString","coordinates":[[-71.459824,44.371577],[-71.461626,44.370923]]}},
{"type":"Feature","properties":{"mountain_slug":"mount-washington","trail":"Presidential Rail Trail","seq":147,"start_mile":14.7,"end_mile":14.8},"geometry":{"type":"LineString","coordinates":[[-71.461626,44.370923],[-71.463427,44.370269]]}},
{"type":"Feature","properties":{"mountain_slug":"mount-washington","trail":"Presidential Rail Trail","seq":148,"start_mile":14.8,"end_mile":14.9},"geometry":{"type":"LineString","coordinates":[[-71.463427,44.370269],[-71.465228,44.369615]]}},
{"type":"Feature","properties":{"mountain_slug":"mount-washington","trail":"Presidential Rail Trail","seq":149,"start_mile":14.9,"end_mile":15.0},"geometry":{"type":"LineString","coordinates":[[-71.465228,44.369615],[-71.465303,44.369587],[-71.466111,44.369461],[-71.467217,44.369414]]}},
{"type":"Feature","properties":{"mountain_slug":"mount-washington","trail":"Presidential Rail Trail","seq":150,"start_mile":15.0,"end_mile":15.1},"geometry":{"type":"LineString","coordinates":[[-71.467217,44.369414],[-71.469232,44.369328]]}},
{"type":"Feature","properties":{"mountain_slug":"mount-washington","trail":"Presidential Rail Trail","seq":151,"start_mile":15.1,"end_mile":15.2},"geometry":{"type":"LineString","coordinates":[[-71.469232,44.369328],[-71.471248,44.369243]]}},
{"type":"Feature","properties":{"mountain_slug":"mount-washington","trail":"Presidential Rail Trail","seq":152,"start_mile":15.2,"end_mile":15.3},"geometry":{"type":"LineString","coordinates":[[-71.471248,44.369243],[-71.473263,44.369157]]}},
{"type":"Feature","properties":{"mountain_slug":"mount-washington","trail":"Presidential Rail Trail","seq":153,"start_mile":15.3,"end_mile":15.4},"geometry":{"type":"LineString","coordinates":[[-71.473263,44.369157],[-71.475278,44.369071]]}},
{"type":"Feature","properties":{"mountain_slug":"mount-washington","trail":"Presidential Rail Trail","seq":154,"start_mile":15.4,"end_mile":15.5},"geometry":{"type":"LineString","coordinates":[[-71.475278,44.369071],[-71.477294,44.368986]]}},
{"type":"Feature","properties":{"mountain_slug":"mount-washington","trail":"Presidential Rail Trail","seq":155,"start_mile":15.5,"end_mile":15.6},"geometry":{"type":"LineString","coordinates":[[-71.477294,44.368986],[-71.478022,44.368955],[-71.479302,44.368843]]}},
{"type":"Feature","properties":{"mountain_slug":"mount-washington","trail":"Presidential Rail Trail","seq":156,"start_mile":15.6,"end_mile":15.7},"geometry":{"type":"LineString","coordinates":[[-71.479302,44.368843],[-71.479636,44.368814],[-71.481277,44.368548]]}},
{"type":"Feature","properties":{"mountain_slug":"mount-washington","trail":"Presidential Rail Trail","seq":157,"start_mile":15.7,"end_mile":15.8},"geometry":{"type":"LineString","coordinates":[[-71.481277,44.368548],[-71.483246,44.368228]]}},
{"type":"Feature","properties":{"mountain_slug":"mount-washington","trail":"Presidential Rail Trail","seq":158,"start_mile":15.8,"end_mile":15.9},"geometry":{"type":"LineString","coordinates":[[-71.483246,44.368228],[-71.484525,44.368021],[-71.48502,44.367996],[-71.485231,44.367997]]}},
{"type":"Feature","properties":{"mountain_slug":"mount-washington","trail":"Presidential Rail Trail","seq":159,"start_mile":15.9,"end_mile":16.0},"geometry":{"type":"LineString","coordinates":[[-71.485231,44.367997],[-71.486067,44.368003],[-71.487186,44.368279]]}},
{"type":"Feature","properties":{"mountain_slug":"mount-washington","trail":"Presidential Rail Trail","seq":160,"start_mile":16.0,"end_mile":16.1},"geometry":{"type":"LineString","coordinates":[[-71.487186,44.368279],[-71.48732,44.368311],[-71.48859,44.36903],[-71.488779,44.369158]]}},
{"type":"Feature","properties":{"mountain_slug":"mount-washington","trail":"Presidential Rail Trail","seq":161,"start_mile":16.1,"end_mile":16.2},"geometry":{"type":"LineString","coordinates":[[-71.488779,44.369158],[-71.490042,44.370015],[-71.490271,44.370131]]}},
{"type":"Feature","properties":{"mountain_slug":"mount-washington","trail":"Presidential Rail Trail","seq":162,"start_mile":16.2,"end_mile":16.3},"geometry":{"type":"LineString","coordinates":[[-71.490271,44.370131],[-71.490798,44.370396],[-71.491585,44.370734],[-71.492018,44.370841]]}},
{"type":"Feature","properties":{"mountain_slug":"mount-washington","trail":"Presidential Rail Trail","seq":163,"start_mile":16.3,"end_mile":16.35},"geometry":{"type":"LineString","coordinates":[[-71.492018,44.370841],[-71.493,44.371083]]}}
]}
