{
  "type": "FeatureCollection",
  "attribution": "© OpenStreetMap contributors",
  "license": "ODbL-1.0",
  "source": "https://www.openstreetmap.org/copyright",
  "features": [
    {
      "type": "Feature",
      "properties": {
        "mountain_slug": "quiraing",
        "name": "Quiraing loop",
        "length_km": 6.02,
        "elevation_gain_m": 445,
        "source": "© OpenStreetMap contributors"
      },
      "geometry": {
        "type": "LineString",
        "coordinates": [
          [
            -6.2891,
            57.62991
          ],
          [
            -6.2884,
            57.63012
          ],
          [
            -6.28797,
            57.63053
          ],
          [
            -6.28785,
            57.63079
          ],
          [
            -6.28635,
            57.63162
          ],
          [
            -6.28587,
            57.6322
          ],
          [
            -6.28561,
            57.63238
          ],
          [
            -6.28546,
            57.63236
          ],
          [
            -6.28519,
            57.63254
          ],
          [
            -6.285,
            57.63283
          ],
          [
            -6.28475,
            57.63284
          ],
          [
            -6.28406,
            57.6331
          ],
          [
            -6.28387,
            57.63325
          ],
          [
            -6.28316,
            57.63357
          ],
          [
            -6.28295,
            57.63376
          ],
          [
            -6.2826,
            57.6339
          ],
          [
            -6.28253,
            57.63398
          ],
          [
            -6.28137,
            57.63446
          ],
          [
            -6.28091,
            57.63474
          ],
          [
            -6.28072,
            57.6348
          ],
          [
            -6.28032,
            57.63532
          ],
          [
            -6.28036,
            57.6354
          ],
          [
            -6.28001,
            57.63543
          ],
          [
            -6.27991,
            57.6355
          ],
          [
            -6.27974,
            57.63551
          ],
          [
            -6.27962,
            57.63549
          ],
          [
            -6.2795,
            57.63532
          ],
          [
            -6.27919,
            57.63532
          ],
          [
            -6.2782,
            57.63568
          ],
          [
            -6.27803,
            57.63589
          ],
          [
            -6.27788,
            57.63595
          ],
          [
            -6.27759,
            57.63621
          ],
          [
            -6.27728,
            57.63637
          ],
          [
            -6.277,
            57.63656
          ],
          [
            -6.277,
            57.63664
          ],
          [
            -6.27674,
            57.63678
          ],
          [
            -6.27636,
            57.63684
          ],
          [
            -6.27584,
            57.63682
          ],
          [
            -6.2756,
            57.63691
          ],
          [
            -6.27515,
            57.63691
          ],
          [
            -6.2748,
            57.63697
          ],
          [
            -6.27449,
            57.63708
          ],
          [
            -6.27377,
            57.63755
          ],
          [
            -6.27326,
            57.63775
          ],
          [
            -6.27311,
            57.63804
          ],
          [
            -6.27279,
            57.63804
          ],
          [
            -6.27252,
            57.63815
          ],
          [
            -6.2722,
            57.63843
          ],
          [
            -6.27183,
            57.63861
          ],
          [
            -6.27118,
            57.63915
          ],
          [
            -6.27093,
            57.63963
          ],
          [
            -6.27062,
            57.63989
          ],
          [
            -6.27059,
            57.64012
          ],
          [
            -6.27075,
            57.64048
          ],
          [
            -6.27071,
            57.64079
          ],
          [
            -6.27088,
            57.64112
          ],
          [
            -6.27092,
            57.64146
          ],
          [
            -6.27118,
            57.64177
          ],
          [
            -6.27145,
            57.64198
          ],
          [
            -6.27158,
            57.64224
          ],
          [
            -6.27159,
            57.64263
          ],
          [
            -6.27218,
            57.64315
          ],
          [
            -6.27218,
            57.64327
          ],
          [
            -6.27241,
            57.64364
          ],
          [
            -6.27266,
            57.64378
          ],
          [
            -6.27292,
            57.64408
          ],
          [
            -6.2729,
            57.64448
          ],
          [
            -6.27318,
            57.64467
          ],
          [
            -6.27339,
            57.64491
          ],
          [
            -6.27359,
            57.64499
          ],
          [
            -6.27374,
            57.64514
          ],
          [
            -6.27399,
            57.64567
          ],
          [
            -6.27496,
            57.64642
          ],
          [
            -6.27497,
            57.64664
          ],
          [
            -6.27523,
            57.64698
          ],
          [
            -6.27516,
            57.64721
          ],
          [
            -6.27522,
            57.64766
          ],
          [
            -6.2751,
            57.64781
          ],
          [
            -6.27534,
            57.64829
          ],
          [
            -6.27664,
            57.64979
          ],
          [
            -6.27724,
            57.65013
          ],
          [
            -6.27792,
            57.65072
          ],
          [
            -6.27801,
            57.65059
          ],
          [
            -6.27818,
            57.65055
          ],
          [
            -6.27809,
            57.65029
          ],
          [
            -6.27792,
            57.65013
          ],
          [
            -6.27778,
            57.64969
          ],
          [
            -6.27743,
            57.64927
          ],
          [
            -6.27723,
            57.64866
          ],
          [
            -6.27673,
            57.64813
          ],
          [
            -6.27663,
            57.64748
          ],
          [
            -6.27647,
            57.64719
          ],
          [
            -6.27658,
            57.64692
          ],
          [
            -6.27685,
            57.64667
          ],
          [
            -6.27683,
            57.64646
          ],
          [
            -6.27659,
            57.64614
          ],
          [
            -6.27656,
            57.64534
          ],
          [
            -6.27612,
            57.64463
          ],
          [
            -6.27582,
            57.64433
          ],
          [
            -6.27569,
            57.64388
          ],
          [
            -6.27612,
            57.64363
          ],
          [
            -6.2762,
            57.64335
          ],
          [
            -6.27616,
            57.64308
          ],
          [
            -6.27571,
            57.64282
          ],
          [
            -6.27583,
            57.64248
          ],
          [
            -6.27578,
            57.64222
          ],
          [
            -6.27606,
            57.64209
          ],
          [
            -6.27579,
            57.64192
          ],
          [
            -6.27585,
            57.64128
          ],
          [
            -6.27577,
            57.64107
          ],
          [
            -6.2755,
            57.64085
          ],
          [
            -6.27534,
            57.64048
          ],
          [
            -6.27525,
            57.64023
          ],
          [
            -6.2753,
            57.63997
          ],
          [
            -6.27507,
            57.63946
          ],
          [
            -6.27513,
            57.6393
          ],
          [
            -6.27506,
            57.63919
          ],
          [
            -6.27553,
            57.63894
          ],
          [
            -6.27654,
            57.63883
          ],
          [
            -6.27704,
            57.63871
          ],
          [
            -6.2776,
            57.63866
          ],
          [
            -6.27776,
            57.63862
          ],
          [
            -6.27799,
            57.63842
          ],
          [
            -6.27876,
            57.63833
          ],
          [
            -6.27967,
            57.63796
          ],
          [
            -6.28068,
            57.6377
          ],
          [
            -6.28128,
            57.63763
          ],
          [
            -6.2813,
            57.63752
          ],
          [
            -6.28147,
            57.6375
          ],
          [
            -6.28185,
            57.63722
          ],
          [
            -6.28209,
            57.6372
          ],
          [
            -6.28247,
            57.63707
          ],
          [
            -6.2828,
            57.63621
          ],
          [
            -6.28396,
            57.63545
          ],
          [
            -6.28604,
            57.63469
          ],
          [
            -6.28672,
            57.63425
          ],
          [
            -6.28771,
            57.63393
          ],
          [
            -6.288,
            57.6339
          ],
          [
            -6.28907,
            57.63314
          ],
          [
            -6.28976,
            57.63282
          ],
          [
            -6.29009,
            57.63259
          ],
          [
            -6.29005,
            57.63253
          ],
          [
            -6.28991,
            57.63251
          ],
          [
            -6.28982,
            57.63228
          ],
          [
            -6.29019,
            57.63208
          ],
          [
            -6.29023,
            57.63198
          ],
          [
            -6.29044,
            57.6319
          ],
          [
            -6.2904,
            57.63179
          ],
          [
            -6.28967,
            57.63147
          ],
          [
            -6.28948,
            57.6313
          ],
          [
            -6.28943,
            57.63115
          ],
          [
            -6.2896,
            57.63101
          ],
          [
            -6.28934,
            57.63077
          ],
          [
            -6.28925,
            57.63047
          ],
          [
            -6.28929,
            57.63027
          ],
          [
            -6.2891,
            57.63009
          ],
          [
            -6.2891,
            57.62991
          ]
        ]
      }
    },
    {
      "type": "Feature",
      "properties": {
        "mountain_slug": "quiraing",
        "name": "Skye Trail - Stage 2",
        "length_km": 6.42,
        "elevation_gain_m": 521,
        "source": "© OpenStreetMap contributors"
      },
      "geometry": {
        "type": "LineString",
        "coordinates": [
          [
            -6.25884,
            57.66219
          ],
          [
            -6.25882,
            57.66205
          ],
          [
            -6.25857,
            57.66178
          ],
          [
            -6.25688,
            57.66091
          ],
          [
            -6.25645,
            57.6606
          ],
          [
            -6.25591,
            57.65992
          ],
          [
            -6.25584,
            57.65974
          ],
          [
            -6.25596,
            57.65915
          ],
          [
            -6.25586,
            57.65892
          ],
          [
            -6.25404,
            57.65778
          ],
          [
            -6.25328,
            57.65705
          ],
          [
            -6.25341,
            57.65704
          ],
          [
            -6.25342,
            57.65696
          ],
          [
            -6.25413,
            57.65657
          ],
          [
            -6.25425,
            57.65642
          ],
          [
            -6.25446,
            57.65634
          ],
          [
            -6.25558,
            57.65625
          ],
          [
            -6.25644,
            57.65599
          ],
          [
            -6.25711,
            57.65566
          ],
          [
            -6.25729,
            57.65535
          ],
          [
            -6.25721,
            57.65508
          ],
          [
            -6.25819,
            57.65401
          ],
          [
            -6.25866,
            57.65387
          ],
          [
            -6.25899,
            57.6539
          ],
          [
            -6.25917,
            57.65387
          ],
          [
            -6.25951,
            57.65395
          ],
          [
            -6.25962,
            57.65392
          ],
          [
            -6.2598,
            57.65354
          ],
          [
            -6.26018,
            57.6533
          ],
          [
            -6.26041,
            57.65326
          ],
          [
            -6.26083,
            57.65305
          ],
          [
            -6.26093,
            57.65294
          ],
          [
            -6.26174,
            57.65268
          ],
          [
            -6.26195,
            57.65251
          ],
          [
            -6.26267,
            57.65227
          ],
          [
            -6.26304,
            57.652
          ],
          [
            -6.26339,
            57.65188
          ],
          [
            -6.26404,
            57.65137
          ],
          [
            -6.26431,
            57.65128
          ],
          [
            -6.26448,
            57.65116
          ],
          [
            -6.26482,
            57.6507
          ],
          [
            -6.26519,
            57.65051
          ],
          [
            -6.26771,
            57.64984
          ],
          [
            -6.26791,
            57.64956
          ],
          [
            -6.26837,
            57.64834
          ],
          [
            -6.26933,
            57.64828
          ],
          [
            -6.26951,
            57.64809
          ],
          [
            -6.26996,
            57.64808
          ],
          [
            -6.27045,
            57.64795
          ],
          [
            -6.27048,
            57.64778
          ],
          [
            -6.27105,
            57.64789
          ],
          [
            -6.27135,
            57.64767
          ],
          [
            -6.27157,
            57.6476
          ],
          [
            -6.27164,
            57.64765
          ],
          [
            -6.27181,
            57.64766
          ],
          [
            -6.2719,
            57.64786
          ],
          [
            -6.27218,
            57.64797
          ],
          [
            -6.27262,
            57.64782
          ],
          [
            -6.27268,
            57.64769
          ],
          [
            -6.27285,
            57.64758
          ],
          [
            -6.27304,
            57.64715
          ],
          [
            -6.27287,
            57.64691
          ],
          [
            -6.27292,
            57.64685
          ],
          [
            -6.27328,
            57.64673
          ],
          [
            -6.27381,
            57.64631
          ],
          [
            -6.27386,
            57.6461
          ],
          [
            -6.27378,
            57.64601
          ],
          [
            -6.27387,
            57.6457
          ],
          [
            -6.27399,
            57.64567
          ],
          [
            -6.27374,
            57.64514
          ],
          [
            -6.27359,
            57.64499
          ],
          [
            -6.27339,
            57.64491
          ],
          [
            -6.27318,
            57.64467
          ],
          [
            -6.2729,
            57.64448
          ],
          [
            -6.27292,
            57.64408
          ],
          [
            -6.27266,
            57.64378
          ],
          [
            -6.27241,
            57.64364
          ],
          [
            -6.27218,
            57.64327
          ],
          [
            -6.27218,
            57.64315
          ],
          [
            -6.27159,
            57.64263
          ],
          [
            -6.27158,
            57.64224
          ],
          [
            -6.27145,
            57.64198
          ],
          [
            -6.27118,
            57.64177
          ],
          [
            -6.27092,
            57.64146
          ],
          [
            -6.27088,
            57.64112
          ],
          [
            -6.27071,
            57.64079
          ],
          [
            -6.27075,
            57.64048
          ],
          [
            -6.27059,
            57.64012
          ],
          [
            -6.27062,
            57.63989
          ],
          [
            -6.27093,
            57.63963
          ],
          [
            -6.27118,
            57.63915
          ],
          [
            -6.27183,
            57.63861
          ],
          [
            -6.2722,
            57.63843
          ],
          [
            -6.27252,
            57.63815
          ],
          [
            -6.27279,
            57.63804
          ],
          [
            -6.27311,
            57.63804
          ],
          [
            -6.27326,
            57.63775
          ],
          [
            -6.27377,
            57.63755
          ],
          [
            -6.27449,
            57.63708
          ],
          [
            -6.2748,
            57.63697
          ],
          [
            -6.27515,
            57.63691
          ],
          [
            -6.2756,
            57.63691
          ],
          [
            -6.27584,
            57.63682
          ],
          [
            -6.27636,
            57.63684
          ],
          [
            -6.27674,
            57.63678
          ],
          [
            -6.277,
            57.63664
          ],
          [
            -6.277,
            57.63656
          ],
          [
            -6.27728,
            57.63637
          ],
          [
            -6.27759,
            57.63621
          ],
          [
            -6.27788,
            57.63595
          ],
          [
            -6.27803,
            57.63589
          ],
          [
            -6.2782,
            57.63568
          ],
          [
            -6.27919,
            57.63532
          ],
          [
            -6.2795,
            57.63532
          ],
          [
            -6.27962,
            57.63549
          ],
          [
            -6.27974,
            57.63551
          ],
          [
            -6.27991,
            57.6355
          ],
          [
            -6.28001,
            57.63543
          ],
          [
            -6.28036,
            57.6354
          ],
          [
            -6.28032,
            57.63532
          ],
          [
            -6.28072,
            57.6348
          ],
          [
            -6.28091,
            57.63474
          ],
          [
            -6.28137,
            57.63446
          ],
          [
            -6.28253,
            57.63398
          ],
          [
            -6.2826,
            57.6339
          ],
          [
            -6.28295,
            57.63376
          ],
          [
            -6.28316,
            57.63357
          ],
          [
            -6.28387,
            57.63325
          ],
          [
            -6.28406,
            57.6331
          ],
          [
            -6.28475,
            57.63284
          ],
          [
            -6.285,
            57.63283
          ],
          [
            -6.28519,
            57.63254
          ],
          [
            -6.28546,
            57.63236
          ],
          [
            -6.28561,
            57.63238
          ],
          [
            -6.28587,
            57.6322
          ],
          [
            -6.28635,
            57.63162
          ],
          [
            -6.28785,
            57.63079
          ],
          [
            -6.28797,
            57.63053
          ],
          [
            -6.2884,
            57.63012
          ],
          [
            -6.28892,
            57.62998
          ],
          [
            -6.28934,
            57.6298
          ],
          [
            -6.28939,
            57.62967
          ],
          [
            -6.28923,
            57.62955
          ],
          [
            -6.28922,
            57.62939
          ],
          [
            -6.28937,
            57.62907
          ],
          [
            -6.28929,
            57.62891
          ],
          [
            -6.28971,
            57.62863
          ],
          [
            -6.29004,
            57.6283
          ],
          [
            -6.28991,
            57.62819
          ],
          [
            -6.28947,
            57.628
          ],
          [
            -6.28947,
            57.62793
          ],
          [
            -6.28922,
            57.62784
          ],
          [
            -6.28882,
            57.62737
          ],
          [
            -6.2887,
            57.62699
          ],
          [
            -6.28833,
            57.62651
          ],
          [
            -6.28834,
            57.62644
          ],
          [
            -6.28817,
            57.62636
          ],
          [
            -6.28797,
            57.62612
          ],
          [
            -6.28775,
            57.62571
          ],
          [
            -6.28733,
            57.62533
          ],
          [
            -6.28738,
            57.62529
          ],
          [
            -6.28683,
            57.62519
          ],
          [
            -6.2864,
            57.62501
          ],
          [
            -6.28628,
            57.6249
          ],
          [
            -6.28647,
            57.62472
          ],
          [
            -6.28633,
            57.62412
          ],
          [
            -6.28642,
            57.62379
          ],
          [
            -6.28677,
            57.62312
          ],
          [
            -6.28778,
            57.62197
          ],
          [
            -6.28791,
            57.62173
          ],
          [
            -6.28819,
            57.62149
          ],
          [
            -6.28819,
            57.62132
          ],
          [
            -6.28892,
            57.6211
          ],
          [
            -6.28918,
            57.62107
          ],
          [
            -6.28961,
            57.6206
          ],
          [
            -6.28988,
            57.6205
          ]
        ]
      }
    }
  ]
}
